<?xml version="1.0"?>
<gpx xmlns="http://www.topografix.com/GPX/1/1" xmlns:xsi="http://www.w3.org/2001/XMLSchema-instance" version="1.1" creator="AllTrails.com" xsi:schemaLocation="http://www.topografix.com/GPX/1/1 http://www.topografix.com/GPX/1/1/gpx.xsd">
  <metadata>
    <name><![CDATA[PicoArieiro_zu_PicoRuivo]]></name>
    <desc><![CDATA[]]></desc>
    <link href="http://www.alltrails.com">
      <text>AllTrails, LLC</text>
    </link>
    <bounds minlat="32.72757" minlon="-16.94338" maxlat="32.76035" maxlon="-16.92712"/>
  </metadata>
  <trk>
    <name><![CDATA[PicoArieiro_zu_PicoRuivo]]></name>
    <src>AllTrails</src>
    <trkseg>
      <trkpt lat="32.72933" lon="-16.9274">
        <ele>1687.06</ele>
      </trkpt>
      <trkpt lat="32.72933" lon="-16.9274">
        <ele>1687.06</ele>
      </trkpt>
      <trkpt lat="32.72964" lon="-16.92736">
        <ele>1687.52</ele>
      </trkpt>
      <trkpt lat="32.72985" lon="-16.92733">
        <ele>1687.93</ele>
      </trkpt>
      <trkpt lat="32.73002" lon="-16.92743">
        <ele>1688.8</ele>
      </trkpt>
      <trkpt lat="32.73016" lon="-16.9275">
        <ele>1691.3</ele>
      </trkpt>
      <trkpt lat="32.73032" lon="-16.92765">
        <ele>1693.66</ele>
      </trkpt>
      <trkpt lat="32.73043" lon="-16.92773">
        <ele>1696.2</ele>
      </trkpt>
      <trkpt lat="32.73083" lon="-16.92778">
        <ele>1705.87</ele>
      </trkpt>
      <trkpt lat="32.73112" lon="-16.92777">
        <ele>1711.23</ele>
      </trkpt>
      <trkpt lat="32.7314" lon="-16.92774">
        <ele>1713.39</ele>
      </trkpt>
      <trkpt lat="32.73167" lon="-16.92773">
        <ele>1717.42</ele>
      </trkpt>
      <trkpt lat="32.73195" lon="-16.92768">
        <ele>1724.14</ele>
      </trkpt>
      <trkpt lat="32.73211" lon="-16.92761">
        <ele>1726.59</ele>
      </trkpt>
      <trkpt lat="32.73218" lon="-16.92757">
        <ele>1727.16</ele>
      </trkpt>
      <trkpt lat="32.73227" lon="-16.92762">
        <ele>1727.74</ele>
      </trkpt>
      <trkpt lat="32.7323" lon="-16.9277">
        <ele>1728.48</ele>
      </trkpt>
      <trkpt lat="32.7323" lon="-16.9278">
        <ele>1729.27</ele>
      </trkpt>
      <trkpt lat="32.73232" lon="-16.92786">
        <ele>1729.37</ele>
      </trkpt>
      <trkpt lat="32.73235" lon="-16.92796">
        <ele>1729.71</ele>
      </trkpt>
      <trkpt lat="32.73239" lon="-16.92799">
        <ele>1730.22</ele>
      </trkpt>
      <trkpt lat="32.73247" lon="-16.92797">
        <ele>1731.05</ele>
      </trkpt>
      <trkpt lat="32.73255" lon="-16.92798">
        <ele>1731.05</ele>
      </trkpt>
      <trkpt lat="32.73259" lon="-16.92807">
        <ele>1731.4</ele>
      </trkpt>
      <trkpt lat="32.7326" lon="-16.92817">
        <ele>1731.72</ele>
      </trkpt>
      <trkpt lat="32.7331" lon="-16.92852">
        <ele>1739.61</ele>
      </trkpt>
      <trkpt lat="32.73312" lon="-16.92856">
        <ele>1741.45</ele>
      </trkpt>
      <trkpt lat="32.73312" lon="-16.92856">
        <ele>1741.45</ele>
      </trkpt>
      <trkpt lat="32.7331" lon="-16.92852">
        <ele>1739.61</ele>
      </trkpt>
      <trkpt lat="32.73318" lon="-16.92866">
        <ele>1746.48</ele>
      </trkpt>
      <trkpt lat="32.73334" lon="-16.92864">
        <ele>1751.49</ele>
      </trkpt>
      <trkpt lat="32.73348" lon="-16.92875">
        <ele>1762.1</ele>
      </trkpt>
      <trkpt lat="32.73356" lon="-16.9288">
        <ele>1766.95</ele>
      </trkpt>
      <trkpt lat="32.73358" lon="-16.9289">
        <ele>1769.99</ele>
      </trkpt>
      <trkpt lat="32.73364" lon="-16.92893">
        <ele>1771.82</ele>
      </trkpt>
      <trkpt lat="32.73382" lon="-16.92889">
        <ele>1774.77</ele>
      </trkpt>
      <trkpt lat="32.73482" lon="-16.92869">
        <ele>1792.78</ele>
      </trkpt>
      <trkpt lat="32.73487" lon="-16.92864">
        <ele>1794.26</ele>
      </trkpt>
      <trkpt lat="32.73495" lon="-16.92862">
        <ele>1797.72</ele>
      </trkpt>
      <trkpt lat="32.73498" lon="-16.92862">
        <ele>1799.11</ele>
      </trkpt>
      <trkpt lat="32.73502" lon="-16.92862">
        <ele>1800.94</ele>
      </trkpt>
      <trkpt lat="32.73505" lon="-16.92863">
        <ele>1802.29</ele>
      </trkpt>
      <trkpt lat="32.73518" lon="-16.92864">
        <ele>1807.85</ele>
      </trkpt>
      <trkpt lat="32.73528" lon="-16.9287">
        <ele>1810.17</ele>
      </trkpt>
      <trkpt lat="32.73536" lon="-16.9287">
        <ele>1811.88</ele>
      </trkpt>
      <trkpt lat="32.73541" lon="-16.9287">
        <ele>1812.96</ele>
      </trkpt>
      <trkpt lat="32.73545" lon="-16.92871">
        <ele>1813.56</ele>
      </trkpt>
      <trkpt lat="32.73548" lon="-16.92875">
        <ele>1813.23</ele>
      </trkpt>
      <trkpt lat="32.73568" lon="-16.92897">
        <ele>1806.24</ele>
      </trkpt>
      <trkpt lat="32.73585" lon="-16.92923">
        <ele>1798.76</ele>
      </trkpt>
      <trkpt lat="32.73601" lon="-16.92953">
        <ele>1779.17</ele>
      </trkpt>
      <trkpt lat="32.73604" lon="-16.92981">
        <ele>1769.48</ele>
      </trkpt>
      <trkpt lat="32.73605" lon="-16.9299">
        <ele>1767.2</ele>
      </trkpt>
      <trkpt lat="32.73616" lon="-16.93001">
        <ele>1761.04</ele>
      </trkpt>
      <trkpt lat="32.73624" lon="-16.93014">
        <ele>1757.69</ele>
      </trkpt>
      <trkpt lat="32.73627" lon="-16.93021">
        <ele>1758.31</ele>
      </trkpt>
      <trkpt lat="32.73629" lon="-16.93037">
        <ele>1755.94</ele>
      </trkpt>
      <trkpt lat="32.73637" lon="-16.93054">
        <ele>1744.19</ele>
      </trkpt>
      <trkpt lat="32.73646" lon="-16.93071">
        <ele>1736.04</ele>
      </trkpt>
      <trkpt lat="32.73649" lon="-16.93087">
        <ele>1734.49</ele>
      </trkpt>
      <trkpt lat="32.73648" lon="-16.93115">
        <ele>1731.37</ele>
      </trkpt>
      <trkpt lat="32.73649" lon="-16.9312">
        <ele>1730.45</ele>
      </trkpt>
      <trkpt lat="32.73649" lon="-16.9312">
        <ele>1730.45</ele>
      </trkpt>
      <trkpt lat="32.73649" lon="-16.9312">
        <ele>1730.45</ele>
      </trkpt>
      <trkpt lat="32.73655" lon="-16.93146">
        <ele>1725.26</ele>
      </trkpt>
      <trkpt lat="32.73676" lon="-16.93188">
        <ele>1698.01</ele>
      </trkpt>
      <trkpt lat="32.73683" lon="-16.93195">
        <ele>1694.83</ele>
      </trkpt>
      <trkpt lat="32.73694" lon="-16.932">
        <ele>1690.3</ele>
      </trkpt>
      <trkpt lat="32.73708" lon="-16.93208">
        <ele>1680.5</ele>
      </trkpt>
      <trkpt lat="32.73717" lon="-16.93217">
        <ele>1674.57</ele>
      </trkpt>
      <trkpt lat="32.73729" lon="-16.93222">
        <ele>1668.86</ele>
      </trkpt>
      <trkpt lat="32.73736" lon="-16.93231">
        <ele>1663.01</ele>
      </trkpt>
      <trkpt lat="32.73741" lon="-16.93234">
        <ele>1660.42</ele>
      </trkpt>
      <trkpt lat="32.73743" lon="-16.93236">
        <ele>1659.29</ele>
      </trkpt>
      <trkpt lat="32.73745" lon="-16.93242">
        <ele>1657.47</ele>
      </trkpt>
      <trkpt lat="32.73748" lon="-16.93245">
        <ele>1656.18</ele>
      </trkpt>
      <trkpt lat="32.73762" lon="-16.93257">
        <ele>1643.27</ele>
      </trkpt>
      <trkpt lat="32.73789" lon="-16.9328">
        <ele>1618.86</ele>
      </trkpt>
      <trkpt lat="32.73801" lon="-16.93304">
        <ele>1605.15</ele>
      </trkpt>
      <trkpt lat="32.73805" lon="-16.93313">
        <ele>1602.96</ele>
      </trkpt>
      <trkpt lat="32.73815" lon="-16.93332">
        <ele>1598.23</ele>
      </trkpt>
      <trkpt lat="32.73819" lon="-16.93345">
        <ele>1588.24</ele>
      </trkpt>
      <trkpt lat="32.73824" lon="-16.93356">
        <ele>1579.68</ele>
      </trkpt>
      <trkpt lat="32.73836" lon="-16.93363">
        <ele>1576.85</ele>
      </trkpt>
      <trkpt lat="32.73843" lon="-16.93365">
        <ele>1580.86</ele>
      </trkpt>
      <trkpt lat="32.73854" lon="-16.93368">
        <ele>1586.55</ele>
      </trkpt>
      <trkpt lat="32.73868" lon="-16.93373">
        <ele>1589.24</ele>
      </trkpt>
      <trkpt lat="32.73876" lon="-16.93375">
        <ele>1591.2</ele>
      </trkpt>
      <trkpt lat="32.73884" lon="-16.93377">
        <ele>1594.2</ele>
      </trkpt>
      <trkpt lat="32.73895" lon="-16.93377">
        <ele>1598.35</ele>
      </trkpt>
      <trkpt lat="32.73897" lon="-16.93378">
        <ele>1598.8</ele>
      </trkpt>
      <trkpt lat="32.73912" lon="-16.93363">
        <ele>1602.4</ele>
      </trkpt>
      <trkpt lat="32.73916" lon="-16.9336">
        <ele>1603.26</ele>
      </trkpt>
      <trkpt lat="32.73918" lon="-16.93359">
        <ele>1603.99</ele>
      </trkpt>
      <trkpt lat="32.73921" lon="-16.93357">
        <ele>1605.26</ele>
      </trkpt>
      <trkpt lat="32.73923" lon="-16.93355">
        <ele>1606.22</ele>
      </trkpt>
      <trkpt lat="32.73923" lon="-16.93355">
        <ele>1606.22</ele>
      </trkpt>
      <trkpt lat="32.73921" lon="-16.93357">
        <ele>1605.26</ele>
      </trkpt>
      <trkpt lat="32.73918" lon="-16.93359">
        <ele>1603.99</ele>
      </trkpt>
      <trkpt lat="32.73916" lon="-16.9336">
        <ele>1603.26</ele>
      </trkpt>
      <trkpt lat="32.73912" lon="-16.93363">
        <ele>1602.4</ele>
      </trkpt>
      <trkpt lat="32.73897" lon="-16.93378">
        <ele>1598.8</ele>
      </trkpt>
      <trkpt lat="32.7389" lon="-16.93388">
        <ele>1595.52</ele>
      </trkpt>
      <trkpt lat="32.73882" lon="-16.93393">
        <ele>1584.5</ele>
      </trkpt>
      <trkpt lat="32.73876" lon="-16.93395">
        <ele>1577.58</ele>
      </trkpt>
      <trkpt lat="32.73869" lon="-16.93392">
        <ele>1574.48</ele>
      </trkpt>
      <trkpt lat="32.73858" lon="-16.93384">
        <ele>1573.45</ele>
      </trkpt>
      <trkpt lat="32.7385" lon="-16.9338">
        <ele>1572.8</ele>
      </trkpt>
      <trkpt lat="32.73845" lon="-16.93379">
        <ele>1570.72</ele>
      </trkpt>
      <trkpt lat="32.73842" lon="-16.93381">
        <ele>1567.34</ele>
      </trkpt>
      <trkpt lat="32.73841" lon="-16.93388">
        <ele>1561.28</ele>
      </trkpt>
      <trkpt lat="32.73846" lon="-16.93398">
        <ele>1554.23</ele>
      </trkpt>
      <trkpt lat="32.73848" lon="-16.9341">
        <ele>1544.36</ele>
      </trkpt>
      <trkpt lat="32.73847" lon="-16.93433">
        <ele>1525.34</ele>
      </trkpt>
      <trkpt lat="32.73852" lon="-16.93449">
        <ele>1516.6</ele>
      </trkpt>
      <trkpt lat="32.73851" lon="-16.93462">
        <ele>1513.18</ele>
      </trkpt>
      <trkpt lat="32.73855" lon="-16.93473">
        <ele>1512.02</ele>
      </trkpt>
      <trkpt lat="32.73868" lon="-16.93487">
        <ele>1514.12</ele>
      </trkpt>
      <trkpt lat="32.73885" lon="-16.93529">
        <ele>1511.66</ele>
      </trkpt>
      <trkpt lat="32.73885" lon="-16.93542">
        <ele>1494.91</ele>
      </trkpt>
      <trkpt lat="32.7389" lon="-16.93554">
        <ele>1482.57</ele>
      </trkpt>
      <trkpt lat="32.73891" lon="-16.93567">
        <ele>1482.34</ele>
      </trkpt>
      <trkpt lat="32.73895" lon="-16.93572">
        <ele>1490.29</ele>
      </trkpt>
      <trkpt lat="32.73896" lon="-16.93587">
        <ele>1493.91</ele>
      </trkpt>
      <trkpt lat="32.73901" lon="-16.93603">
        <ele>1514.07</ele>
      </trkpt>
      <trkpt lat="32.73903" lon="-16.93614">
        <ele>1526.33</ele>
      </trkpt>
      <trkpt lat="32.7391" lon="-16.93645">
        <ele>1558.3</ele>
      </trkpt>
      <trkpt lat="32.73912" lon="-16.93662">
        <ele>1563.26</ele>
      </trkpt>
      <trkpt lat="32.73913" lon="-16.93669">
        <ele>1565.31</ele>
      </trkpt>
      <trkpt lat="32.7392" lon="-16.9372">
        <ele>1554.69</ele>
      </trkpt>
      <trkpt lat="32.73927" lon="-16.93735">
        <ele>1552.17</ele>
      </trkpt>
      <trkpt lat="32.73931" lon="-16.9378">
        <ele>1547.49</ele>
      </trkpt>
      <trkpt lat="32.73935" lon="-16.93798">
        <ele>1541.13</ele>
      </trkpt>
      <trkpt lat="32.73945" lon="-16.93813">
        <ele>1541.49</ele>
      </trkpt>
      <trkpt lat="32.73964" lon="-16.93827">
        <ele>1545.58</ele>
      </trkpt>
      <trkpt lat="32.73976" lon="-16.9383">
        <ele>1551.41</ele>
      </trkpt>
      <trkpt lat="32.73977" lon="-16.93844">
        <ele>1550.37</ele>
      </trkpt>
      <trkpt lat="32.73984" lon="-16.93852">
        <ele>1555.71</ele>
      </trkpt>
      <trkpt lat="32.73992" lon="-16.93858">
        <ele>1563.93</ele>
      </trkpt>
      <trkpt lat="32.73996" lon="-16.93857">
        <ele>1567.54</ele>
      </trkpt>
      <trkpt lat="32.74003" lon="-16.93857">
        <ele>1573.4</ele>
      </trkpt>
      <trkpt lat="32.74007" lon="-16.93867">
        <ele>1578.27</ele>
      </trkpt>
      <trkpt lat="32.7401" lon="-16.93869">
        <ele>1580.16</ele>
      </trkpt>
      <trkpt lat="32.74011" lon="-16.93863">
        <ele>1580.27</ele>
      </trkpt>
      <trkpt lat="32.74018" lon="-16.93866">
        <ele>1584.58</ele>
      </trkpt>
      <trkpt lat="32.74027" lon="-16.93869">
        <ele>1589.44</ele>
      </trkpt>
      <trkpt lat="32.74036" lon="-16.93879">
        <ele>1590.43</ele>
      </trkpt>
      <trkpt lat="32.74042" lon="-16.93886">
        <ele>1590.24</ele>
      </trkpt>
      <trkpt lat="32.74043" lon="-16.93902">
        <ele>1586.13</ele>
      </trkpt>
      <trkpt lat="32.74052" lon="-16.93921">
        <ele>1580.71</ele>
      </trkpt>
      <trkpt lat="32.74055" lon="-16.93948">
        <ele>1568.0</ele>
      </trkpt>
      <trkpt lat="32.74061" lon="-16.93966">
        <ele>1553.71</ele>
      </trkpt>
      <trkpt lat="32.74065" lon="-16.93977">
        <ele>1543.28</ele>
      </trkpt>
      <trkpt lat="32.7407" lon="-16.93974">
        <ele>1546.18</ele>
      </trkpt>
      <trkpt lat="32.74074" lon="-16.93967">
        <ele>1552.31</ele>
      </trkpt>
      <trkpt lat="32.74069" lon="-16.9395">
        <ele>1567.18</ele>
      </trkpt>
      <trkpt lat="32.74075" lon="-16.93935">
        <ele>1576.24</ele>
      </trkpt>
      <trkpt lat="32.74076" lon="-16.93925">
        <ele>1580.36</ele>
      </trkpt>
      <trkpt lat="32.74079" lon="-16.93912">
        <ele>1587.06</ele>
      </trkpt>
      <trkpt lat="32.74087" lon="-16.93907">
        <ele>1590.76</ele>
      </trkpt>
      <trkpt lat="32.74095" lon="-16.93908">
        <ele>1588.98</ele>
      </trkpt>
      <trkpt lat="32.74101" lon="-16.93908">
        <ele>1588.17</ele>
      </trkpt>
      <trkpt lat="32.7411" lon="-16.93903">
        <ele>1588.66</ele>
      </trkpt>
      <trkpt lat="32.74115" lon="-16.93887">
        <ele>1592.62</ele>
      </trkpt>
      <trkpt lat="32.74129" lon="-16.93874">
        <ele>1588.44</ele>
      </trkpt>
      <trkpt lat="32.74141" lon="-16.93878">
        <ele>1583.17</ele>
      </trkpt>
      <trkpt lat="32.74167" lon="-16.93893">
        <ele>1570.77</ele>
      </trkpt>
      <trkpt lat="32.74178" lon="-16.93884">
        <ele>1570.67</ele>
      </trkpt>
      <trkpt lat="32.74187" lon="-16.93882">
        <ele>1571.1</ele>
      </trkpt>
      <trkpt lat="32.74194" lon="-16.93883">
        <ele>1571.55</ele>
      </trkpt>
      <trkpt lat="32.74199" lon="-16.93882">
        <ele>1571.71</ele>
      </trkpt>
      <trkpt lat="32.74203" lon="-16.93886">
        <ele>1572.49</ele>
      </trkpt>
      <trkpt lat="32.74213" lon="-16.93884">
        <ele>1572.83</ele>
      </trkpt>
      <trkpt lat="32.74221" lon="-16.93892">
        <ele>1575.01</ele>
      </trkpt>
      <trkpt lat="32.74228" lon="-16.93901">
        <ele>1575.41</ele>
      </trkpt>
      <trkpt lat="32.74287" lon="-16.93851">
        <ele>1574.85</ele>
      </trkpt>
      <trkpt lat="32.74287" lon="-16.93851">
        <ele>1574.85</ele>
      </trkpt>
      <trkpt lat="32.74287" lon="-16.93851">
        <ele>1574.85</ele>
      </trkpt>
      <trkpt lat="32.74294" lon="-16.93846">
        <ele>1573.63</ele>
      </trkpt>
      <trkpt lat="32.74296" lon="-16.93841">
        <ele>1573.22</ele>
      </trkpt>
      <trkpt lat="32.743" lon="-16.93827">
        <ele>1571.55</ele>
      </trkpt>
      <trkpt lat="32.74307" lon="-16.93821">
        <ele>1570.54</ele>
      </trkpt>
      <trkpt lat="32.74312" lon="-16.93827">
        <ele>1572.61</ele>
      </trkpt>
      <trkpt lat="32.74313" lon="-16.93843">
        <ele>1572.94</ele>
      </trkpt>
      <trkpt lat="32.74316" lon="-16.93843">
        <ele>1573.32</ele>
      </trkpt>
      <trkpt lat="32.7432" lon="-16.93839">
        <ele>1574.58</ele>
      </trkpt>
      <trkpt lat="32.74322" lon="-16.93831">
        <ele>1575.71</ele>
      </trkpt>
      <trkpt lat="32.74327" lon="-16.93827">
        <ele>1576.14</ele>
      </trkpt>
      <trkpt lat="32.74333" lon="-16.93824">
        <ele>1576.91</ele>
      </trkpt>
      <trkpt lat="32.74342" lon="-16.93826">
        <ele>1575.79</ele>
      </trkpt>
      <trkpt lat="32.74351" lon="-16.93834">
        <ele>1575.02</ele>
      </trkpt>
      <trkpt lat="32.74368" lon="-16.93857">
        <ele>1567.67</ele>
      </trkpt>
      <trkpt lat="32.74374" lon="-16.93857">
        <ele>1566.75</ele>
      </trkpt>
      <trkpt lat="32.74384" lon="-16.93852">
        <ele>1565.8</ele>
      </trkpt>
      <trkpt lat="32.7439" lon="-16.93839">
        <ele>1566.29</ele>
      </trkpt>
      <trkpt lat="32.74404" lon="-16.93832">
        <ele>1565.99</ele>
      </trkpt>
      <trkpt lat="32.74414" lon="-16.93833">
        <ele>1565.23</ele>
      </trkpt>
      <trkpt lat="32.74422" lon="-16.93836">
        <ele>1562.74</ele>
      </trkpt>
      <trkpt lat="32.74429" lon="-16.93824">
        <ele>1563.39</ele>
      </trkpt>
      <trkpt lat="32.74439" lon="-16.93816">
        <ele>1563.07</ele>
      </trkpt>
      <trkpt lat="32.74448" lon="-16.93801">
        <ele>1562.63</ele>
      </trkpt>
      <trkpt lat="32.7446" lon="-16.93789">
        <ele>1559.11</ele>
      </trkpt>
      <trkpt lat="32.74477" lon="-16.93784">
        <ele>1558.73</ele>
      </trkpt>
      <trkpt lat="32.74488" lon="-16.93784">
        <ele>1557.63</ele>
      </trkpt>
      <trkpt lat="32.74508" lon="-16.9378">
        <ele>1557.83</ele>
      </trkpt>
      <trkpt lat="32.74516" lon="-16.93766">
        <ele>1559.7</ele>
      </trkpt>
      <trkpt lat="32.7452" lon="-16.9376">
        <ele>1560.64</ele>
      </trkpt>
      <trkpt lat="32.74528" lon="-16.93758">
        <ele>1562.18</ele>
      </trkpt>
      <trkpt lat="32.74544" lon="-16.93761">
        <ele>1564.96</ele>
      </trkpt>
      <trkpt lat="32.74619" lon="-16.9377">
        <ele>1575.9</ele>
      </trkpt>
      <trkpt lat="32.74657" lon="-16.93764">
        <ele>1595.68</ele>
      </trkpt>
      <trkpt lat="32.74677" lon="-16.93762">
        <ele>1614.91</ele>
      </trkpt>
      <trkpt lat="32.74689" lon="-16.93761">
        <ele>1624.93</ele>
      </trkpt>
      <trkpt lat="32.74703" lon="-16.93764">
        <ele>1631.38</ele>
      </trkpt>
      <trkpt lat="32.7471" lon="-16.93773">
        <ele>1625.78</ele>
      </trkpt>
      <trkpt lat="32.74713" lon="-16.9378">
        <ele>1619.08</ele>
      </trkpt>
      <trkpt lat="32.74718" lon="-16.93786">
        <ele>1613.02</ele>
      </trkpt>
      <trkpt lat="32.7473" lon="-16.93787">
        <ele>1614.47</ele>
      </trkpt>
      <trkpt lat="32.74751" lon="-16.93813">
        <ele>1590.92</ele>
      </trkpt>
      <trkpt lat="32.7476" lon="-16.93828">
        <ele>1584.63</ele>
      </trkpt>
      <trkpt lat="32.74765" lon="-16.93828">
        <ele>1586.31</ele>
      </trkpt>
      <trkpt lat="32.74779" lon="-16.93815">
        <ele>1603.19</ele>
      </trkpt>
      <trkpt lat="32.74789" lon="-16.93817">
        <ele>1612.47</ele>
      </trkpt>
      <trkpt lat="32.74798" lon="-16.9383">
        <ele>1610.81</ele>
      </trkpt>
      <trkpt lat="32.74822" lon="-16.93895">
        <ele>1594.74</ele>
      </trkpt>
      <trkpt lat="32.74972" lon="-16.93932">
        <ele>1705.79</ele>
      </trkpt>
      <trkpt lat="32.74976" lon="-16.93928">
        <ele>1704.21</ele>
      </trkpt>
      <trkpt lat="32.74977" lon="-16.9392">
        <ele>1705.38</ele>
      </trkpt>
      <trkpt lat="32.74991" lon="-16.93911">
        <ele>1699.8</ele>
      </trkpt>
      <trkpt lat="32.75005" lon="-16.93909">
        <ele>1690.33</ele>
      </trkpt>
      <trkpt lat="32.75013" lon="-16.93899">
        <ele>1683.1</ele>
      </trkpt>
      <trkpt lat="32.75017" lon="-16.93881">
        <ele>1683.18</ele>
      </trkpt>
      <trkpt lat="32.75018" lon="-16.93865">
        <ele>1686.14</ele>
      </trkpt>
      <trkpt lat="32.75033" lon="-16.9385">
        <ele>1678.48</ele>
      </trkpt>
      <trkpt lat="32.75057" lon="-16.93845">
        <ele>1656.49</ele>
      </trkpt>
      <trkpt lat="32.75075" lon="-16.93832">
        <ele>1657.76</ele>
      </trkpt>
      <trkpt lat="32.75076" lon="-16.93839">
        <ele>1654.22</ele>
      </trkpt>
      <trkpt lat="32.75074" lon="-16.93848">
        <ele>1650.84</ele>
      </trkpt>
      <trkpt lat="32.75076" lon="-16.93854">
        <ele>1647.83</ele>
      </trkpt>
      <trkpt lat="32.75081" lon="-16.93854">
        <ele>1646.96</ele>
      </trkpt>
      <trkpt lat="32.75092" lon="-16.93839">
        <ele>1648.76</ele>
      </trkpt>
      <trkpt lat="32.75104" lon="-16.93831">
        <ele>1649.43</ele>
      </trkpt>
      <trkpt lat="32.75113" lon="-16.93834">
        <ele>1645.42</ele>
      </trkpt>
      <trkpt lat="32.75122" lon="-16.93846">
        <ele>1634.96</ele>
      </trkpt>
      <trkpt lat="32.75136" lon="-16.93859">
        <ele>1620.73</ele>
      </trkpt>
      <trkpt lat="32.75136" lon="-16.93859">
        <ele>1620.73</ele>
      </trkpt>
      <trkpt lat="32.75136" lon="-16.93859">
        <ele>1620.73</ele>
      </trkpt>
      <trkpt lat="32.75143" lon="-16.93864">
        <ele>1616.0</ele>
      </trkpt>
      <trkpt lat="32.75146" lon="-16.93883">
        <ele>1604.37</ele>
      </trkpt>
      <trkpt lat="32.75147" lon="-16.9389">
        <ele>1599.35</ele>
      </trkpt>
      <trkpt lat="32.75156" lon="-16.93895">
        <ele>1590.93</ele>
      </trkpt>
      <trkpt lat="32.75162" lon="-16.93888">
        <ele>1592.45</ele>
      </trkpt>
      <trkpt lat="32.75163" lon="-16.93874">
        <ele>1604.13</ele>
      </trkpt>
      <trkpt lat="32.75178" lon="-16.93859">
        <ele>1615.77</ele>
      </trkpt>
      <trkpt lat="32.75205" lon="-16.93849">
        <ele>1618.95</ele>
      </trkpt>
      <trkpt lat="32.75231" lon="-16.9386">
        <ele>1597.51</ele>
      </trkpt>
      <trkpt lat="32.7525" lon="-16.93849">
        <ele>1607.44</ele>
      </trkpt>
      <trkpt lat="32.75271" lon="-16.93833">
        <ele>1615.83</ele>
      </trkpt>
      <trkpt lat="32.75284" lon="-16.93826">
        <ele>1611.83</ele>
      </trkpt>
      <trkpt lat="32.75294" lon="-16.93822">
        <ele>1606.98</ele>
      </trkpt>
      <trkpt lat="32.75303" lon="-16.93826">
        <ele>1598.26</ele>
      </trkpt>
      <trkpt lat="32.75317" lon="-16.9383">
        <ele>1591.38</ele>
      </trkpt>
      <trkpt lat="32.75321" lon="-16.93839">
        <ele>1583.6</ele>
      </trkpt>
      <trkpt lat="32.75334" lon="-16.93853">
        <ele>1569.67</ele>
      </trkpt>
      <trkpt lat="32.75345" lon="-16.9387">
        <ele>1558.35</ele>
      </trkpt>
      <trkpt lat="32.75351" lon="-16.93902">
        <ele>1544.49</ele>
      </trkpt>
      <trkpt lat="32.75362" lon="-16.93911">
        <ele>1542.1</ele>
      </trkpt>
      <trkpt lat="32.75364" lon="-16.93924">
        <ele>1537.89</ele>
      </trkpt>
      <trkpt lat="32.75376" lon="-16.93934">
        <ele>1541.29</ele>
      </trkpt>
      <trkpt lat="32.75375" lon="-16.93944">
        <ele>1538.12</ele>
      </trkpt>
      <trkpt lat="32.75379" lon="-16.93957">
        <ele>1533.34</ele>
      </trkpt>
      <trkpt lat="32.75376" lon="-16.93969">
        <ele>1525.36</ele>
      </trkpt>
      <trkpt lat="32.75375" lon="-16.93988">
        <ele>1516.47</ele>
      </trkpt>
      <trkpt lat="32.75377" lon="-16.94013">
        <ele>1506.26</ele>
      </trkpt>
      <trkpt lat="32.75383" lon="-16.94021">
        <ele>1505.87</ele>
      </trkpt>
      <trkpt lat="32.75389" lon="-16.94021">
        <ele>1508.98</ele>
      </trkpt>
      <trkpt lat="32.75402" lon="-16.93998">
        <ele>1522.93</ele>
      </trkpt>
      <trkpt lat="32.75414" lon="-16.93985">
        <ele>1538.3</ele>
      </trkpt>
      <trkpt lat="32.75427" lon="-16.93977">
        <ele>1548.92</ele>
      </trkpt>
      <trkpt lat="32.75436" lon="-16.93974">
        <ele>1553.56</ele>
      </trkpt>
      <trkpt lat="32.75449" lon="-16.93972">
        <ele>1557.12</ele>
      </trkpt>
      <trkpt lat="32.75458" lon="-16.93976">
        <ele>1554.7</ele>
      </trkpt>
      <trkpt lat="32.75474" lon="-16.93981">
        <ele>1550.78</ele>
      </trkpt>
      <trkpt lat="32.75484" lon="-16.93977">
        <ele>1553.92</ele>
      </trkpt>
      <trkpt lat="32.75489" lon="-16.93977">
        <ele>1554.08</ele>
      </trkpt>
      <trkpt lat="32.75498" lon="-16.93975">
        <ele>1555.46</ele>
      </trkpt>
      <trkpt lat="32.75505" lon="-16.93977">
        <ele>1555.29</ele>
      </trkpt>
      <trkpt lat="32.75513" lon="-16.93977">
        <ele>1556.68</ele>
      </trkpt>
      <trkpt lat="32.75521" lon="-16.93974">
        <ele>1559.77</ele>
      </trkpt>
      <trkpt lat="32.75532" lon="-16.93966">
        <ele>1565.41</ele>
      </trkpt>
      <trkpt lat="32.75546" lon="-16.93951">
        <ele>1571.64</ele>
      </trkpt>
      <trkpt lat="32.75557" lon="-16.93945">
        <ele>1573.16</ele>
      </trkpt>
      <trkpt lat="32.7557" lon="-16.93938">
        <ele>1574.58</ele>
      </trkpt>
      <trkpt lat="32.75573" lon="-16.93937">
        <ele>1574.7</ele>
      </trkpt>
      <trkpt lat="32.75576" lon="-16.93937">
        <ele>1574.9</ele>
      </trkpt>
      <trkpt lat="32.75579" lon="-16.93937">
        <ele>1575.1</ele>
      </trkpt>
      <trkpt lat="32.75582" lon="-16.93936">
        <ele>1575.1</ele>
      </trkpt>
      <trkpt lat="32.75584" lon="-16.93931">
        <ele>1574.25</ele>
      </trkpt>
      <trkpt lat="32.75584" lon="-16.93927">
        <ele>1573.37</ele>
      </trkpt>
      <trkpt lat="32.75582" lon="-16.93922">
        <ele>1572.27</ele>
      </trkpt>
      <trkpt lat="32.7558" lon="-16.93919">
        <ele>1571.9</ele>
      </trkpt>
      <trkpt lat="32.75573" lon="-16.939">
        <ele>1569.4</ele>
      </trkpt>
      <trkpt lat="32.75569" lon="-16.93895">
        <ele>1569.62</ele>
      </trkpt>
      <trkpt lat="32.75564" lon="-16.93894">
        <ele>1570.91</ele>
      </trkpt>
      <trkpt lat="32.75568" lon="-16.93885">
        <ele>1567.47</ele>
      </trkpt>
      <trkpt lat="32.75579" lon="-16.93877">
        <ele>1559.81</ele>
      </trkpt>
      <trkpt lat="32.75581" lon="-16.93874">
        <ele>1557.52</ele>
      </trkpt>
      <trkpt lat="32.756" lon="-16.93868">
        <ele>1544.62</ele>
      </trkpt>
      <trkpt lat="32.75637" lon="-16.93855">
        <ele>1525.31</ele>
      </trkpt>
      <trkpt lat="32.75656" lon="-16.93836">
        <ele>1517.55</ele>
      </trkpt>
      <trkpt lat="32.75671" lon="-16.9382">
        <ele>1509.73</ele>
      </trkpt>
      <trkpt lat="32.7568" lon="-16.93813">
        <ele>1506.46</ele>
      </trkpt>
      <trkpt lat="32.75682" lon="-16.93814">
        <ele>1507.76</ele>
      </trkpt>
      <trkpt lat="32.75685" lon="-16.93826">
        <ele>1519.88</ele>
      </trkpt>
      <trkpt lat="32.75699" lon="-16.93853">
        <ele>1562.08</ele>
      </trkpt>
      <trkpt lat="32.75707" lon="-16.93866">
        <ele>1583.7</ele>
      </trkpt>
      <trkpt lat="32.75718" lon="-16.93881">
        <ele>1601.62</ele>
      </trkpt>
      <trkpt lat="32.75729" lon="-16.93889">
        <ele>1610.25</ele>
      </trkpt>
      <trkpt lat="32.75753" lon="-16.93879">
        <ele>1608.96</ele>
      </trkpt>
      <trkpt lat="32.75754" lon="-16.93882">
        <ele>1610.82</ele>
      </trkpt>
      <trkpt lat="32.75751" lon="-16.93889">
        <ele>1614.26</ele>
      </trkpt>
      <trkpt lat="32.75742" lon="-16.93899">
        <ele>1616.4</ele>
      </trkpt>
      <trkpt lat="32.75737" lon="-16.93914">
        <ele>1620.39</ele>
      </trkpt>
      <trkpt lat="32.75748" lon="-16.93909">
        <ele>1622.07</ele>
      </trkpt>
      <trkpt lat="32.75786" lon="-16.93874">
        <ele>1608.54</ele>
      </trkpt>
      <trkpt lat="32.75802" lon="-16.93868">
        <ele>1607.41</ele>
      </trkpt>
      <trkpt lat="32.75815" lon="-16.93863">
        <ele>1604.48</ele>
      </trkpt>
      <trkpt lat="32.7582" lon="-16.93876">
        <ele>1612.07</ele>
      </trkpt>
      <trkpt lat="32.7583" lon="-16.9388">
        <ele>1613.8</ele>
      </trkpt>
      <trkpt lat="32.75843" lon="-16.93879">
        <ele>1612.08</ele>
      </trkpt>
      <trkpt lat="32.75853" lon="-16.93874">
        <ele>1607.23</ele>
      </trkpt>
      <trkpt lat="32.75858" lon="-16.93877">
        <ele>1609.06</ele>
      </trkpt>
      <trkpt lat="32.75868" lon="-16.93892">
        <ele>1622.12</ele>
      </trkpt>
      <trkpt lat="32.75879" lon="-16.939">
        <ele>1628.55</ele>
      </trkpt>
      <trkpt lat="32.75889" lon="-16.93915">
        <ele>1638.04</ele>
      </trkpt>
      <trkpt lat="32.759" lon="-16.93926">
        <ele>1644.72</ele>
      </trkpt>
      <trkpt lat="32.75903" lon="-16.9393">
        <ele>1646.87</ele>
      </trkpt>
      <trkpt lat="32.75902" lon="-16.93952">
        <ele>1658.66</ele>
      </trkpt>
      <trkpt lat="32.75909" lon="-16.93968">
        <ele>1662.22</ele>
      </trkpt>
      <trkpt lat="32.75934" lon="-16.93983">
        <ele>1671.27</ele>
      </trkpt>
      <trkpt lat="32.75949" lon="-16.93976">
        <ele>1671.87</ele>
      </trkpt>
      <trkpt lat="32.75963" lon="-16.93965">
        <ele>1671.01</ele>
      </trkpt>
      <trkpt lat="32.75968" lon="-16.93956">
        <ele>1667.17</ele>
      </trkpt>
      <trkpt lat="32.75981" lon="-16.93948">
        <ele>1668.99</ele>
      </trkpt>
      <trkpt lat="32.75983" lon="-16.93934">
        <ele>1662.28</ele>
      </trkpt>
      <trkpt lat="32.75989" lon="-16.93921">
        <ele>1658.53</ele>
      </trkpt>
      <trkpt lat="32.75992" lon="-16.93926">
        <ele>1663.1</ele>
      </trkpt>
      <trkpt lat="32.7599" lon="-16.93934">
        <ele>1666.53</ele>
      </trkpt>
      <trkpt lat="32.75992" lon="-16.93944">
        <ele>1673.56</ele>
      </trkpt>
      <trkpt lat="32.75996" lon="-16.93952">
        <ele>1681.3</ele>
      </trkpt>
      <trkpt lat="32.75996" lon="-16.93961">
        <ele>1687.14</ele>
      </trkpt>
      <trkpt lat="32.75981" lon="-16.93981">
        <ele>1689.34</ele>
      </trkpt>
      <trkpt lat="32.7597" lon="-16.9401">
        <ele>1700.22</ele>
      </trkpt>
      <trkpt lat="32.75953" lon="-16.94043">
        <ele>1707.86</ele>
      </trkpt>
      <trkpt lat="32.75946" lon="-16.94049">
        <ele>1707.02</ele>
      </trkpt>
      <trkpt lat="32.75939" lon="-16.94053">
        <ele>1706.7</ele>
      </trkpt>
      <trkpt lat="32.75917" lon="-16.94051">
        <ele>1702.59</ele>
      </trkpt>
      <trkpt lat="32.7591" lon="-16.94053">
        <ele>1705.84</ele>
      </trkpt>
      <trkpt lat="32.75909" lon="-16.94057">
        <ele>1709.1</ele>
      </trkpt>
      <trkpt lat="32.75912" lon="-16.9406">
        <ele>1710.76</ele>
      </trkpt>
      <trkpt lat="32.75941" lon="-16.9409">
        <ele>1724.61</ele>
      </trkpt>
      <trkpt lat="32.75941" lon="-16.9409">
        <ele>1724.61</ele>
      </trkpt>
      <trkpt lat="32.75941" lon="-16.9409">
        <ele>1724.61</ele>
      </trkpt>
      <trkpt lat="32.75945" lon="-16.94095">
        <ele>1725.61</ele>
      </trkpt>
      <trkpt lat="32.75967" lon="-16.94093">
        <ele>1724.55</ele>
      </trkpt>
      <trkpt lat="32.75971" lon="-16.94092">
        <ele>1724.13</ele>
      </trkpt>
      <trkpt lat="32.75976" lon="-16.94091">
        <ele>1724.58</ele>
      </trkpt>
      <trkpt lat="32.75979" lon="-16.94085">
        <ele>1723.06</ele>
      </trkpt>
      <trkpt lat="32.75988" lon="-16.9408">
        <ele>1723.42</ele>
      </trkpt>
      <trkpt lat="32.75991" lon="-16.94079">
        <ele>1723.7</ele>
      </trkpt>
      <trkpt lat="32.76002" lon="-16.94089">
        <ele>1729.11</ele>
      </trkpt>
      <trkpt lat="32.76007" lon="-16.94095">
        <ele>1731.45</ele>
      </trkpt>
      <trkpt lat="32.7601" lon="-16.94097">
        <ele>1732.28</ele>
      </trkpt>
      <trkpt lat="32.76013" lon="-16.94099">
        <ele>1733.11</ele>
      </trkpt>
      <trkpt lat="32.76014" lon="-16.941">
        <ele>1733.5</ele>
      </trkpt>
      <trkpt lat="32.76017" lon="-16.94103">
        <ele>1734.69</ele>
      </trkpt>
      <trkpt lat="32.76019" lon="-16.94107">
        <ele>1736.2</ele>
      </trkpt>
      <trkpt lat="32.76022" lon="-16.94111">
        <ele>1737.75</ele>
      </trkpt>
      <trkpt lat="32.7603" lon="-16.94124">
        <ele>1740.95</ele>
      </trkpt>
      <trkpt lat="32.7603" lon="-16.94126">
        <ele>1741.49</ele>
      </trkpt>
      <trkpt lat="32.76028" lon="-16.94128">
        <ele>1742.23</ele>
      </trkpt>
      <trkpt lat="32.76026" lon="-16.94128">
        <ele>1742.35</ele>
      </trkpt>
      <trkpt lat="32.76021" lon="-16.94128">
        <ele>1742.61</ele>
      </trkpt>
      <trkpt lat="32.76021" lon="-16.94128">
        <ele>1742.61</ele>
      </trkpt>
      <trkpt lat="32.76021" lon="-16.94128">
        <ele>1742.61</ele>
      </trkpt>
      <trkpt lat="32.76017" lon="-16.94128">
        <ele>1742.81</ele>
      </trkpt>
      <trkpt lat="32.76017" lon="-16.94131">
        <ele>1743.74</ele>
      </trkpt>
      <trkpt lat="32.76018" lon="-16.94133">
        <ele>1744.27</ele>
      </trkpt>
      <trkpt lat="32.7602" lon="-16.94138">
        <ele>1745.58</ele>
      </trkpt>
      <trkpt lat="32.76023" lon="-16.94144">
        <ele>1747.2</ele>
      </trkpt>
      <trkpt lat="32.76028" lon="-16.94153">
        <ele>1750.01</ele>
      </trkpt>
      <trkpt lat="32.7603" lon="-16.94154">
        <ele>1749.74</ele>
      </trkpt>
      <trkpt lat="32.76035" lon="-16.94153">
        <ele>1747.97</ele>
      </trkpt>
      <trkpt lat="32.76026" lon="-16.9416">
        <ele>1752.55</ele>
      </trkpt>
      <trkpt lat="32.76026" lon="-16.9416">
        <ele>1752.55</ele>
      </trkpt>
      <trkpt lat="32.76008" lon="-16.94187">
        <ele>1757.42</ele>
      </trkpt>
      <trkpt lat="32.76008" lon="-16.94187">
        <ele>1757.42</ele>
      </trkpt>
      <trkpt lat="32.76019" lon="-16.94249">
        <ele>1762.81</ele>
      </trkpt>
      <trkpt lat="32.76019" lon="-16.94249">
        <ele>1762.81</ele>
      </trkpt>
      <trkpt lat="32.76019" lon="-16.94248">
        <ele>1762.5</ele>
      </trkpt>
      <trkpt lat="32.76019" lon="-16.94248">
        <ele>1762.5</ele>
      </trkpt>
      <trkpt lat="32.76019" lon="-16.94248">
        <ele>1762.5</ele>
      </trkpt>
      <trkpt lat="32.76019" lon="-16.94248">
        <ele>1762.5</ele>
      </trkpt>
      <trkpt lat="32.76019" lon="-16.94248">
        <ele>1762.5</ele>
      </trkpt>
      <trkpt lat="32.76019" lon="-16.94248">
        <ele>1762.5</ele>
      </trkpt>
      <trkpt lat="32.76013" lon="-16.94334">
        <ele>1791.93</ele>
      </trkpt>
      <trkpt lat="32.76013" lon="-16.94334">
        <ele>1791.93</ele>
      </trkpt>
      <trkpt lat="32.75984" lon="-16.94312">
        <ele>1809.05</ele>
      </trkpt>
      <trkpt lat="32.75984" lon="-16.94312">
        <ele>1809.05</ele>
      </trkpt>
      <trkpt lat="32.75975" lon="-16.94338">
        <ele>1817.78</ele>
      </trkpt>
      <trkpt lat="32.75975" lon="-16.94338">
        <ele>1817.78</ele>
      </trkpt>
      <trkpt lat="32.75952" lon="-16.94305">
        <ele>1814.82</ele>
      </trkpt>
      <trkpt lat="32.75952" lon="-16.94305">
        <ele>1814.82</ele>
      </trkpt>
      <trkpt lat="32.75946" lon="-16.94329">
        <ele>1815.24</ele>
      </trkpt>
      <trkpt lat="32.75946" lon="-16.94329">
        <ele>1815.24</ele>
      </trkpt>
      <trkpt lat="32.75897" lon="-16.94327">
        <ele>1803.78</ele>
      </trkpt>
      <trkpt lat="32.75897" lon="-16.94327">
        <ele>1803.78</ele>
      </trkpt>
      <trkpt lat="32.75884" lon="-16.94294">
        <ele>1789.13</ele>
      </trkpt>
      <trkpt lat="32.75884" lon="-16.94294">
        <ele>1789.13</ele>
      </trkpt>
      <trkpt lat="32.75894" lon="-16.94281">
        <ele>1789.32</ele>
      </trkpt>
      <trkpt lat="32.75894" lon="-16.94281">
        <ele>1789.32</ele>
      </trkpt>
      <trkpt lat="32.75909" lon="-16.9431">
        <ele>1804.5</ele>
      </trkpt>
      <trkpt lat="32.75909" lon="-16.9431">
        <ele>1804.5</ele>
      </trkpt>
      <trkpt lat="32.75876" lon="-16.94254">
        <ele>1775.45</ele>
      </trkpt>
      <trkpt lat="32.75876" lon="-16.94254">
        <ele>1775.45</ele>
      </trkpt>
      <trkpt lat="32.75896" lon="-16.94271">
        <ele>1786.6</ele>
      </trkpt>
      <trkpt lat="32.75896" lon="-16.94271">
        <ele>1786.6</ele>
      </trkpt>
      <trkpt lat="32.75881" lon="-16.94306">
        <ele>1791.21</ele>
      </trkpt>
      <trkpt lat="32.75881" lon="-16.94306">
        <ele>1791.21</ele>
      </trkpt>
      <trkpt lat="32.75942" lon="-16.94325">
        <ele>1814.54</ele>
      </trkpt>
      <trkpt lat="32.75942" lon="-16.94325">
        <ele>1814.54</ele>
      </trkpt>
      <trkpt lat="32.75956" lon="-16.943">
        <ele>1813.02</ele>
      </trkpt>
      <trkpt lat="32.75956" lon="-16.943">
        <ele>1813.02</ele>
      </trkpt>
      <trkpt lat="32.75981" lon="-16.94338">
        <ele>1814.43</ele>
      </trkpt>
      <trkpt lat="32.75981" lon="-16.94338">
        <ele>1814.43</ele>
      </trkpt>
      <trkpt lat="32.7599" lon="-16.94312">
        <ele>1805.43</ele>
      </trkpt>
      <trkpt lat="32.7599" lon="-16.94312">
        <ele>1805.43</ele>
      </trkpt>
      <trkpt lat="32.76007" lon="-16.94333">
        <ele>1797.36</ele>
      </trkpt>
      <trkpt lat="32.76007" lon="-16.94333">
        <ele>1797.36</ele>
      </trkpt>
      <trkpt lat="32.7601" lon="-16.94286">
        <ele>1781.06</ele>
      </trkpt>
      <trkpt lat="32.7601" lon="-16.94286">
        <ele>1781.06</ele>
      </trkpt>
      <trkpt lat="32.76015" lon="-16.94255">
        <ele>1768.62</ele>
      </trkpt>
      <trkpt lat="32.76015" lon="-16.94255">
        <ele>1768.62</ele>
      </trkpt>
      <trkpt lat="32.76007" lon="-16.94216">
        <ele>1762.7</ele>
      </trkpt>
      <trkpt lat="32.76007" lon="-16.94216">
        <ele>1762.7</ele>
      </trkpt>
      <trkpt lat="32.76015" lon="-16.94164">
        <ele>1753.34</ele>
      </trkpt>
      <trkpt lat="32.76015" lon="-16.94164">
        <ele>1753.34</ele>
      </trkpt>
      <trkpt lat="32.76025" lon="-16.94154">
        <ele>1750.47</ele>
      </trkpt>
      <trkpt lat="32.76025" lon="-16.94154">
        <ele>1750.47</ele>
      </trkpt>
      <trkpt lat="32.76028" lon="-16.94153">
        <ele>1750.01</ele>
      </trkpt>
      <trkpt lat="32.76023" lon="-16.94144">
        <ele>1747.2</ele>
      </trkpt>
      <trkpt lat="32.7602" lon="-16.94138">
        <ele>1745.58</ele>
      </trkpt>
      <trkpt lat="32.76018" lon="-16.94133">
        <ele>1744.27</ele>
      </trkpt>
      <trkpt lat="32.76017" lon="-16.94131">
        <ele>1743.74</ele>
      </trkpt>
      <trkpt lat="32.76017" lon="-16.94128">
        <ele>1742.81</ele>
      </trkpt>
      <trkpt lat="32.76022" lon="-16.94128">
        <ele>1742.55</ele>
      </trkpt>
      <trkpt lat="32.76026" lon="-16.94128">
        <ele>1742.35</ele>
      </trkpt>
      <trkpt lat="32.76028" lon="-16.94128">
        <ele>1742.23</ele>
      </trkpt>
      <trkpt lat="32.7603" lon="-16.94126">
        <ele>1741.49</ele>
      </trkpt>
      <trkpt lat="32.7603" lon="-16.94124">
        <ele>1740.95</ele>
      </trkpt>
      <trkpt lat="32.76022" lon="-16.94111">
        <ele>1737.75</ele>
      </trkpt>
      <trkpt lat="32.76019" lon="-16.94107">
        <ele>1736.2</ele>
      </trkpt>
      <trkpt lat="32.76017" lon="-16.94103">
        <ele>1734.69</ele>
      </trkpt>
      <trkpt lat="32.76014" lon="-16.941">
        <ele>1733.5</ele>
      </trkpt>
      <trkpt lat="32.76013" lon="-16.94099">
        <ele>1733.11</ele>
      </trkpt>
      <trkpt lat="32.7601" lon="-16.94097">
        <ele>1732.28</ele>
      </trkpt>
      <trkpt lat="32.76007" lon="-16.94095">
        <ele>1731.45</ele>
      </trkpt>
      <trkpt lat="32.76002" lon="-16.94089">
        <ele>1729.11</ele>
      </trkpt>
      <trkpt lat="32.75991" lon="-16.94079">
        <ele>1723.7</ele>
      </trkpt>
      <trkpt lat="32.75988" lon="-16.9408">
        <ele>1723.42</ele>
      </trkpt>
      <trkpt lat="32.75979" lon="-16.94085">
        <ele>1723.06</ele>
      </trkpt>
      <trkpt lat="32.75976" lon="-16.94091">
        <ele>1724.58</ele>
      </trkpt>
      <trkpt lat="32.75971" lon="-16.94092">
        <ele>1724.13</ele>
      </trkpt>
      <trkpt lat="32.75967" lon="-16.94093">
        <ele>1724.55</ele>
      </trkpt>
      <trkpt lat="32.75955" lon="-16.94094">
        <ele>1725.08</ele>
      </trkpt>
      <trkpt lat="32.75955" lon="-16.94094">
        <ele>1725.08</ele>
      </trkpt>
      <trkpt lat="32.75955" lon="-16.94094">
        <ele>1725.08</ele>
      </trkpt>
      <trkpt lat="32.75945" lon="-16.94095">
        <ele>1725.61</ele>
      </trkpt>
      <trkpt lat="32.75912" lon="-16.9406">
        <ele>1710.76</ele>
      </trkpt>
      <trkpt lat="32.75909" lon="-16.94057">
        <ele>1709.1</ele>
      </trkpt>
      <trkpt lat="32.7591" lon="-16.94053">
        <ele>1705.84</ele>
      </trkpt>
      <trkpt lat="32.75917" lon="-16.94051">
        <ele>1702.59</ele>
      </trkpt>
      <trkpt lat="32.75939" lon="-16.94053">
        <ele>1706.7</ele>
      </trkpt>
      <trkpt lat="32.75946" lon="-16.94049">
        <ele>1707.02</ele>
      </trkpt>
      <trkpt lat="32.75953" lon="-16.94043">
        <ele>1707.86</ele>
      </trkpt>
      <trkpt lat="32.7597" lon="-16.9401">
        <ele>1700.22</ele>
      </trkpt>
      <trkpt lat="32.75981" lon="-16.93981">
        <ele>1689.34</ele>
      </trkpt>
      <trkpt lat="32.75996" lon="-16.93961">
        <ele>1687.14</ele>
      </trkpt>
      <trkpt lat="32.75996" lon="-16.93952">
        <ele>1681.3</ele>
      </trkpt>
      <trkpt lat="32.75992" lon="-16.93944">
        <ele>1673.56</ele>
      </trkpt>
      <trkpt lat="32.7599" lon="-16.93934">
        <ele>1666.53</ele>
      </trkpt>
      <trkpt lat="32.75992" lon="-16.93926">
        <ele>1663.1</ele>
      </trkpt>
      <trkpt lat="32.75989" lon="-16.93921">
        <ele>1658.53</ele>
      </trkpt>
      <trkpt lat="32.75983" lon="-16.93934">
        <ele>1662.28</ele>
      </trkpt>
      <trkpt lat="32.75981" lon="-16.93948">
        <ele>1668.99</ele>
      </trkpt>
      <trkpt lat="32.75968" lon="-16.93956">
        <ele>1667.17</ele>
      </trkpt>
      <trkpt lat="32.75963" lon="-16.93965">
        <ele>1671.01</ele>
      </trkpt>
      <trkpt lat="32.75949" lon="-16.93976">
        <ele>1671.87</ele>
      </trkpt>
      <trkpt lat="32.75934" lon="-16.93983">
        <ele>1671.27</ele>
      </trkpt>
      <trkpt lat="32.75909" lon="-16.93968">
        <ele>1662.22</ele>
      </trkpt>
      <trkpt lat="32.75902" lon="-16.93952">
        <ele>1658.66</ele>
      </trkpt>
      <trkpt lat="32.75903" lon="-16.9393">
        <ele>1646.87</ele>
      </trkpt>
      <trkpt lat="32.759" lon="-16.93926">
        <ele>1644.72</ele>
      </trkpt>
      <trkpt lat="32.75889" lon="-16.93915">
        <ele>1638.04</ele>
      </trkpt>
      <trkpt lat="32.75879" lon="-16.939">
        <ele>1628.55</ele>
      </trkpt>
      <trkpt lat="32.75868" lon="-16.93892">
        <ele>1622.12</ele>
      </trkpt>
      <trkpt lat="32.75858" lon="-16.93877">
        <ele>1609.06</ele>
      </trkpt>
      <trkpt lat="32.75853" lon="-16.93874">
        <ele>1607.23</ele>
      </trkpt>
      <trkpt lat="32.75843" lon="-16.93879">
        <ele>1612.08</ele>
      </trkpt>
      <trkpt lat="32.7583" lon="-16.9388">
        <ele>1613.8</ele>
      </trkpt>
      <trkpt lat="32.7582" lon="-16.93876">
        <ele>1612.07</ele>
      </trkpt>
      <trkpt lat="32.75815" lon="-16.93863">
        <ele>1604.48</ele>
      </trkpt>
      <trkpt lat="32.75802" lon="-16.93868">
        <ele>1607.41</ele>
      </trkpt>
      <trkpt lat="32.75786" lon="-16.93874">
        <ele>1608.54</ele>
      </trkpt>
      <trkpt lat="32.75748" lon="-16.93909">
        <ele>1622.07</ele>
      </trkpt>
      <trkpt lat="32.75737" lon="-16.93914">
        <ele>1620.39</ele>
      </trkpt>
      <trkpt lat="32.75742" lon="-16.93899">
        <ele>1616.4</ele>
      </trkpt>
      <trkpt lat="32.75751" lon="-16.93889">
        <ele>1614.26</ele>
      </trkpt>
      <trkpt lat="32.75754" lon="-16.93882">
        <ele>1610.82</ele>
      </trkpt>
      <trkpt lat="32.75753" lon="-16.93879">
        <ele>1608.96</ele>
      </trkpt>
      <trkpt lat="32.75729" lon="-16.93889">
        <ele>1610.25</ele>
      </trkpt>
      <trkpt lat="32.75718" lon="-16.93881">
        <ele>1601.62</ele>
      </trkpt>
      <trkpt lat="32.75707" lon="-16.93866">
        <ele>1583.7</ele>
      </trkpt>
      <trkpt lat="32.75699" lon="-16.93853">
        <ele>1562.08</ele>
      </trkpt>
      <trkpt lat="32.75685" lon="-16.93826">
        <ele>1519.88</ele>
      </trkpt>
      <trkpt lat="32.75682" lon="-16.93814">
        <ele>1507.76</ele>
      </trkpt>
      <trkpt lat="32.7568" lon="-16.93813">
        <ele>1506.46</ele>
      </trkpt>
      <trkpt lat="32.75671" lon="-16.9382">
        <ele>1509.73</ele>
      </trkpt>
      <trkpt lat="32.75656" lon="-16.93836">
        <ele>1517.55</ele>
      </trkpt>
      <trkpt lat="32.75637" lon="-16.93855">
        <ele>1525.31</ele>
      </trkpt>
      <trkpt lat="32.756" lon="-16.93868">
        <ele>1544.62</ele>
      </trkpt>
      <trkpt lat="32.75581" lon="-16.93874">
        <ele>1557.52</ele>
      </trkpt>
      <trkpt lat="32.75579" lon="-16.93877">
        <ele>1559.81</ele>
      </trkpt>
      <trkpt lat="32.75568" lon="-16.93885">
        <ele>1567.47</ele>
      </trkpt>
      <trkpt lat="32.75564" lon="-16.93894">
        <ele>1570.91</ele>
      </trkpt>
      <trkpt lat="32.75569" lon="-16.93895">
        <ele>1569.62</ele>
      </trkpt>
      <trkpt lat="32.75573" lon="-16.939">
        <ele>1569.4</ele>
      </trkpt>
      <trkpt lat="32.7558" lon="-16.93919">
        <ele>1571.9</ele>
      </trkpt>
      <trkpt lat="32.75582" lon="-16.93922">
        <ele>1572.27</ele>
      </trkpt>
      <trkpt lat="32.75584" lon="-16.93927">
        <ele>1573.37</ele>
      </trkpt>
      <trkpt lat="32.75584" lon="-16.93931">
        <ele>1574.25</ele>
      </trkpt>
      <trkpt lat="32.75582" lon="-16.93936">
        <ele>1575.1</ele>
      </trkpt>
      <trkpt lat="32.75579" lon="-16.93937">
        <ele>1575.1</ele>
      </trkpt>
      <trkpt lat="32.75576" lon="-16.93937">
        <ele>1574.9</ele>
      </trkpt>
      <trkpt lat="32.75573" lon="-16.93937">
        <ele>1574.7</ele>
      </trkpt>
      <trkpt lat="32.7557" lon="-16.93938">
        <ele>1574.58</ele>
      </trkpt>
      <trkpt lat="32.75557" lon="-16.93945">
        <ele>1573.16</ele>
      </trkpt>
      <trkpt lat="32.75546" lon="-16.93951">
        <ele>1571.64</ele>
      </trkpt>
      <trkpt lat="32.75532" lon="-16.93966">
        <ele>1565.41</ele>
      </trkpt>
      <trkpt lat="32.75521" lon="-16.93974">
        <ele>1559.77</ele>
      </trkpt>
      <trkpt lat="32.75513" lon="-16.93977">
        <ele>1556.68</ele>
      </trkpt>
      <trkpt lat="32.75505" lon="-16.93977">
        <ele>1555.29</ele>
      </trkpt>
      <trkpt lat="32.75498" lon="-16.93975">
        <ele>1555.46</ele>
      </trkpt>
      <trkpt lat="32.75489" lon="-16.93977">
        <ele>1554.08</ele>
      </trkpt>
      <trkpt lat="32.75484" lon="-16.93977">
        <ele>1553.92</ele>
      </trkpt>
      <trkpt lat="32.75474" lon="-16.93981">
        <ele>1550.78</ele>
      </trkpt>
      <trkpt lat="32.75458" lon="-16.93976">
        <ele>1554.7</ele>
      </trkpt>
      <trkpt lat="32.75449" lon="-16.93972">
        <ele>1557.12</ele>
      </trkpt>
      <trkpt lat="32.75436" lon="-16.93974">
        <ele>1553.56</ele>
      </trkpt>
      <trkpt lat="32.75427" lon="-16.93977">
        <ele>1548.92</ele>
      </trkpt>
      <trkpt lat="32.75414" lon="-16.93985">
        <ele>1538.3</ele>
      </trkpt>
      <trkpt lat="32.75402" lon="-16.93998">
        <ele>1522.93</ele>
      </trkpt>
      <trkpt lat="32.75389" lon="-16.94021">
        <ele>1508.98</ele>
      </trkpt>
      <trkpt lat="32.75383" lon="-16.94021">
        <ele>1505.87</ele>
      </trkpt>
      <trkpt lat="32.75377" lon="-16.94013">
        <ele>1506.26</ele>
      </trkpt>
      <trkpt lat="32.75375" lon="-16.93988">
        <ele>1516.47</ele>
      </trkpt>
      <trkpt lat="32.75376" lon="-16.93976">
        <ele>1522.03</ele>
      </trkpt>
      <trkpt lat="32.75376" lon="-16.93976">
        <ele>1522.03</ele>
      </trkpt>
      <trkpt lat="32.75376" lon="-16.93976">
        <ele>1522.03</ele>
      </trkpt>
      <trkpt lat="32.75376" lon="-16.93969">
        <ele>1525.36</ele>
      </trkpt>
      <trkpt lat="32.75379" lon="-16.93957">
        <ele>1533.34</ele>
      </trkpt>
      <trkpt lat="32.75375" lon="-16.93944">
        <ele>1538.12</ele>
      </trkpt>
      <trkpt lat="32.75376" lon="-16.93934">
        <ele>1541.29</ele>
      </trkpt>
      <trkpt lat="32.75364" lon="-16.93924">
        <ele>1537.89</ele>
      </trkpt>
      <trkpt lat="32.75362" lon="-16.93911">
        <ele>1542.1</ele>
      </trkpt>
      <trkpt lat="32.75351" lon="-16.93902">
        <ele>1544.49</ele>
      </trkpt>
      <trkpt lat="32.75345" lon="-16.9387">
        <ele>1558.35</ele>
      </trkpt>
      <trkpt lat="32.75334" lon="-16.93853">
        <ele>1569.67</ele>
      </trkpt>
      <trkpt lat="32.75321" lon="-16.93839">
        <ele>1583.6</ele>
      </trkpt>
      <trkpt lat="32.75317" lon="-16.9383">
        <ele>1591.38</ele>
      </trkpt>
      <trkpt lat="32.75303" lon="-16.93826">
        <ele>1598.26</ele>
      </trkpt>
      <trkpt lat="32.75294" lon="-16.93822">
        <ele>1606.98</ele>
      </trkpt>
      <trkpt lat="32.75284" lon="-16.93826">
        <ele>1611.83</ele>
      </trkpt>
      <trkpt lat="32.75271" lon="-16.93833">
        <ele>1615.83</ele>
      </trkpt>
      <trkpt lat="32.7525" lon="-16.93849">
        <ele>1607.44</ele>
      </trkpt>
      <trkpt lat="32.75231" lon="-16.9386">
        <ele>1597.51</ele>
      </trkpt>
      <trkpt lat="32.75205" lon="-16.93849">
        <ele>1618.95</ele>
      </trkpt>
      <trkpt lat="32.75178" lon="-16.93859">
        <ele>1615.77</ele>
      </trkpt>
      <trkpt lat="32.75163" lon="-16.93874">
        <ele>1604.13</ele>
      </trkpt>
      <trkpt lat="32.75162" lon="-16.93888">
        <ele>1592.45</ele>
      </trkpt>
      <trkpt lat="32.75156" lon="-16.93895">
        <ele>1590.93</ele>
      </trkpt>
      <trkpt lat="32.75147" lon="-16.9389">
        <ele>1599.35</ele>
      </trkpt>
      <trkpt lat="32.75146" lon="-16.93883">
        <ele>1604.37</ele>
      </trkpt>
      <trkpt lat="32.75143" lon="-16.93864">
        <ele>1616.0</ele>
      </trkpt>
      <trkpt lat="32.75122" lon="-16.93846">
        <ele>1634.96</ele>
      </trkpt>
      <trkpt lat="32.75113" lon="-16.93834">
        <ele>1645.42</ele>
      </trkpt>
      <trkpt lat="32.75104" lon="-16.93831">
        <ele>1649.43</ele>
      </trkpt>
      <trkpt lat="32.75092" lon="-16.93839">
        <ele>1648.76</ele>
      </trkpt>
      <trkpt lat="32.75081" lon="-16.93854">
        <ele>1646.96</ele>
      </trkpt>
      <trkpt lat="32.75076" lon="-16.93854">
        <ele>1647.83</ele>
      </trkpt>
      <trkpt lat="32.75074" lon="-16.93848">
        <ele>1650.84</ele>
      </trkpt>
      <trkpt lat="32.75076" lon="-16.93839">
        <ele>1654.22</ele>
      </trkpt>
      <trkpt lat="32.75075" lon="-16.93832">
        <ele>1657.76</ele>
      </trkpt>
      <trkpt lat="32.75057" lon="-16.93845">
        <ele>1656.49</ele>
      </trkpt>
      <trkpt lat="32.75033" lon="-16.9385">
        <ele>1678.48</ele>
      </trkpt>
      <trkpt lat="32.75018" lon="-16.93865">
        <ele>1686.14</ele>
      </trkpt>
      <trkpt lat="32.75017" lon="-16.93881">
        <ele>1683.18</ele>
      </trkpt>
      <trkpt lat="32.75013" lon="-16.93899">
        <ele>1683.1</ele>
      </trkpt>
      <trkpt lat="32.75005" lon="-16.93909">
        <ele>1690.33</ele>
      </trkpt>
      <trkpt lat="32.74991" lon="-16.93911">
        <ele>1699.8</ele>
      </trkpt>
      <trkpt lat="32.74977" lon="-16.9392">
        <ele>1705.38</ele>
      </trkpt>
      <trkpt lat="32.74976" lon="-16.93928">
        <ele>1704.21</ele>
      </trkpt>
      <trkpt lat="32.74972" lon="-16.93932">
        <ele>1705.79</ele>
      </trkpt>
      <trkpt lat="32.74822" lon="-16.93895">
        <ele>1594.74</ele>
      </trkpt>
      <trkpt lat="32.74801" lon="-16.93837">
        <ele>1607.56</ele>
      </trkpt>
      <trkpt lat="32.74801" lon="-16.93837">
        <ele>1607.56</ele>
      </trkpt>
      <trkpt lat="32.74801" lon="-16.93837">
        <ele>1607.56</ele>
      </trkpt>
      <trkpt lat="32.74798" lon="-16.9383">
        <ele>1610.81</ele>
      </trkpt>
      <trkpt lat="32.74789" lon="-16.93817">
        <ele>1612.47</ele>
      </trkpt>
      <trkpt lat="32.74779" lon="-16.93815">
        <ele>1603.19</ele>
      </trkpt>
      <trkpt lat="32.74765" lon="-16.93828">
        <ele>1586.31</ele>
      </trkpt>
      <trkpt lat="32.7476" lon="-16.93828">
        <ele>1584.63</ele>
      </trkpt>
      <trkpt lat="32.74751" lon="-16.93813">
        <ele>1590.92</ele>
      </trkpt>
      <trkpt lat="32.7473" lon="-16.93787">
        <ele>1614.47</ele>
      </trkpt>
      <trkpt lat="32.74718" lon="-16.93786">
        <ele>1613.02</ele>
      </trkpt>
      <trkpt lat="32.74713" lon="-16.9378">
        <ele>1619.08</ele>
      </trkpt>
      <trkpt lat="32.7471" lon="-16.93773">
        <ele>1625.78</ele>
      </trkpt>
      <trkpt lat="32.74703" lon="-16.93764">
        <ele>1631.38</ele>
      </trkpt>
      <trkpt lat="32.74689" lon="-16.93761">
        <ele>1624.93</ele>
      </trkpt>
      <trkpt lat="32.74677" lon="-16.93762">
        <ele>1614.91</ele>
      </trkpt>
      <trkpt lat="32.74657" lon="-16.93764">
        <ele>1595.68</ele>
      </trkpt>
      <trkpt lat="32.74619" lon="-16.9377">
        <ele>1575.9</ele>
      </trkpt>
      <trkpt lat="32.74544" lon="-16.93761">
        <ele>1564.96</ele>
      </trkpt>
      <trkpt lat="32.74528" lon="-16.93758">
        <ele>1562.18</ele>
      </trkpt>
      <trkpt lat="32.7452" lon="-16.9376">
        <ele>1560.64</ele>
      </trkpt>
      <trkpt lat="32.74516" lon="-16.93766">
        <ele>1559.7</ele>
      </trkpt>
      <trkpt lat="32.74508" lon="-16.9378">
        <ele>1557.83</ele>
      </trkpt>
      <trkpt lat="32.74488" lon="-16.93784">
        <ele>1557.63</ele>
      </trkpt>
      <trkpt lat="32.74477" lon="-16.93784">
        <ele>1558.73</ele>
      </trkpt>
      <trkpt lat="32.7446" lon="-16.93789">
        <ele>1559.11</ele>
      </trkpt>
      <trkpt lat="32.74448" lon="-16.93801">
        <ele>1562.63</ele>
      </trkpt>
      <trkpt lat="32.74439" lon="-16.93816">
        <ele>1563.07</ele>
      </trkpt>
      <trkpt lat="32.74429" lon="-16.93824">
        <ele>1563.39</ele>
      </trkpt>
      <trkpt lat="32.74422" lon="-16.93836">
        <ele>1562.74</ele>
      </trkpt>
      <trkpt lat="32.74414" lon="-16.93833">
        <ele>1565.23</ele>
      </trkpt>
      <trkpt lat="32.74404" lon="-16.93832">
        <ele>1565.99</ele>
      </trkpt>
      <trkpt lat="32.7439" lon="-16.93839">
        <ele>1566.29</ele>
      </trkpt>
      <trkpt lat="32.74384" lon="-16.93852">
        <ele>1565.8</ele>
      </trkpt>
      <trkpt lat="32.74374" lon="-16.93857">
        <ele>1566.75</ele>
      </trkpt>
      <trkpt lat="32.74368" lon="-16.93857">
        <ele>1567.67</ele>
      </trkpt>
      <trkpt lat="32.74351" lon="-16.93834">
        <ele>1575.02</ele>
      </trkpt>
      <trkpt lat="32.74342" lon="-16.93826">
        <ele>1575.79</ele>
      </trkpt>
      <trkpt lat="32.74333" lon="-16.93824">
        <ele>1576.91</ele>
      </trkpt>
      <trkpt lat="32.74327" lon="-16.93827">
        <ele>1576.14</ele>
      </trkpt>
      <trkpt lat="32.74322" lon="-16.93831">
        <ele>1575.71</ele>
      </trkpt>
      <trkpt lat="32.7432" lon="-16.93839">
        <ele>1574.58</ele>
      </trkpt>
      <trkpt lat="32.74316" lon="-16.93843">
        <ele>1573.32</ele>
      </trkpt>
      <trkpt lat="32.74313" lon="-16.93843">
        <ele>1572.94</ele>
      </trkpt>
      <trkpt lat="32.74312" lon="-16.93827">
        <ele>1572.61</ele>
      </trkpt>
      <trkpt lat="32.74307" lon="-16.93821">
        <ele>1570.54</ele>
      </trkpt>
      <trkpt lat="32.743" lon="-16.93827">
        <ele>1571.55</ele>
      </trkpt>
      <trkpt lat="32.74296" lon="-16.93841">
        <ele>1573.22</ele>
      </trkpt>
      <trkpt lat="32.74294" lon="-16.93846">
        <ele>1573.63</ele>
      </trkpt>
      <trkpt lat="32.74228" lon="-16.93901">
        <ele>1575.41</ele>
      </trkpt>
      <trkpt lat="32.74221" lon="-16.93892">
        <ele>1575.01</ele>
      </trkpt>
      <trkpt lat="32.74213" lon="-16.93884">
        <ele>1572.83</ele>
      </trkpt>
      <trkpt lat="32.74203" lon="-16.93886">
        <ele>1572.49</ele>
      </trkpt>
      <trkpt lat="32.74199" lon="-16.93882">
        <ele>1571.71</ele>
      </trkpt>
      <trkpt lat="32.74194" lon="-16.93883">
        <ele>1571.55</ele>
      </trkpt>
      <trkpt lat="32.74187" lon="-16.93882">
        <ele>1571.1</ele>
      </trkpt>
      <trkpt lat="32.74178" lon="-16.93884">
        <ele>1570.67</ele>
      </trkpt>
      <trkpt lat="32.74167" lon="-16.93893">
        <ele>1570.77</ele>
      </trkpt>
      <trkpt lat="32.74141" lon="-16.93878">
        <ele>1583.17</ele>
      </trkpt>
      <trkpt lat="32.74129" lon="-16.93874">
        <ele>1588.44</ele>
      </trkpt>
      <trkpt lat="32.74115" lon="-16.93887">
        <ele>1592.62</ele>
      </trkpt>
      <trkpt lat="32.7411" lon="-16.93903">
        <ele>1588.66</ele>
      </trkpt>
      <trkpt lat="32.74101" lon="-16.93908">
        <ele>1588.17</ele>
      </trkpt>
      <trkpt lat="32.74095" lon="-16.93908">
        <ele>1588.98</ele>
      </trkpt>
      <trkpt lat="32.74087" lon="-16.93907">
        <ele>1590.76</ele>
      </trkpt>
      <trkpt lat="32.74079" lon="-16.93912">
        <ele>1587.06</ele>
      </trkpt>
      <trkpt lat="32.74076" lon="-16.93925">
        <ele>1580.36</ele>
      </trkpt>
      <trkpt lat="32.74075" lon="-16.93935">
        <ele>1576.24</ele>
      </trkpt>
      <trkpt lat="32.74069" lon="-16.9395">
        <ele>1567.18</ele>
      </trkpt>
      <trkpt lat="32.74074" lon="-16.93967">
        <ele>1552.31</ele>
      </trkpt>
      <trkpt lat="32.7407" lon="-16.93974">
        <ele>1546.18</ele>
      </trkpt>
      <trkpt lat="32.74065" lon="-16.93977">
        <ele>1543.28</ele>
      </trkpt>
      <trkpt lat="32.74061" lon="-16.93966">
        <ele>1553.71</ele>
      </trkpt>
      <trkpt lat="32.74055" lon="-16.93948">
        <ele>1568.0</ele>
      </trkpt>
      <trkpt lat="32.74052" lon="-16.93921">
        <ele>1580.71</ele>
      </trkpt>
      <trkpt lat="32.74043" lon="-16.93902">
        <ele>1586.13</ele>
      </trkpt>
      <trkpt lat="32.74042" lon="-16.93886">
        <ele>1590.24</ele>
      </trkpt>
      <trkpt lat="32.74036" lon="-16.93879">
        <ele>1590.43</ele>
      </trkpt>
      <trkpt lat="32.74027" lon="-16.93869">
        <ele>1589.44</ele>
      </trkpt>
      <trkpt lat="32.74018" lon="-16.93866">
        <ele>1584.58</ele>
      </trkpt>
      <trkpt lat="32.74011" lon="-16.93863">
        <ele>1580.27</ele>
      </trkpt>
      <trkpt lat="32.7401" lon="-16.93869">
        <ele>1580.16</ele>
      </trkpt>
      <trkpt lat="32.74007" lon="-16.93867">
        <ele>1578.27</ele>
      </trkpt>
      <trkpt lat="32.74003" lon="-16.93857">
        <ele>1573.4</ele>
      </trkpt>
      <trkpt lat="32.73996" lon="-16.93857">
        <ele>1567.54</ele>
      </trkpt>
      <trkpt lat="32.73992" lon="-16.93858">
        <ele>1563.93</ele>
      </trkpt>
      <trkpt lat="32.73984" lon="-16.93852">
        <ele>1555.71</ele>
      </trkpt>
      <trkpt lat="32.73977" lon="-16.93844">
        <ele>1550.37</ele>
      </trkpt>
      <trkpt lat="32.73976" lon="-16.9383">
        <ele>1551.41</ele>
      </trkpt>
      <trkpt lat="32.73964" lon="-16.93827">
        <ele>1545.58</ele>
      </trkpt>
      <trkpt lat="32.73945" lon="-16.93813">
        <ele>1541.49</ele>
      </trkpt>
      <trkpt lat="32.73935" lon="-16.93798">
        <ele>1541.13</ele>
      </trkpt>
      <trkpt lat="32.73931" lon="-16.9378">
        <ele>1547.49</ele>
      </trkpt>
      <trkpt lat="32.73927" lon="-16.93735">
        <ele>1552.17</ele>
      </trkpt>
      <trkpt lat="32.7392" lon="-16.9372">
        <ele>1554.69</ele>
      </trkpt>
      <trkpt lat="32.73913" lon="-16.93669">
        <ele>1565.31</ele>
      </trkpt>
      <trkpt lat="32.73912" lon="-16.93662">
        <ele>1563.26</ele>
      </trkpt>
      <trkpt lat="32.7391" lon="-16.93645">
        <ele>1558.3</ele>
      </trkpt>
      <trkpt lat="32.73903" lon="-16.93614">
        <ele>1526.33</ele>
      </trkpt>
      <trkpt lat="32.73901" lon="-16.93603">
        <ele>1514.07</ele>
      </trkpt>
      <trkpt lat="32.73896" lon="-16.93587">
        <ele>1493.91</ele>
      </trkpt>
      <trkpt lat="32.73895" lon="-16.93572">
        <ele>1490.29</ele>
      </trkpt>
      <trkpt lat="32.73891" lon="-16.93567">
        <ele>1482.34</ele>
      </trkpt>
      <trkpt lat="32.7389" lon="-16.93554">
        <ele>1482.57</ele>
      </trkpt>
      <trkpt lat="32.73885" lon="-16.93542">
        <ele>1494.91</ele>
      </trkpt>
      <trkpt lat="32.73885" lon="-16.93529">
        <ele>1511.66</ele>
      </trkpt>
      <trkpt lat="32.73868" lon="-16.93487">
        <ele>1514.12</ele>
      </trkpt>
      <trkpt lat="32.73855" lon="-16.93473">
        <ele>1512.02</ele>
      </trkpt>
      <trkpt lat="32.73851" lon="-16.93462">
        <ele>1513.18</ele>
      </trkpt>
      <trkpt lat="32.73852" lon="-16.93449">
        <ele>1516.6</ele>
      </trkpt>
      <trkpt lat="32.73847" lon="-16.93433">
        <ele>1525.34</ele>
      </trkpt>
      <trkpt lat="32.73848" lon="-16.9341">
        <ele>1544.36</ele>
      </trkpt>
      <trkpt lat="32.73846" lon="-16.93398">
        <ele>1554.23</ele>
      </trkpt>
      <trkpt lat="32.73841" lon="-16.93388">
        <ele>1561.28</ele>
      </trkpt>
      <trkpt lat="32.73842" lon="-16.93381">
        <ele>1567.34</ele>
      </trkpt>
      <trkpt lat="32.73845" lon="-16.93379">
        <ele>1570.72</ele>
      </trkpt>
      <trkpt lat="32.7385" lon="-16.9338">
        <ele>1572.8</ele>
      </trkpt>
      <trkpt lat="32.73858" lon="-16.93384">
        <ele>1573.45</ele>
      </trkpt>
      <trkpt lat="32.73869" lon="-16.93392">
        <ele>1574.48</ele>
      </trkpt>
      <trkpt lat="32.73876" lon="-16.93395">
        <ele>1577.58</ele>
      </trkpt>
      <trkpt lat="32.73882" lon="-16.93393">
        <ele>1584.5</ele>
      </trkpt>
      <trkpt lat="32.7389" lon="-16.93388">
        <ele>1595.52</ele>
      </trkpt>
      <trkpt lat="32.73897" lon="-16.93378">
        <ele>1598.8</ele>
      </trkpt>
      <trkpt lat="32.73895" lon="-16.93377">
        <ele>1598.35</ele>
      </trkpt>
      <trkpt lat="32.73884" lon="-16.93377">
        <ele>1594.2</ele>
      </trkpt>
      <trkpt lat="32.73876" lon="-16.93375">
        <ele>1591.2</ele>
      </trkpt>
      <trkpt lat="32.73868" lon="-16.93373">
        <ele>1589.24</ele>
      </trkpt>
      <trkpt lat="32.73854" lon="-16.93368">
        <ele>1586.55</ele>
      </trkpt>
      <trkpt lat="32.73843" lon="-16.93365">
        <ele>1580.86</ele>
      </trkpt>
      <trkpt lat="32.73836" lon="-16.93363">
        <ele>1576.85</ele>
      </trkpt>
      <trkpt lat="32.73824" lon="-16.93356">
        <ele>1579.68</ele>
      </trkpt>
      <trkpt lat="32.73819" lon="-16.93345">
        <ele>1588.24</ele>
      </trkpt>
      <trkpt lat="32.73815" lon="-16.93332">
        <ele>1598.23</ele>
      </trkpt>
      <trkpt lat="32.73805" lon="-16.93313">
        <ele>1602.96</ele>
      </trkpt>
      <trkpt lat="32.73801" lon="-16.93304">
        <ele>1605.15</ele>
      </trkpt>
      <trkpt lat="32.73789" lon="-16.9328">
        <ele>1618.86</ele>
      </trkpt>
      <trkpt lat="32.73762" lon="-16.93257">
        <ele>1643.27</ele>
      </trkpt>
      <trkpt lat="32.73748" lon="-16.93245">
        <ele>1656.18</ele>
      </trkpt>
      <trkpt lat="32.73745" lon="-16.93242">
        <ele>1657.47</ele>
      </trkpt>
      <trkpt lat="32.73743" lon="-16.93236">
        <ele>1659.29</ele>
      </trkpt>
      <trkpt lat="32.73741" lon="-16.93234">
        <ele>1660.42</ele>
      </trkpt>
      <trkpt lat="32.73736" lon="-16.93231">
        <ele>1663.01</ele>
      </trkpt>
      <trkpt lat="32.73729" lon="-16.93222">
        <ele>1668.86</ele>
      </trkpt>
      <trkpt lat="32.73717" lon="-16.93217">
        <ele>1674.57</ele>
      </trkpt>
      <trkpt lat="32.73708" lon="-16.93208">
        <ele>1680.5</ele>
      </trkpt>
      <trkpt lat="32.73694" lon="-16.932">
        <ele>1690.3</ele>
      </trkpt>
      <trkpt lat="32.73683" lon="-16.93195">
        <ele>1694.83</ele>
      </trkpt>
      <trkpt lat="32.73676" lon="-16.93188">
        <ele>1698.01</ele>
      </trkpt>
      <trkpt lat="32.73655" lon="-16.93146">
        <ele>1725.26</ele>
      </trkpt>
      <trkpt lat="32.73648" lon="-16.93115">
        <ele>1731.37</ele>
      </trkpt>
      <trkpt lat="32.73649" lon="-16.93087">
        <ele>1734.49</ele>
      </trkpt>
      <trkpt lat="32.73646" lon="-16.93071">
        <ele>1736.04</ele>
      </trkpt>
      <trkpt lat="32.73637" lon="-16.93054">
        <ele>1744.19</ele>
      </trkpt>
      <trkpt lat="32.73629" lon="-16.93037">
        <ele>1755.94</ele>
      </trkpt>
      <trkpt lat="32.73627" lon="-16.93021">
        <ele>1758.31</ele>
      </trkpt>
      <trkpt lat="32.73624" lon="-16.93014">
        <ele>1757.69</ele>
      </trkpt>
      <trkpt lat="32.73616" lon="-16.93001">
        <ele>1761.04</ele>
      </trkpt>
      <trkpt lat="32.73605" lon="-16.9299">
        <ele>1767.2</ele>
      </trkpt>
      <trkpt lat="32.73604" lon="-16.92981">
        <ele>1769.48</ele>
      </trkpt>
      <trkpt lat="32.73601" lon="-16.92953">
        <ele>1779.17</ele>
      </trkpt>
      <trkpt lat="32.73585" lon="-16.92923">
        <ele>1798.76</ele>
      </trkpt>
      <trkpt lat="32.73568" lon="-16.92897">
        <ele>1806.24</ele>
      </trkpt>
      <trkpt lat="32.73548" lon="-16.92875">
        <ele>1813.23</ele>
      </trkpt>
      <trkpt lat="32.73545" lon="-16.92871">
        <ele>1813.56</ele>
      </trkpt>
      <trkpt lat="32.73541" lon="-16.9287">
        <ele>1812.96</ele>
      </trkpt>
      <trkpt lat="32.73536" lon="-16.9287">
        <ele>1811.88</ele>
      </trkpt>
      <trkpt lat="32.73536" lon="-16.9287">
        <ele>1811.88</ele>
      </trkpt>
      <trkpt lat="32.73528" lon="-16.9287">
        <ele>1810.17</ele>
      </trkpt>
      <trkpt lat="32.73518" lon="-16.92864">
        <ele>1807.85</ele>
      </trkpt>
      <trkpt lat="32.73505" lon="-16.92863">
        <ele>1802.29</ele>
      </trkpt>
      <trkpt lat="32.73502" lon="-16.92862">
        <ele>1800.94</ele>
      </trkpt>
      <trkpt lat="32.73498" lon="-16.92862">
        <ele>1799.11</ele>
      </trkpt>
      <trkpt lat="32.73495" lon="-16.92862">
        <ele>1797.72</ele>
      </trkpt>
      <trkpt lat="32.73487" lon="-16.92864">
        <ele>1794.26</ele>
      </trkpt>
      <trkpt lat="32.73482" lon="-16.92869">
        <ele>1792.78</ele>
      </trkpt>
      <trkpt lat="32.73411" lon="-16.92884">
        <ele>1772.45</ele>
      </trkpt>
      <trkpt lat="32.73411" lon="-16.92884">
        <ele>1772.45</ele>
      </trkpt>
      <trkpt lat="32.73411" lon="-16.92884">
        <ele>1772.45</ele>
      </trkpt>
      <trkpt lat="32.73382" lon="-16.92889">
        <ele>1774.77</ele>
      </trkpt>
      <trkpt lat="32.73364" lon="-16.92893">
        <ele>1771.82</ele>
      </trkpt>
      <trkpt lat="32.73358" lon="-16.9289">
        <ele>1769.99</ele>
      </trkpt>
      <trkpt lat="32.73356" lon="-16.9288">
        <ele>1766.95</ele>
      </trkpt>
      <trkpt lat="32.73348" lon="-16.92875">
        <ele>1762.1</ele>
      </trkpt>
      <trkpt lat="32.73334" lon="-16.92864">
        <ele>1751.49</ele>
      </trkpt>
      <trkpt lat="32.73318" lon="-16.92866">
        <ele>1746.48</ele>
      </trkpt>
      <trkpt lat="32.7331" lon="-16.92852">
        <ele>1739.61</ele>
      </trkpt>
      <trkpt lat="32.7326" lon="-16.92817">
        <ele>1731.72</ele>
      </trkpt>
      <trkpt lat="32.73259" lon="-16.92807">
        <ele>1731.4</ele>
      </trkpt>
      <trkpt lat="32.73255" lon="-16.92798">
        <ele>1731.05</ele>
      </trkpt>
      <trkpt lat="32.73247" lon="-16.92797">
        <ele>1731.05</ele>
      </trkpt>
      <trkpt lat="32.73239" lon="-16.92799">
        <ele>1730.22</ele>
      </trkpt>
      <trkpt lat="32.73235" lon="-16.92796">
        <ele>1729.71</ele>
      </trkpt>
      <trkpt lat="32.73232" lon="-16.92786">
        <ele>1729.37</ele>
      </trkpt>
      <trkpt lat="32.7323" lon="-16.9278">
        <ele>1729.27</ele>
      </trkpt>
      <trkpt lat="32.7323" lon="-16.9277">
        <ele>1728.48</ele>
      </trkpt>
      <trkpt lat="32.73227" lon="-16.92762">
        <ele>1727.74</ele>
      </trkpt>
      <trkpt lat="32.73218" lon="-16.92757">
        <ele>1727.16</ele>
      </trkpt>
      <trkpt lat="32.73211" lon="-16.92761">
        <ele>1726.59</ele>
      </trkpt>
      <trkpt lat="32.73195" lon="-16.92768">
        <ele>1724.14</ele>
      </trkpt>
      <trkpt lat="32.73167" lon="-16.92773">
        <ele>1717.42</ele>
      </trkpt>
      <trkpt lat="32.7314" lon="-16.92774">
        <ele>1713.39</ele>
      </trkpt>
      <trkpt lat="32.73112" lon="-16.92777">
        <ele>1711.23</ele>
      </trkpt>
      <trkpt lat="32.73083" lon="-16.92778">
        <ele>1705.87</ele>
      </trkpt>
      <trkpt lat="32.73043" lon="-16.92773">
        <ele>1696.2</ele>
      </trkpt>
      <trkpt lat="32.73032" lon="-16.92765">
        <ele>1693.66</ele>
      </trkpt>
      <trkpt lat="32.73016" lon="-16.9275">
        <ele>1691.3</ele>
      </trkpt>
      <trkpt lat="32.73002" lon="-16.92743">
        <ele>1688.8</ele>
      </trkpt>
      <trkpt lat="32.72985" lon="-16.92733">
        <ele>1687.93</ele>
      </trkpt>
      <trkpt lat="32.72964" lon="-16.92736">
        <ele>1687.52</ele>
      </trkpt>
      <trkpt lat="32.7296" lon="-16.92712">
        <ele>1690.95</ele>
      </trkpt>
      <trkpt lat="32.7296" lon="-16.92712">
        <ele>1690.95</ele>
      </trkpt>
    </trkseg>
  </trk>
</gpx>
