<?xml version="1.0"?>
<gpx xmlns="http://www.topografix.com/GPX/1/1" xmlns:xsi="http://www.w3.org/2001/XMLSchema-instance" version="1.1" creator="AllTrails.com" xsi:schemaLocation="http://www.topografix.com/GPX/1/1 http://www.topografix.com/GPX/1/1/gpx.xsd">
  <metadata>
    <name><![CDATA[pr1-1-vereda-da-ilha]]></name>
    <desc><![CDATA[]]></desc>
    <link href="http://www.alltrails.com">
      <text>AllTrails, LLC</text>
    </link>
    <bounds minlat="32.76006" minlon="-16.94252" maxlat="32.80586" maxlon="-16.91147"/>
  </metadata>
  <trk>
    <name><![CDATA[pr1-1-vereda-da-ilha]]></name>
    <src>AllTrails</src>
    <trkseg>
      <trkpt lat="32.76037" lon="-16.94161">
        <ele>1748.73</ele>
      </trkpt>
      <trkpt lat="32.76037" lon="-16.9416">
        <ele>1748.56</ele>
      </trkpt>
      <trkpt lat="32.76029" lon="-16.94174">
        <ele>1753.27</ele>
      </trkpt>
      <trkpt lat="32.76024" lon="-16.94186">
        <ele>1753.17</ele>
      </trkpt>
      <trkpt lat="32.7602" lon="-16.94195">
        <ele>1754.08</ele>
      </trkpt>
      <trkpt lat="32.76019" lon="-16.94202">
        <ele>1754.52</ele>
      </trkpt>
      <trkpt lat="32.76018" lon="-16.94208">
        <ele>1755.13</ele>
      </trkpt>
      <trkpt lat="32.76018" lon="-16.94213">
        <ele>1755.22</ele>
      </trkpt>
      <trkpt lat="32.76018" lon="-16.94217">
        <ele>1755.29</ele>
      </trkpt>
      <trkpt lat="32.76019" lon="-16.94223">
        <ele>1754.87</ele>
      </trkpt>
      <trkpt lat="32.76023" lon="-16.9423">
        <ele>1753.54</ele>
      </trkpt>
      <trkpt lat="32.76026" lon="-16.9424">
        <ele>1752.99</ele>
      </trkpt>
      <trkpt lat="32.76028" lon="-16.94246">
        <ele>1752.11</ele>
      </trkpt>
      <trkpt lat="32.76029" lon="-16.94252">
        <ele>1752.39</ele>
      </trkpt>
      <trkpt lat="32.76028" lon="-16.94252">
        <ele>1753.18</ele>
      </trkpt>
      <trkpt lat="32.76025" lon="-16.94252">
        <ele>1756.56</ele>
      </trkpt>
      <trkpt lat="32.76023" lon="-16.94251">
        <ele>1758.68</ele>
      </trkpt>
      <trkpt lat="32.76019" lon="-16.94248">
        <ele>1762.5</ele>
      </trkpt>
      <trkpt lat="32.76019" lon="-16.94246">
        <ele>1761.89</ele>
      </trkpt>
      <trkpt lat="32.76016" lon="-16.94241">
        <ele>1763.44</ele>
      </trkpt>
      <trkpt lat="32.76012" lon="-16.9423">
        <ele>1763.08</ele>
      </trkpt>
      <trkpt lat="32.76009" lon="-16.94221">
        <ele>1762.03</ele>
      </trkpt>
      <trkpt lat="32.76006" lon="-16.94212">
        <ele>1762.68</ele>
      </trkpt>
      <trkpt lat="32.76006" lon="-16.94208">
        <ele>1761.99</ele>
      </trkpt>
      <trkpt lat="32.76006" lon="-16.94203">
        <ele>1761.11</ele>
      </trkpt>
      <trkpt lat="32.76007" lon="-16.94196">
        <ele>1759.48</ele>
      </trkpt>
      <trkpt lat="32.7601" lon="-16.9419">
        <ele>1757.35</ele>
      </trkpt>
      <trkpt lat="32.76012" lon="-16.94184">
        <ele>1755.98</ele>
      </trkpt>
      <trkpt lat="32.76012" lon="-16.94181">
        <ele>1755.61</ele>
      </trkpt>
      <trkpt lat="32.76015" lon="-16.94168">
        <ele>1754.18</ele>
      </trkpt>
      <trkpt lat="32.76016" lon="-16.94165">
        <ele>1753.68</ele>
      </trkpt>
      <trkpt lat="32.76017" lon="-16.94162">
        <ele>1752.87</ele>
      </trkpt>
      <trkpt lat="32.76026" lon="-16.9416">
        <ele>1752.55</ele>
      </trkpt>
      <trkpt lat="32.76035" lon="-16.94153">
        <ele>1747.97</ele>
      </trkpt>
      <trkpt lat="32.7603" lon="-16.94154">
        <ele>1749.74</ele>
      </trkpt>
      <trkpt lat="32.76028" lon="-16.94153">
        <ele>1750.01</ele>
      </trkpt>
      <trkpt lat="32.76023" lon="-16.94144">
        <ele>1747.2</ele>
      </trkpt>
      <trkpt lat="32.7602" lon="-16.94138">
        <ele>1745.58</ele>
      </trkpt>
      <trkpt lat="32.76018" lon="-16.94133">
        <ele>1744.27</ele>
      </trkpt>
      <trkpt lat="32.76017" lon="-16.94131">
        <ele>1743.74</ele>
      </trkpt>
      <trkpt lat="32.76017" lon="-16.94128">
        <ele>1742.81</ele>
      </trkpt>
      <trkpt lat="32.76022" lon="-16.94128">
        <ele>1742.55</ele>
      </trkpt>
      <trkpt lat="32.76026" lon="-16.94128">
        <ele>1742.35</ele>
      </trkpt>
      <trkpt lat="32.76028" lon="-16.94128">
        <ele>1742.23</ele>
      </trkpt>
      <trkpt lat="32.7603" lon="-16.94126">
        <ele>1741.49</ele>
      </trkpt>
      <trkpt lat="32.7603" lon="-16.94124">
        <ele>1740.95</ele>
      </trkpt>
      <trkpt lat="32.76022" lon="-16.94111">
        <ele>1737.75</ele>
      </trkpt>
      <trkpt lat="32.76019" lon="-16.94107">
        <ele>1736.2</ele>
      </trkpt>
      <trkpt lat="32.76017" lon="-16.94103">
        <ele>1734.69</ele>
      </trkpt>
      <trkpt lat="32.76014" lon="-16.941">
        <ele>1733.5</ele>
      </trkpt>
      <trkpt lat="32.76013" lon="-16.94099">
        <ele>1733.11</ele>
      </trkpt>
      <trkpt lat="32.76013" lon="-16.94094">
        <ele>1731.31</ele>
      </trkpt>
      <trkpt lat="32.76014" lon="-16.94091">
        <ele>1730.26</ele>
      </trkpt>
      <trkpt lat="32.76015" lon="-16.94088">
        <ele>1729.22</ele>
      </trkpt>
      <trkpt lat="32.76025" lon="-16.94072">
        <ele>1726.02</ele>
      </trkpt>
      <trkpt lat="32.7603" lon="-16.94059">
        <ele>1724.05</ele>
      </trkpt>
      <trkpt lat="32.76036" lon="-16.94052">
        <ele>1721.25</ele>
      </trkpt>
      <trkpt lat="32.76043" lon="-16.94044">
        <ele>1717.34</ele>
      </trkpt>
      <trkpt lat="32.76047" lon="-16.94038">
        <ele>1714.55</ele>
      </trkpt>
      <trkpt lat="32.76052" lon="-16.9403">
        <ele>1710.72</ele>
      </trkpt>
      <trkpt lat="32.76055" lon="-16.9402">
        <ele>1706.91</ele>
      </trkpt>
      <trkpt lat="32.76058" lon="-16.9401">
        <ele>1702.38</ele>
      </trkpt>
      <trkpt lat="32.76063" lon="-16.93996">
        <ele>1694.55</ele>
      </trkpt>
      <trkpt lat="32.76065" lon="-16.93989">
        <ele>1690.22</ele>
      </trkpt>
      <trkpt lat="32.76065" lon="-16.93981">
        <ele>1686.59</ele>
      </trkpt>
      <trkpt lat="32.76063" lon="-16.93973">
        <ele>1683.69</ele>
      </trkpt>
      <trkpt lat="32.76059" lon="-16.93962">
        <ele>1682.28</ele>
      </trkpt>
      <trkpt lat="32.76058" lon="-16.93952">
        <ele>1680.37</ele>
      </trkpt>
      <trkpt lat="32.76055" lon="-16.93939">
        <ele>1676.53</ele>
      </trkpt>
      <trkpt lat="32.76053" lon="-16.93933">
        <ele>1672.82</ele>
      </trkpt>
      <trkpt lat="32.76053" lon="-16.93929">
        <ele>1670.22</ele>
      </trkpt>
      <trkpt lat="32.76053" lon="-16.93924">
        <ele>1666.96</ele>
      </trkpt>
      <trkpt lat="32.76053" lon="-16.93921">
        <ele>1665.01</ele>
      </trkpt>
      <trkpt lat="32.76053" lon="-16.93915">
        <ele>1662.13</ele>
      </trkpt>
      <trkpt lat="32.76053" lon="-16.93911">
        <ele>1662.0</ele>
      </trkpt>
      <trkpt lat="32.76054" lon="-16.93909">
        <ele>1661.85</ele>
      </trkpt>
      <trkpt lat="32.76054" lon="-16.93905">
        <ele>1661.72</ele>
      </trkpt>
      <trkpt lat="32.76053" lon="-16.93899">
        <ele>1661.61</ele>
      </trkpt>
      <trkpt lat="32.76053" lon="-16.93891">
        <ele>1661.35</ele>
      </trkpt>
      <trkpt lat="32.76053" lon="-16.9388">
        <ele>1662.32</ele>
      </trkpt>
      <trkpt lat="32.76052" lon="-16.93873">
        <ele>1663.09</ele>
      </trkpt>
      <trkpt lat="32.7605" lon="-16.93864">
        <ele>1663.75</ele>
      </trkpt>
      <trkpt lat="32.7605" lon="-16.93853">
        <ele>1663.94</ele>
      </trkpt>
      <trkpt lat="32.76046" lon="-16.93841">
        <ele>1664.07</ele>
      </trkpt>
      <trkpt lat="32.76044" lon="-16.93835">
        <ele>1664.56</ele>
      </trkpt>
      <trkpt lat="32.76045" lon="-16.93827">
        <ele>1664.47</ele>
      </trkpt>
      <trkpt lat="32.76045" lon="-16.93813">
        <ele>1664.34</ele>
      </trkpt>
      <trkpt lat="32.76047" lon="-16.93807">
        <ele>1663.87</ele>
      </trkpt>
      <trkpt lat="32.76051" lon="-16.938">
        <ele>1664.12</ele>
      </trkpt>
      <trkpt lat="32.76054" lon="-16.93796">
        <ele>1664.59</ele>
      </trkpt>
      <trkpt lat="32.7606" lon="-16.93789">
        <ele>1664.68</ele>
      </trkpt>
      <trkpt lat="32.76065" lon="-16.93778">
        <ele>1663.88</ele>
      </trkpt>
      <trkpt lat="32.76068" lon="-16.93772">
        <ele>1660.57</ele>
      </trkpt>
      <trkpt lat="32.76071" lon="-16.93767">
        <ele>1657.25</ele>
      </trkpt>
      <trkpt lat="32.76077" lon="-16.93764">
        <ele>1652.53</ele>
      </trkpt>
      <trkpt lat="32.76083" lon="-16.93754">
        <ele>1644.82</ele>
      </trkpt>
      <trkpt lat="32.76092" lon="-16.93734">
        <ele>1638.04</ele>
      </trkpt>
      <trkpt lat="32.76102" lon="-16.93692">
        <ele>1641.32</ele>
      </trkpt>
      <trkpt lat="32.76104" lon="-16.93687">
        <ele>1642.15</ele>
      </trkpt>
      <trkpt lat="32.76108" lon="-16.93681">
        <ele>1642.87</ele>
      </trkpt>
      <trkpt lat="32.76108" lon="-16.93678">
        <ele>1642.99</ele>
      </trkpt>
      <trkpt lat="32.76105" lon="-16.93666">
        <ele>1644.56</ele>
      </trkpt>
      <trkpt lat="32.76105" lon="-16.9366">
        <ele>1650.71</ele>
      </trkpt>
      <trkpt lat="32.76107" lon="-16.93653">
        <ele>1657.51</ele>
      </trkpt>
      <trkpt lat="32.76108" lon="-16.93647">
        <ele>1663.43</ele>
      </trkpt>
      <trkpt lat="32.76108" lon="-16.93632">
        <ele>1674.4</ele>
      </trkpt>
      <trkpt lat="32.76108" lon="-16.93625">
        <ele>1677.17</ele>
      </trkpt>
      <trkpt lat="32.76107" lon="-16.93618">
        <ele>1680.16</ele>
      </trkpt>
      <trkpt lat="32.76108" lon="-16.93611">
        <ele>1682.71</ele>
      </trkpt>
      <trkpt lat="32.76111" lon="-16.93601">
        <ele>1685.3</ele>
      </trkpt>
      <trkpt lat="32.76121" lon="-16.9358">
        <ele>1689.27</ele>
      </trkpt>
      <trkpt lat="32.76123" lon="-16.93574">
        <ele>1690.16</ele>
      </trkpt>
      <trkpt lat="32.76124" lon="-16.93563">
        <ele>1692.48</ele>
      </trkpt>
      <trkpt lat="32.76133" lon="-16.9355">
        <ele>1693.86</ele>
      </trkpt>
      <trkpt lat="32.76138" lon="-16.93535">
        <ele>1697.73</ele>
      </trkpt>
      <trkpt lat="32.76147" lon="-16.93527">
        <ele>1697.72</ele>
      </trkpt>
      <trkpt lat="32.76151" lon="-16.9352">
        <ele>1699.68</ele>
      </trkpt>
      <trkpt lat="32.76156" lon="-16.93515">
        <ele>1700.54</ele>
      </trkpt>
      <trkpt lat="32.76164" lon="-16.93508">
        <ele>1701.7</ele>
      </trkpt>
      <trkpt lat="32.76215" lon="-16.93487">
        <ele>1691.2</ele>
      </trkpt>
      <trkpt lat="32.76224" lon="-16.93485">
        <ele>1688.81</ele>
      </trkpt>
      <trkpt lat="32.76284" lon="-16.93493">
        <ele>1642.9</ele>
      </trkpt>
      <trkpt lat="32.76295" lon="-16.93493">
        <ele>1638.25</ele>
      </trkpt>
      <trkpt lat="32.7631" lon="-16.93488">
        <ele>1636.27</ele>
      </trkpt>
      <trkpt lat="32.76329" lon="-16.9348">
        <ele>1635.52</ele>
      </trkpt>
      <trkpt lat="32.76373" lon="-16.93454">
        <ele>1629.95</ele>
      </trkpt>
      <trkpt lat="32.76407" lon="-16.93443">
        <ele>1612.73</ele>
      </trkpt>
      <trkpt lat="32.76416" lon="-16.93438">
        <ele>1609.24</ele>
      </trkpt>
      <trkpt lat="32.76439" lon="-16.93421">
        <ele>1597.62</ele>
      </trkpt>
      <trkpt lat="32.76448" lon="-16.93413">
        <ele>1593.61</ele>
      </trkpt>
      <trkpt lat="32.76457" lon="-16.934">
        <ele>1591.4</ele>
      </trkpt>
      <trkpt lat="32.76463" lon="-16.93382">
        <ele>1588.48</ele>
      </trkpt>
      <trkpt lat="32.76466" lon="-16.93369">
        <ele>1586.9</ele>
      </trkpt>
      <trkpt lat="32.76466" lon="-16.93345">
        <ele>1590.19</ele>
      </trkpt>
      <trkpt lat="32.76463" lon="-16.93306">
        <ele>1597.92</ele>
      </trkpt>
      <trkpt lat="32.76465" lon="-16.93295">
        <ele>1597.52</ele>
      </trkpt>
      <trkpt lat="32.76469" lon="-16.93288">
        <ele>1595.76</ele>
      </trkpt>
      <trkpt lat="32.76496" lon="-16.93251">
        <ele>1583.72</ele>
      </trkpt>
      <trkpt lat="32.76532" lon="-16.93211">
        <ele>1568.46</ele>
      </trkpt>
      <trkpt lat="32.76545" lon="-16.932">
        <ele>1563.32</ele>
      </trkpt>
      <trkpt lat="32.76575" lon="-16.93189">
        <ele>1551.14</ele>
      </trkpt>
      <trkpt lat="32.76575" lon="-16.93189">
        <ele>1551.14</ele>
      </trkpt>
      <trkpt lat="32.76575" lon="-16.93189">
        <ele>1551.14</ele>
      </trkpt>
      <trkpt lat="32.76578" lon="-16.93188">
        <ele>1549.9</ele>
      </trkpt>
      <trkpt lat="32.76583" lon="-16.93176">
        <ele>1550.12</ele>
      </trkpt>
      <trkpt lat="32.76601" lon="-16.93164">
        <ele>1542.77</ele>
      </trkpt>
      <trkpt lat="32.76622" lon="-16.93164">
        <ele>1533.88</ele>
      </trkpt>
      <trkpt lat="32.76647" lon="-16.93162">
        <ele>1524.31</ele>
      </trkpt>
      <trkpt lat="32.76656" lon="-16.93151">
        <ele>1518.72</ele>
      </trkpt>
      <trkpt lat="32.76666" lon="-16.9315">
        <ele>1515.03</ele>
      </trkpt>
      <trkpt lat="32.76673" lon="-16.93171">
        <ele>1515.63</ele>
      </trkpt>
      <trkpt lat="32.76692" lon="-16.93174">
        <ele>1507.87</ele>
      </trkpt>
      <trkpt lat="32.7671" lon="-16.93173">
        <ele>1502.74</ele>
      </trkpt>
      <trkpt lat="32.7674" lon="-16.93163">
        <ele>1495.44</ele>
      </trkpt>
      <trkpt lat="32.76756" lon="-16.93162">
        <ele>1491.28</ele>
      </trkpt>
      <trkpt lat="32.76767" lon="-16.93146">
        <ele>1487.52</ele>
      </trkpt>
      <trkpt lat="32.76793" lon="-16.93126">
        <ele>1474.34</ele>
      </trkpt>
      <trkpt lat="32.76808" lon="-16.93125">
        <ele>1468.56</ele>
      </trkpt>
      <trkpt lat="32.76813" lon="-16.93136">
        <ele>1473.05</ele>
      </trkpt>
      <trkpt lat="32.7684" lon="-16.93117">
        <ele>1458.37</ele>
      </trkpt>
      <trkpt lat="32.76883" lon="-16.93099">
        <ele>1454.08</ele>
      </trkpt>
      <trkpt lat="32.76921" lon="-16.93097">
        <ele>1447.25</ele>
      </trkpt>
      <trkpt lat="32.76961" lon="-16.93082">
        <ele>1432.3</ele>
      </trkpt>
      <trkpt lat="32.76972" lon="-16.93081">
        <ele>1428.48</ele>
      </trkpt>
      <trkpt lat="32.77001" lon="-16.9308">
        <ele>1426.33</ele>
      </trkpt>
      <trkpt lat="32.77019" lon="-16.93084">
        <ele>1427.8</ele>
      </trkpt>
      <trkpt lat="32.77035" lon="-16.93082">
        <ele>1426.32</ele>
      </trkpt>
      <trkpt lat="32.77058" lon="-16.93072">
        <ele>1420.4</ele>
      </trkpt>
      <trkpt lat="32.77091" lon="-16.93053">
        <ele>1402.32</ele>
      </trkpt>
      <trkpt lat="32.77129" lon="-16.93037">
        <ele>1375.01</ele>
      </trkpt>
      <trkpt lat="32.77193" lon="-16.93024">
        <ele>1359.83</ele>
      </trkpt>
      <trkpt lat="32.77232" lon="-16.93016">
        <ele>1357.3</ele>
      </trkpt>
      <trkpt lat="32.77273" lon="-16.93014">
        <ele>1352.19</ele>
      </trkpt>
      <trkpt lat="32.77305" lon="-16.93023">
        <ele>1348.23</ele>
      </trkpt>
      <trkpt lat="32.77317" lon="-16.93033">
        <ele>1345.5</ele>
      </trkpt>
      <trkpt lat="32.77351" lon="-16.93069">
        <ele>1329.47</ele>
      </trkpt>
      <trkpt lat="32.77363" lon="-16.93081">
        <ele>1329.09</ele>
      </trkpt>
      <trkpt lat="32.77375" lon="-16.93087">
        <ele>1322.47</ele>
      </trkpt>
      <trkpt lat="32.7744" lon="-16.9308">
        <ele>1312.1</ele>
      </trkpt>
      <trkpt lat="32.77501" lon="-16.9307">
        <ele>1295.99</ele>
      </trkpt>
      <trkpt lat="32.77508" lon="-16.93066">
        <ele>1292.89</ele>
      </trkpt>
      <trkpt lat="32.77512" lon="-16.93061">
        <ele>1289.84</ele>
      </trkpt>
      <trkpt lat="32.77525" lon="-16.93029">
        <ele>1279.02</ele>
      </trkpt>
      <trkpt lat="32.77531" lon="-16.9302">
        <ele>1278.78</ele>
      </trkpt>
      <trkpt lat="32.77559" lon="-16.92996">
        <ele>1274.51</ele>
      </trkpt>
      <trkpt lat="32.77602" lon="-16.92949">
        <ele>1258.64</ele>
      </trkpt>
      <trkpt lat="32.77622" lon="-16.92932">
        <ele>1241.97</ele>
      </trkpt>
      <trkpt lat="32.77636" lon="-16.92916">
        <ele>1227.93</ele>
      </trkpt>
      <trkpt lat="32.77678" lon="-16.92884">
        <ele>1209.41</ele>
      </trkpt>
      <trkpt lat="32.77678" lon="-16.92884">
        <ele>1209.41</ele>
      </trkpt>
      <trkpt lat="32.77678" lon="-16.92884">
        <ele>1209.41</ele>
      </trkpt>
      <trkpt lat="32.77682" lon="-16.92881">
        <ele>1208.72</ele>
      </trkpt>
      <trkpt lat="32.777" lon="-16.92871">
        <ele>1204.36</ele>
      </trkpt>
      <trkpt lat="32.77712" lon="-16.92861">
        <ele>1201.87</ele>
      </trkpt>
      <trkpt lat="32.77736" lon="-16.92836">
        <ele>1201.67</ele>
      </trkpt>
      <trkpt lat="32.77766" lon="-16.92812">
        <ele>1189.93</ele>
      </trkpt>
      <trkpt lat="32.77778" lon="-16.92803">
        <ele>1178.45</ele>
      </trkpt>
      <trkpt lat="32.77812" lon="-16.92784">
        <ele>1169.85</ele>
      </trkpt>
      <trkpt lat="32.77833" lon="-16.92763">
        <ele>1166.9</ele>
      </trkpt>
      <trkpt lat="32.7784" lon="-16.92759">
        <ele>1165.12</ele>
      </trkpt>
      <trkpt lat="32.77864" lon="-16.92754">
        <ele>1155.89</ele>
      </trkpt>
      <trkpt lat="32.77888" lon="-16.92753">
        <ele>1147.15</ele>
      </trkpt>
      <trkpt lat="32.77897" lon="-16.92748">
        <ele>1144.71</ele>
      </trkpt>
      <trkpt lat="32.77904" lon="-16.92742">
        <ele>1142.24</ele>
      </trkpt>
      <trkpt lat="32.77923" lon="-16.92718">
        <ele>1132.89</ele>
      </trkpt>
      <trkpt lat="32.77929" lon="-16.92714">
        <ele>1130.63</ele>
      </trkpt>
      <trkpt lat="32.78011" lon="-16.92688">
        <ele>1103.89</ele>
      </trkpt>
      <trkpt lat="32.78038" lon="-16.92676">
        <ele>1096.06</ele>
      </trkpt>
      <trkpt lat="32.78087" lon="-16.92632">
        <ele>1098.77</ele>
      </trkpt>
      <trkpt lat="32.78101" lon="-16.92622">
        <ele>1096.06</ele>
      </trkpt>
      <trkpt lat="32.78126" lon="-16.92608">
        <ele>1089.17</ele>
      </trkpt>
      <trkpt lat="32.78135" lon="-16.92604">
        <ele>1086.75</ele>
      </trkpt>
      <trkpt lat="32.78155" lon="-16.926">
        <ele>1078.8</ele>
      </trkpt>
      <trkpt lat="32.78202" lon="-16.92598">
        <ele>1055.36</ele>
      </trkpt>
      <trkpt lat="32.78245" lon="-16.92599">
        <ele>1032.85</ele>
      </trkpt>
      <trkpt lat="32.78259" lon="-16.92595">
        <ele>1022.12</ele>
      </trkpt>
      <trkpt lat="32.78271" lon="-16.92587">
        <ele>1013.44</ele>
      </trkpt>
      <trkpt lat="32.78299" lon="-16.92558">
        <ele>1012.62</ele>
      </trkpt>
      <trkpt lat="32.78305" lon="-16.92555">
        <ele>1010.38</ele>
      </trkpt>
      <trkpt lat="32.78312" lon="-16.92557">
        <ele>1003.88</ele>
      </trkpt>
      <trkpt lat="32.78317" lon="-16.92561">
        <ele>998.05</ele>
      </trkpt>
      <trkpt lat="32.78322" lon="-16.92568">
        <ele>991.77</ele>
      </trkpt>
      <trkpt lat="32.78328" lon="-16.92586">
        <ele>982.86</ele>
      </trkpt>
      <trkpt lat="32.78335" lon="-16.92596">
        <ele>975.95</ele>
      </trkpt>
      <trkpt lat="32.78343" lon="-16.926">
        <ele>969.69</ele>
      </trkpt>
      <trkpt lat="32.7835" lon="-16.92599">
        <ele>965.83</ele>
      </trkpt>
      <trkpt lat="32.78353" lon="-16.92597">
        <ele>964.52</ele>
      </trkpt>
      <trkpt lat="32.78353" lon="-16.92597">
        <ele>964.52</ele>
      </trkpt>
      <trkpt lat="32.78353" lon="-16.92597">
        <ele>964.52</ele>
      </trkpt>
      <trkpt lat="32.7836" lon="-16.92591">
        <ele>961.35</ele>
      </trkpt>
      <trkpt lat="32.78366" lon="-16.92589">
        <ele>960.66</ele>
      </trkpt>
      <trkpt lat="32.78373" lon="-16.92589">
        <ele>960.2</ele>
      </trkpt>
      <trkpt lat="32.78379" lon="-16.92593">
        <ele>958.72</ele>
      </trkpt>
      <trkpt lat="32.78387" lon="-16.926">
        <ele>955.83</ele>
      </trkpt>
      <trkpt lat="32.78396" lon="-16.92609">
        <ele>950.6</ele>
      </trkpt>
      <trkpt lat="32.78407" lon="-16.92633">
        <ele>943.22</ele>
      </trkpt>
      <trkpt lat="32.78417" lon="-16.92643">
        <ele>939.92</ele>
      </trkpt>
      <trkpt lat="32.78427" lon="-16.92646">
        <ele>941.79</ele>
      </trkpt>
      <trkpt lat="32.78433" lon="-16.92643">
        <ele>943.21</ele>
      </trkpt>
      <trkpt lat="32.78438" lon="-16.92637">
        <ele>944.37</ele>
      </trkpt>
      <trkpt lat="32.78445" lon="-16.92624">
        <ele>942.78</ele>
      </trkpt>
      <trkpt lat="32.78454" lon="-16.92604">
        <ele>939.93</ele>
      </trkpt>
      <trkpt lat="32.78471" lon="-16.92582">
        <ele>940.23</ele>
      </trkpt>
      <trkpt lat="32.78506" lon="-16.92557">
        <ele>928.93</ele>
      </trkpt>
      <trkpt lat="32.78548" lon="-16.92545">
        <ele>930.38</ele>
      </trkpt>
      <trkpt lat="32.78576" lon="-16.92523">
        <ele>920.22</ele>
      </trkpt>
      <trkpt lat="32.78615" lon="-16.92493">
        <ele>917.1</ele>
      </trkpt>
      <trkpt lat="32.78645" lon="-16.92467">
        <ele>932.07</ele>
      </trkpt>
      <trkpt lat="32.78664" lon="-16.92438">
        <ele>934.26</ele>
      </trkpt>
      <trkpt lat="32.7867" lon="-16.92433">
        <ele>933.72</ele>
      </trkpt>
      <trkpt lat="32.78694" lon="-16.92425">
        <ele>937.55</ele>
      </trkpt>
      <trkpt lat="32.78702" lon="-16.9242">
        <ele>936.53</ele>
      </trkpt>
      <trkpt lat="32.78743" lon="-16.9239">
        <ele>930.42</ele>
      </trkpt>
      <trkpt lat="32.78757" lon="-16.92375">
        <ele>931.51</ele>
      </trkpt>
      <trkpt lat="32.78785" lon="-16.92336">
        <ele>930.52</ele>
      </trkpt>
      <trkpt lat="32.78791" lon="-16.9233">
        <ele>930.03</ele>
      </trkpt>
      <trkpt lat="32.78809" lon="-16.92297">
        <ele>919.07</ele>
      </trkpt>
      <trkpt lat="32.78824" lon="-16.92293">
        <ele>921.51</ele>
      </trkpt>
      <trkpt lat="32.78874" lon="-16.92294">
        <ele>929.98</ele>
      </trkpt>
      <trkpt lat="32.78901" lon="-16.92289">
        <ele>933.65</ele>
      </trkpt>
      <trkpt lat="32.78915" lon="-16.92284">
        <ele>935.77</ele>
      </trkpt>
      <trkpt lat="32.78954" lon="-16.9226">
        <ele>927.14</ele>
      </trkpt>
      <trkpt lat="32.78986" lon="-16.92238">
        <ele>916.58</ele>
      </trkpt>
      <trkpt lat="32.78998" lon="-16.92232">
        <ele>912.04</ele>
      </trkpt>
      <trkpt lat="32.79015" lon="-16.92229">
        <ele>907.32</ele>
      </trkpt>
      <trkpt lat="32.79015" lon="-16.92229">
        <ele>907.32</ele>
      </trkpt>
      <trkpt lat="32.79015" lon="-16.92229">
        <ele>907.32</ele>
      </trkpt>
      <trkpt lat="32.79024" lon="-16.92228">
        <ele>905.04</ele>
      </trkpt>
      <trkpt lat="32.79051" lon="-16.92232">
        <ele>897.48</ele>
      </trkpt>
      <trkpt lat="32.79062" lon="-16.92229">
        <ele>893.58</ele>
      </trkpt>
      <trkpt lat="32.79113" lon="-16.92205">
        <ele>894.97</ele>
      </trkpt>
      <trkpt lat="32.79144" lon="-16.922">
        <ele>888.7</ele>
      </trkpt>
      <trkpt lat="32.79154" lon="-16.92195">
        <ele>886.95</ele>
      </trkpt>
      <trkpt lat="32.79201" lon="-16.92151">
        <ele>862.43</ele>
      </trkpt>
      <trkpt lat="32.79219" lon="-16.92139">
        <ele>854.72</ele>
      </trkpt>
      <trkpt lat="32.79241" lon="-16.92136">
        <ele>846.79</ele>
      </trkpt>
      <trkpt lat="32.79241" lon="-16.92131">
        <ele>846.0</ele>
      </trkpt>
      <trkpt lat="32.79228" lon="-16.92124">
        <ele>850.09</ele>
      </trkpt>
      <trkpt lat="32.79221" lon="-16.92122">
        <ele>852.25</ele>
      </trkpt>
      <trkpt lat="32.79207" lon="-16.92109">
        <ele>850.04</ele>
      </trkpt>
      <trkpt lat="32.79204" lon="-16.92101">
        <ele>848.4</ele>
      </trkpt>
      <trkpt lat="32.79203" lon="-16.92091">
        <ele>846.47</ele>
      </trkpt>
      <trkpt lat="32.79205" lon="-16.92082">
        <ele>844.85</ele>
      </trkpt>
      <trkpt lat="32.79218" lon="-16.92061">
        <ele>844.39</ele>
      </trkpt>
      <trkpt lat="32.79221" lon="-16.92052">
        <ele>844.73</ele>
      </trkpt>
      <trkpt lat="32.79222" lon="-16.9202">
        <ele>842.65</ele>
      </trkpt>
      <trkpt lat="32.79224" lon="-16.92003">
        <ele>837.92</ele>
      </trkpt>
      <trkpt lat="32.7923" lon="-16.91988">
        <ele>831.85</ele>
      </trkpt>
      <trkpt lat="32.79253" lon="-16.91957">
        <ele>817.54</ele>
      </trkpt>
      <trkpt lat="32.79254" lon="-16.91934">
        <ele>807.24</ele>
      </trkpt>
      <trkpt lat="32.79245" lon="-16.91888">
        <ele>784.6</ele>
      </trkpt>
      <trkpt lat="32.79248" lon="-16.91869">
        <ele>780.83</ele>
      </trkpt>
      <trkpt lat="32.79263" lon="-16.91849">
        <ele>778.14</ele>
      </trkpt>
      <trkpt lat="32.79263" lon="-16.91842">
        <ele>777.6</ele>
      </trkpt>
      <trkpt lat="32.79263" lon="-16.91831">
        <ele>776.75</ele>
      </trkpt>
      <trkpt lat="32.79264" lon="-16.91817">
        <ele>775.85</ele>
      </trkpt>
      <trkpt lat="32.79268" lon="-16.91796">
        <ele>772.55</ele>
      </trkpt>
      <trkpt lat="32.79292" lon="-16.91762">
        <ele>777.68</ele>
      </trkpt>
      <trkpt lat="32.79309" lon="-16.91754">
        <ele>778.24</ele>
      </trkpt>
      <trkpt lat="32.79319" lon="-16.91742">
        <ele>774.86</ele>
      </trkpt>
      <trkpt lat="32.79326" lon="-16.91729">
        <ele>773.21</ele>
      </trkpt>
      <trkpt lat="32.79333" lon="-16.91715">
        <ele>771.92</ele>
      </trkpt>
      <trkpt lat="32.79342" lon="-16.91701">
        <ele>771.28</ele>
      </trkpt>
      <trkpt lat="32.79351" lon="-16.91694">
        <ele>772.08</ele>
      </trkpt>
      <trkpt lat="32.79362" lon="-16.91694">
        <ele>773.72</ele>
      </trkpt>
      <trkpt lat="32.79377" lon="-16.91699">
        <ele>769.78</ele>
      </trkpt>
      <trkpt lat="32.79391" lon="-16.91691">
        <ele>768.06</ele>
      </trkpt>
      <trkpt lat="32.79396" lon="-16.91686">
        <ele>769.64</ele>
      </trkpt>
      <trkpt lat="32.79396" lon="-16.91686">
        <ele>769.64</ele>
      </trkpt>
      <trkpt lat="32.79396" lon="-16.91686">
        <ele>769.64</ele>
      </trkpt>
      <trkpt lat="32.79404" lon="-16.91679">
        <ele>772.06</ele>
      </trkpt>
      <trkpt lat="32.79419" lon="-16.91672">
        <ele>774.79</ele>
      </trkpt>
      <trkpt lat="32.79438" lon="-16.91668">
        <ele>775.67</ele>
      </trkpt>
      <trkpt lat="32.7946" lon="-16.91678">
        <ele>769.76</ele>
      </trkpt>
      <trkpt lat="32.79478" lon="-16.91674">
        <ele>769.64</ele>
      </trkpt>
      <trkpt lat="32.79486" lon="-16.91673">
        <ele>768.78</ele>
      </trkpt>
      <trkpt lat="32.79499" lon="-16.91667">
        <ele>769.05</ele>
      </trkpt>
      <trkpt lat="32.79505" lon="-16.91662">
        <ele>767.9</ele>
      </trkpt>
      <trkpt lat="32.7951" lon="-16.91654">
        <ele>767.03</ele>
      </trkpt>
      <trkpt lat="32.79512" lon="-16.91626">
        <ele>762.51</ele>
      </trkpt>
      <trkpt lat="32.79516" lon="-16.91613">
        <ele>756.96</ele>
      </trkpt>
      <trkpt lat="32.79523" lon="-16.91602">
        <ele>754.47</ele>
      </trkpt>
      <trkpt lat="32.79545" lon="-16.91586">
        <ele>751.19</ele>
      </trkpt>
      <trkpt lat="32.79557" lon="-16.91572">
        <ele>746.64</ele>
      </trkpt>
      <trkpt lat="32.79608" lon="-16.91562">
        <ele>731.43</ele>
      </trkpt>
      <trkpt lat="32.79645" lon="-16.91561">
        <ele>735.34</ele>
      </trkpt>
      <trkpt lat="32.7967" lon="-16.91556">
        <ele>733.35</ele>
      </trkpt>
      <trkpt lat="32.79721" lon="-16.91545">
        <ele>733.62</ele>
      </trkpt>
      <trkpt lat="32.7975" lon="-16.91546">
        <ele>732.0</ele>
      </trkpt>
      <trkpt lat="32.79772" lon="-16.91558">
        <ele>729.15</ele>
      </trkpt>
      <trkpt lat="32.79789" lon="-16.91584">
        <ele>709.79</ele>
      </trkpt>
      <trkpt lat="32.7981" lon="-16.91593">
        <ele>697.13</ele>
      </trkpt>
      <trkpt lat="32.79831" lon="-16.91592">
        <ele>692.73</ele>
      </trkpt>
      <trkpt lat="32.79856" lon="-16.91588">
        <ele>688.46</ele>
      </trkpt>
      <trkpt lat="32.7987" lon="-16.91583">
        <ele>685.22</ele>
      </trkpt>
      <trkpt lat="32.79882" lon="-16.91598">
        <ele>680.71</ele>
      </trkpt>
      <trkpt lat="32.79913" lon="-16.91613">
        <ele>673.56</ele>
      </trkpt>
      <trkpt lat="32.79942" lon="-16.9161">
        <ele>681.03</ele>
      </trkpt>
      <trkpt lat="32.79964" lon="-16.91613">
        <ele>677.04</ele>
      </trkpt>
      <trkpt lat="32.79996" lon="-16.91609">
        <ele>673.29</ele>
      </trkpt>
      <trkpt lat="32.79996" lon="-16.91609">
        <ele>673.29</ele>
      </trkpt>
      <trkpt lat="32.79996" lon="-16.91609">
        <ele>673.29</ele>
      </trkpt>
      <trkpt lat="32.80017" lon="-16.91597">
        <ele>670.86</ele>
      </trkpt>
      <trkpt lat="32.80033" lon="-16.91573">
        <ele>667.77</ele>
      </trkpt>
      <trkpt lat="32.80051" lon="-16.91552">
        <ele>656.63</ele>
      </trkpt>
      <trkpt lat="32.80062" lon="-16.91548">
        <ele>648.73</ele>
      </trkpt>
      <trkpt lat="32.80076" lon="-16.91549">
        <ele>638.86</ele>
      </trkpt>
      <trkpt lat="32.80083" lon="-16.91542">
        <ele>632.31</ele>
      </trkpt>
      <trkpt lat="32.8009" lon="-16.91531">
        <ele>628.13</ele>
      </trkpt>
      <trkpt lat="32.80105" lon="-16.91525">
        <ele>622.8</ele>
      </trkpt>
      <trkpt lat="32.8012" lon="-16.91534">
        <ele>623.88</ele>
      </trkpt>
      <trkpt lat="32.80129" lon="-16.91537">
        <ele>624.25</ele>
      </trkpt>
      <trkpt lat="32.80134" lon="-16.91534">
        <ele>623.32</ele>
      </trkpt>
      <trkpt lat="32.80139" lon="-16.91528">
        <ele>622.0</ele>
      </trkpt>
      <trkpt lat="32.80168" lon="-16.91519">
        <ele>609.45</ele>
      </trkpt>
      <trkpt lat="32.80187" lon="-16.91504">
        <ele>600.88</ele>
      </trkpt>
      <trkpt lat="32.80204" lon="-16.91495">
        <ele>592.82</ele>
      </trkpt>
      <trkpt lat="32.80217" lon="-16.91491">
        <ele>586.06</ele>
      </trkpt>
      <trkpt lat="32.80228" lon="-16.91499">
        <ele>585.51</ele>
      </trkpt>
      <trkpt lat="32.8024" lon="-16.91511">
        <ele>583.18</ele>
      </trkpt>
      <trkpt lat="32.80254" lon="-16.91521">
        <ele>580.09</ele>
      </trkpt>
      <trkpt lat="32.80262" lon="-16.91522">
        <ele>578.32</ele>
      </trkpt>
      <trkpt lat="32.80277" lon="-16.91518">
        <ele>574.47</ele>
      </trkpt>
      <trkpt lat="32.803" lon="-16.91502">
        <ele>567.6</ele>
      </trkpt>
      <trkpt lat="32.80307" lon="-16.91486">
        <ele>561.55</ele>
      </trkpt>
      <trkpt lat="32.80305" lon="-16.91472">
        <ele>558.01</ele>
      </trkpt>
      <trkpt lat="32.80334" lon="-16.91473">
        <ele>553.9</ele>
      </trkpt>
      <trkpt lat="32.80352" lon="-16.9147">
        <ele>551.1</ele>
      </trkpt>
      <trkpt lat="32.80374" lon="-16.91461">
        <ele>551.55</ele>
      </trkpt>
      <trkpt lat="32.80391" lon="-16.91446">
        <ele>554.89</ele>
      </trkpt>
      <trkpt lat="32.80408" lon="-16.9143">
        <ele>554.35</ele>
      </trkpt>
      <trkpt lat="32.80426" lon="-16.91419">
        <ele>552.54</ele>
      </trkpt>
      <trkpt lat="32.80446" lon="-16.91405">
        <ele>546.64</ele>
      </trkpt>
      <trkpt lat="32.80453" lon="-16.91395">
        <ele>544.01</ele>
      </trkpt>
      <trkpt lat="32.80453" lon="-16.91395">
        <ele>544.01</ele>
      </trkpt>
      <trkpt lat="32.80453" lon="-16.91395">
        <ele>544.01</ele>
      </trkpt>
      <trkpt lat="32.80469" lon="-16.91361">
        <ele>540.98</ele>
      </trkpt>
      <trkpt lat="32.8049" lon="-16.91346">
        <ele>538.0</ele>
      </trkpt>
      <trkpt lat="32.80506" lon="-16.91332">
        <ele>536.45</ele>
      </trkpt>
      <trkpt lat="32.80516" lon="-16.9132">
        <ele>531.5</ele>
      </trkpt>
      <trkpt lat="32.80523" lon="-16.91314">
        <ele>529.66</ele>
      </trkpt>
      <trkpt lat="32.8054" lon="-16.91303">
        <ele>528.47</ele>
      </trkpt>
      <trkpt lat="32.80548" lon="-16.91298">
        <ele>527.98</ele>
      </trkpt>
      <trkpt lat="32.80553" lon="-16.9129">
        <ele>526.6</ele>
      </trkpt>
      <trkpt lat="32.80556" lon="-16.9128">
        <ele>524.5</ele>
      </trkpt>
      <trkpt lat="32.80551" lon="-16.91267">
        <ele>519.62</ele>
      </trkpt>
      <trkpt lat="32.8055" lon="-16.91254">
        <ele>515.41</ele>
      </trkpt>
      <trkpt lat="32.80555" lon="-16.9123">
        <ele>509.94</ele>
      </trkpt>
      <trkpt lat="32.80553" lon="-16.91222">
        <ele>506.29</ele>
      </trkpt>
      <trkpt lat="32.8056" lon="-16.91216">
        <ele>504.14</ele>
      </trkpt>
      <trkpt lat="32.80559" lon="-16.91211">
        <ele>500.88</ele>
      </trkpt>
      <trkpt lat="32.80562" lon="-16.91196">
        <ele>492.47</ele>
      </trkpt>
      <trkpt lat="32.80567" lon="-16.91188">
        <ele>489.4</ele>
      </trkpt>
      <trkpt lat="32.80568" lon="-16.91184">
        <ele>487.2</ele>
      </trkpt>
      <trkpt lat="32.80577" lon="-16.91175">
        <ele>484.51</ele>
      </trkpt>
      <trkpt lat="32.80582" lon="-16.91166">
        <ele>480.38</ele>
      </trkpt>
      <trkpt lat="32.80585" lon="-16.91156">
        <ele>477.78</ele>
      </trkpt>
      <trkpt lat="32.80586" lon="-16.91147">
        <ele>475.08</ele>
      </trkpt>
    </trkseg>
  </trk>
</gpx>
