<?xml version="1.0"?>
<gpx xmlns="http://www.topografix.com/GPX/1/1" xmlns:xsi="http://www.w3.org/2001/XMLSchema-instance" version="1.1" creator="AllTrails.com" xsi:schemaLocation="http://www.topografix.com/GPX/1/1 http://www.topografix.com/GPX/1/1/gpx.xsd">
  <metadata>
    <name><![CDATA[pr1-3-vereda-da-encumeada]]></name>
    <desc><![CDATA[]]></desc>
    <link href="http://www.alltrails.com">
      <text>AllTrails, LLC</text>
    </link>
    <bounds minlat="32.7521057" minlon="-17.01716" maxlat="32.7613635" maxlon="-16.9415277"/>
  </metadata>
  <trk>
    <name><![CDATA[pr1-3-vereda-da-encumeada]]></name>
    <src>AllTrails</src>
    <trkseg>
      <trkpt lat="32.76035" lon="-16.94153">
        <ele>1747.97</ele>
      </trkpt>
      <trkpt lat="32.76035" lon="-16.94153">
        <ele>1747.97</ele>
      </trkpt>
      <trkpt lat="32.76026" lon="-16.9416">
        <ele>1752.55</ele>
      </trkpt>
      <trkpt lat="32.76026" lon="-16.9416">
        <ele>1752.55</ele>
      </trkpt>
      <trkpt lat="32.76026" lon="-16.9416">
        <ele>1752.55</ele>
      </trkpt>
      <trkpt lat="32.76017" lon="-16.94162">
        <ele>1752.87</ele>
      </trkpt>
      <trkpt lat="32.76016" lon="-16.94165">
        <ele>1753.68</ele>
      </trkpt>
      <trkpt lat="32.76015" lon="-16.94168">
        <ele>1754.18</ele>
      </trkpt>
      <trkpt lat="32.76012" lon="-16.94181">
        <ele>1755.61</ele>
      </trkpt>
      <trkpt lat="32.76012" lon="-16.94181">
        <ele>1755.61</ele>
      </trkpt>
      <trkpt lat="32.76012" lon="-16.94181">
        <ele>1755.61</ele>
      </trkpt>
      <trkpt lat="32.76012" lon="-16.94184">
        <ele>1755.98</ele>
      </trkpt>
      <trkpt lat="32.7601" lon="-16.9419">
        <ele>1757.35</ele>
      </trkpt>
      <trkpt lat="32.76007" lon="-16.94196">
        <ele>1759.48</ele>
      </trkpt>
      <trkpt lat="32.76006" lon="-16.94203">
        <ele>1761.11</ele>
      </trkpt>
      <trkpt lat="32.76006" lon="-16.94208">
        <ele>1761.99</ele>
      </trkpt>
      <trkpt lat="32.76006" lon="-16.94212">
        <ele>1762.68</ele>
      </trkpt>
      <trkpt lat="32.76009" lon="-16.94221">
        <ele>1762.03</ele>
      </trkpt>
      <trkpt lat="32.76012" lon="-16.9423">
        <ele>1763.08</ele>
      </trkpt>
      <trkpt lat="32.76016" lon="-16.94241">
        <ele>1763.44</ele>
      </trkpt>
      <trkpt lat="32.76016" lon="-16.94241">
        <ele>1763.44</ele>
      </trkpt>
      <trkpt lat="32.76016" lon="-16.94241">
        <ele>1763.44</ele>
      </trkpt>
      <trkpt lat="32.76019" lon="-16.94248">
        <ele>1762.5</ele>
      </trkpt>
      <trkpt lat="32.76018" lon="-16.94258">
        <ele>1765.7</ele>
      </trkpt>
      <trkpt lat="32.76016" lon="-16.94262">
        <ele>1768.73</ele>
      </trkpt>
      <trkpt lat="32.76014" lon="-16.94266">
        <ele>1771.75</ele>
      </trkpt>
      <trkpt lat="32.76014" lon="-16.94269">
        <ele>1772.29</ele>
      </trkpt>
      <trkpt lat="32.76014" lon="-16.94273">
        <ele>1773.01</ele>
      </trkpt>
      <trkpt lat="32.76013" lon="-16.94278">
        <ele>1775.1</ele>
      </trkpt>
      <trkpt lat="32.76012" lon="-16.94284">
        <ele>1778.16</ele>
      </trkpt>
      <trkpt lat="32.76011" lon="-16.94291">
        <ele>1781.51</ele>
      </trkpt>
      <trkpt lat="32.7601" lon="-16.94299">
        <ele>1785.14</ele>
      </trkpt>
      <trkpt lat="32.76012" lon="-16.9431">
        <ele>1786.28</ele>
      </trkpt>
      <trkpt lat="32.76013" lon="-16.94316">
        <ele>1786.92</ele>
      </trkpt>
      <trkpt lat="32.76014" lon="-16.94319">
        <ele>1786.76</ele>
      </trkpt>
      <trkpt lat="32.76014" lon="-16.94324">
        <ele>1788.2</ele>
      </trkpt>
      <trkpt lat="32.76014" lon="-16.94334">
        <ele>1791.01</ele>
      </trkpt>
      <trkpt lat="32.76014" lon="-16.94334">
        <ele>1791.01</ele>
      </trkpt>
      <trkpt lat="32.76019" lon="-16.9434">
        <ele>1787.78</ele>
      </trkpt>
      <trkpt lat="32.76019" lon="-16.9434">
        <ele>1787.78</ele>
      </trkpt>
      <trkpt lat="32.76031" lon="-16.94354">
        <ele>1783.38</ele>
      </trkpt>
      <trkpt lat="32.76031" lon="-16.94354">
        <ele>1783.38</ele>
      </trkpt>
      <trkpt lat="32.76011" lon="-16.94373">
        <ele>1796.03</ele>
      </trkpt>
      <trkpt lat="32.76011" lon="-16.94373">
        <ele>1796.03</ele>
      </trkpt>
      <trkpt lat="32.76003" lon="-16.94385">
        <ele>1798.31</ele>
      </trkpt>
      <trkpt lat="32.76003" lon="-16.94385">
        <ele>1798.31</ele>
      </trkpt>
      <trkpt lat="32.75996" lon="-16.94417">
        <ele>1792.88</ele>
      </trkpt>
      <trkpt lat="32.75996" lon="-16.94417">
        <ele>1792.88</ele>
      </trkpt>
      <trkpt lat="32.75992" lon="-16.94443">
        <ele>1783.72</ele>
      </trkpt>
      <trkpt lat="32.75992" lon="-16.94443">
        <ele>1783.72</ele>
      </trkpt>
      <trkpt lat="32.75995" lon="-16.94457">
        <ele>1779.31</ele>
      </trkpt>
      <trkpt lat="32.75995" lon="-16.94457">
        <ele>1779.31</ele>
      </trkpt>
      <trkpt lat="32.7599" lon="-16.94478">
        <ele>1772.86</ele>
      </trkpt>
      <trkpt lat="32.7599" lon="-16.94478">
        <ele>1772.86</ele>
      </trkpt>
      <trkpt lat="32.75969" lon="-16.94456">
        <ele>1781.97</ele>
      </trkpt>
      <trkpt lat="32.75969" lon="-16.94456">
        <ele>1781.97</ele>
      </trkpt>
      <trkpt lat="32.75976" lon="-16.94495">
        <ele>1766.02</ele>
      </trkpt>
      <trkpt lat="32.75976" lon="-16.94495">
        <ele>1766.02</ele>
      </trkpt>
      <trkpt lat="32.75983" lon="-16.94533">
        <ele>1746.99</ele>
      </trkpt>
      <trkpt lat="32.75983" lon="-16.94533">
        <ele>1746.99</ele>
      </trkpt>
      <trkpt lat="32.75961" lon="-16.9452">
        <ele>1750.42</ele>
      </trkpt>
      <trkpt lat="32.75961" lon="-16.9452">
        <ele>1750.42</ele>
      </trkpt>
      <trkpt lat="32.75962" lon="-16.94528">
        <ele>1746.81</ele>
      </trkpt>
      <trkpt lat="32.75962" lon="-16.94528">
        <ele>1746.81</ele>
      </trkpt>
      <trkpt lat="32.75984" lon="-16.94551">
        <ele>1735.81</ele>
      </trkpt>
      <trkpt lat="32.75984" lon="-16.94551">
        <ele>1735.81</ele>
      </trkpt>
      <trkpt lat="32.76021" lon="-16.94606">
        <ele>1699.72</ele>
      </trkpt>
      <trkpt lat="32.76021" lon="-16.94606">
        <ele>1699.72</ele>
      </trkpt>
      <trkpt lat="32.76004" lon="-16.94603">
        <ele>1704.89</ele>
      </trkpt>
      <trkpt lat="32.76004" lon="-16.94603">
        <ele>1704.89</ele>
      </trkpt>
      <trkpt lat="32.76026" lon="-16.94635">
        <ele>1688.64</ele>
      </trkpt>
      <trkpt lat="32.76026" lon="-16.94635">
        <ele>1688.64</ele>
      </trkpt>
      <trkpt lat="32.76009" lon="-16.9463">
        <ele>1693.94</ele>
      </trkpt>
      <trkpt lat="32.76009" lon="-16.9463">
        <ele>1693.94</ele>
      </trkpt>
      <trkpt lat="32.76028" lon="-16.94674">
        <ele>1684.03</ele>
      </trkpt>
      <trkpt lat="32.76028" lon="-16.94674">
        <ele>1684.03</ele>
      </trkpt>
      <trkpt lat="32.76018" lon="-16.94709">
        <ele>1677.57</ele>
      </trkpt>
      <trkpt lat="32.76018" lon="-16.94709">
        <ele>1677.57</ele>
      </trkpt>
      <trkpt lat="32.76012" lon="-16.9469">
        <ele>1679.55</ele>
      </trkpt>
      <trkpt lat="32.76012" lon="-16.9469">
        <ele>1679.55</ele>
      </trkpt>
      <trkpt lat="32.75992" lon="-16.94748">
        <ele>1660.68</ele>
      </trkpt>
      <trkpt lat="32.75992" lon="-16.94748">
        <ele>1660.68</ele>
      </trkpt>
      <trkpt lat="32.75985" lon="-16.94733">
        <ele>1662.92</ele>
      </trkpt>
      <trkpt lat="32.75985" lon="-16.94733">
        <ele>1662.92</ele>
      </trkpt>
      <trkpt lat="32.75973" lon="-16.94739">
        <ele>1656.87</ele>
      </trkpt>
      <trkpt lat="32.75973" lon="-16.94739">
        <ele>1656.87</ele>
      </trkpt>
      <trkpt lat="32.75978" lon="-16.94783">
        <ele>1642.66</ele>
      </trkpt>
      <trkpt lat="32.75978" lon="-16.94783">
        <ele>1642.66</ele>
      </trkpt>
      <trkpt lat="32.75955" lon="-16.94773">
        <ele>1627.29</ele>
      </trkpt>
      <trkpt lat="32.75955" lon="-16.94773">
        <ele>1627.29</ele>
      </trkpt>
      <trkpt lat="32.75957" lon="-16.9481">
        <ele>1615.83</ele>
      </trkpt>
      <trkpt lat="32.75957" lon="-16.9481">
        <ele>1615.83</ele>
      </trkpt>
      <trkpt lat="32.75947" lon="-16.94833">
        <ele>1607.23</ele>
      </trkpt>
      <trkpt lat="32.75947" lon="-16.94833">
        <ele>1607.23</ele>
      </trkpt>
      <trkpt lat="32.75954" lon="-16.94845">
        <ele>1607.79</ele>
      </trkpt>
      <trkpt lat="32.75954" lon="-16.94845">
        <ele>1607.79</ele>
      </trkpt>
      <trkpt lat="32.75932" lon="-16.94877">
        <ele>1595.9</ele>
      </trkpt>
      <trkpt lat="32.75932" lon="-16.94877">
        <ele>1595.9</ele>
      </trkpt>
      <trkpt lat="32.75919" lon="-16.94947">
        <ele>1595.29</ele>
      </trkpt>
      <trkpt lat="32.75919" lon="-16.94947">
        <ele>1595.29</ele>
      </trkpt>
      <trkpt lat="32.75923" lon="-16.94967">
        <ele>1589.66</ele>
      </trkpt>
      <trkpt lat="32.75923" lon="-16.94967">
        <ele>1589.66</ele>
      </trkpt>
      <trkpt lat="32.75902" lon="-16.94967">
        <ele>1579.98</ele>
      </trkpt>
      <trkpt lat="32.75902" lon="-16.94967">
        <ele>1579.98</ele>
      </trkpt>
      <trkpt lat="32.75898" lon="-16.9495">
        <ele>1579.82</ele>
      </trkpt>
      <trkpt lat="32.75898" lon="-16.9495">
        <ele>1579.82</ele>
      </trkpt>
      <trkpt lat="32.75893" lon="-16.94982">
        <ele>1572.1</ele>
      </trkpt>
      <trkpt lat="32.75893" lon="-16.94982">
        <ele>1572.1</ele>
      </trkpt>
      <trkpt lat="32.75928" lon="-16.95022">
        <ele>1575.55</ele>
      </trkpt>
      <trkpt lat="32.75962" lon="-16.95061">
        <ele>1576.18</ele>
      </trkpt>
      <trkpt lat="32.75962" lon="-16.95061">
        <ele>1576.18</ele>
      </trkpt>
      <trkpt lat="32.75956" lon="-16.95128">
        <ele>1552.58</ele>
      </trkpt>
      <trkpt lat="32.75956" lon="-16.95128">
        <ele>1552.58</ele>
      </trkpt>
      <trkpt lat="32.75932" lon="-16.95183">
        <ele>1525.2</ele>
      </trkpt>
      <trkpt lat="32.75932" lon="-16.95183">
        <ele>1525.2</ele>
      </trkpt>
      <trkpt lat="32.75988" lon="-16.95213">
        <ele>1559.41</ele>
      </trkpt>
      <trkpt lat="32.75988" lon="-16.95213">
        <ele>1559.41</ele>
      </trkpt>
      <trkpt lat="32.75995" lon="-16.95242">
        <ele>1557.54</ele>
      </trkpt>
      <trkpt lat="32.75995" lon="-16.95242">
        <ele>1557.54</ele>
      </trkpt>
      <trkpt lat="32.75978" lon="-16.95299">
        <ele>1533.11</ele>
      </trkpt>
      <trkpt lat="32.75978" lon="-16.95299">
        <ele>1533.11</ele>
      </trkpt>
      <trkpt lat="32.75979" lon="-16.95318">
        <ele>1534.08</ele>
      </trkpt>
      <trkpt lat="32.75979" lon="-16.95318">
        <ele>1534.08</ele>
      </trkpt>
      <trkpt lat="32.7594" lon="-16.9538">
        <ele>1540.6</ele>
      </trkpt>
      <trkpt lat="32.7594" lon="-16.9538">
        <ele>1540.6</ele>
      </trkpt>
      <trkpt lat="32.7592" lon="-16.95426">
        <ele>1553.68</ele>
      </trkpt>
      <trkpt lat="32.7592" lon="-16.95426">
        <ele>1553.68</ele>
      </trkpt>
      <trkpt lat="32.75869" lon="-16.95479">
        <ele>1554.16</ele>
      </trkpt>
      <trkpt lat="32.75869" lon="-16.95479">
        <ele>1554.16</ele>
      </trkpt>
      <trkpt lat="32.75873" lon="-16.95517">
        <ele>1568.56</ele>
      </trkpt>
      <trkpt lat="32.75873" lon="-16.95517">
        <ele>1568.56</ele>
      </trkpt>
      <trkpt lat="32.75845" lon="-16.95566">
        <ele>1554.45</ele>
      </trkpt>
      <trkpt lat="32.75845" lon="-16.95566">
        <ele>1554.45</ele>
      </trkpt>
      <trkpt lat="32.75872" lon="-16.95585">
        <ele>1570.42</ele>
      </trkpt>
      <trkpt lat="32.75872" lon="-16.95585">
        <ele>1570.42</ele>
      </trkpt>
      <trkpt lat="32.7591" lon="-16.95655">
        <ele>1571.46</ele>
      </trkpt>
      <trkpt lat="32.7591" lon="-16.95655">
        <ele>1571.46</ele>
      </trkpt>
      <trkpt lat="32.75939" lon="-16.9569">
        <ele>1588.84</ele>
      </trkpt>
      <trkpt lat="32.75939" lon="-16.9569">
        <ele>1588.84</ele>
      </trkpt>
      <trkpt lat="32.7596" lon="-16.95754">
        <ele>1596.87</ele>
      </trkpt>
      <trkpt lat="32.7596" lon="-16.95754">
        <ele>1596.87</ele>
      </trkpt>
      <trkpt lat="32.75936" lon="-16.95787">
        <ele>1563.02</ele>
      </trkpt>
      <trkpt lat="32.75936" lon="-16.95787">
        <ele>1563.02</ele>
      </trkpt>
      <trkpt lat="32.75951" lon="-16.95854">
        <ele>1584.69</ele>
      </trkpt>
      <trkpt lat="32.75951" lon="-16.95854">
        <ele>1584.69</ele>
      </trkpt>
      <trkpt lat="32.76005" lon="-16.95859">
        <ele>1606.84</ele>
      </trkpt>
      <trkpt lat="32.76005" lon="-16.95859">
        <ele>1606.84</ele>
      </trkpt>
      <trkpt lat="32.76069" lon="-16.95897">
        <ele>1606.68</ele>
      </trkpt>
      <trkpt lat="32.76069" lon="-16.95897">
        <ele>1606.68</ele>
      </trkpt>
      <trkpt lat="32.76118" lon="-16.95985">
        <ele>1597.2</ele>
      </trkpt>
      <trkpt lat="32.76118" lon="-16.95985">
        <ele>1597.2</ele>
      </trkpt>
      <trkpt lat="32.76136" lon="-16.96049">
        <ele>1596.49</ele>
      </trkpt>
      <trkpt lat="32.76136" lon="-16.96049">
        <ele>1596.49</ele>
      </trkpt>
      <trkpt lat="32.76136" lon="-16.96103">
        <ele>1599.84</ele>
      </trkpt>
      <trkpt lat="32.76136" lon="-16.96156">
        <ele>1605.36</ele>
      </trkpt>
      <trkpt lat="32.76136" lon="-16.96156">
        <ele>1605.36</ele>
      </trkpt>
      <trkpt lat="32.76097" lon="-16.96248">
        <ele>1603.65</ele>
      </trkpt>
      <trkpt lat="32.76097" lon="-16.96248">
        <ele>1603.65</ele>
      </trkpt>
      <trkpt lat="32.76073" lon="-16.96301">
        <ele>1596.79</ele>
      </trkpt>
      <trkpt lat="32.76073" lon="-16.96301">
        <ele>1596.79</ele>
      </trkpt>
      <trkpt lat="32.76052" lon="-16.96353">
        <ele>1594.65</ele>
      </trkpt>
      <trkpt lat="32.7603" lon="-16.96405">
        <ele>1588.02</ele>
      </trkpt>
      <trkpt lat="32.76009" lon="-16.96457">
        <ele>1561.79</ele>
      </trkpt>
      <trkpt lat="32.76009" lon="-16.96457">
        <ele>1561.79</ele>
      </trkpt>
      <trkpt lat="32.75991" lon="-16.96479">
        <ele>1546.3</ele>
      </trkpt>
      <trkpt lat="32.75991" lon="-16.96479">
        <ele>1546.3</ele>
      </trkpt>
      <trkpt lat="32.75982" lon="-16.9647">
        <ele>1541.14</ele>
      </trkpt>
      <trkpt lat="32.75982" lon="-16.9647">
        <ele>1541.14</ele>
      </trkpt>
      <trkpt lat="32.75974" lon="-16.9652">
        <ele>1533.26</ele>
      </trkpt>
      <trkpt lat="32.75974" lon="-16.9652">
        <ele>1533.26</ele>
      </trkpt>
      <trkpt lat="32.75937" lon="-16.96568">
        <ele>1519.15</ele>
      </trkpt>
      <trkpt lat="32.75937" lon="-16.96568">
        <ele>1519.15</ele>
      </trkpt>
      <trkpt lat="32.75968" lon="-16.96643">
        <ele>1534.33</ele>
      </trkpt>
      <trkpt lat="32.75968" lon="-16.96643">
        <ele>1534.33</ele>
      </trkpt>
      <trkpt lat="32.75951" lon="-16.96714">
        <ele>1517.38</ele>
      </trkpt>
      <trkpt lat="32.75934" lon="-16.96785">
        <ele>1524.0</ele>
      </trkpt>
      <trkpt lat="32.75934" lon="-16.96785">
        <ele>1524.0</ele>
      </trkpt>
      <trkpt lat="32.75901" lon="-16.96852">
        <ele>1548.39</ele>
      </trkpt>
      <trkpt lat="32.75867" lon="-16.96918">
        <ele>1556.53</ele>
      </trkpt>
      <trkpt lat="32.75867" lon="-16.96918">
        <ele>1556.53</ele>
      </trkpt>
      <trkpt lat="32.75881" lon="-16.9697">
        <ele>1556.06</ele>
      </trkpt>
      <trkpt lat="32.75895" lon="-16.97021">
        <ele>1553.76</ele>
      </trkpt>
      <trkpt lat="32.75895" lon="-16.97021">
        <ele>1553.76</ele>
      </trkpt>
      <trkpt lat="32.75869" lon="-16.97093">
        <ele>1533.92</ele>
      </trkpt>
      <trkpt lat="32.75869" lon="-16.97093">
        <ele>1533.92</ele>
      </trkpt>
      <trkpt lat="32.75855" lon="-16.97101">
        <ele>1530.93</ele>
      </trkpt>
      <trkpt lat="32.75855" lon="-16.97101">
        <ele>1530.93</ele>
      </trkpt>
      <trkpt lat="32.75852" lon="-16.97124">
        <ele>1525.68</ele>
      </trkpt>
      <trkpt lat="32.75852" lon="-16.97124">
        <ele>1525.68</ele>
      </trkpt>
      <trkpt lat="32.75872" lon="-16.97178">
        <ele>1513.42</ele>
      </trkpt>
      <trkpt lat="32.75872" lon="-16.97178">
        <ele>1513.42</ele>
      </trkpt>
      <trkpt lat="32.75835" lon="-16.97206">
        <ele>1502.22</ele>
      </trkpt>
      <trkpt lat="32.75835" lon="-16.97206">
        <ele>1502.22</ele>
      </trkpt>
      <trkpt lat="32.75813" lon="-16.97207">
        <ele>1507.0</ele>
      </trkpt>
      <trkpt lat="32.75813" lon="-16.97207">
        <ele>1507.0</ele>
      </trkpt>
      <trkpt lat="32.75801" lon="-16.97251">
        <ele>1500.25</ele>
      </trkpt>
      <trkpt lat="32.75801" lon="-16.97251">
        <ele>1500.25</ele>
      </trkpt>
      <trkpt lat="32.75783" lon="-16.97265">
        <ele>1502.63</ele>
      </trkpt>
      <trkpt lat="32.75783" lon="-16.97265">
        <ele>1502.63</ele>
      </trkpt>
      <trkpt lat="32.75766" lon="-16.97306">
        <ele>1494.44</ele>
      </trkpt>
      <trkpt lat="32.75766" lon="-16.97306">
        <ele>1494.44</ele>
      </trkpt>
      <trkpt lat="32.75734" lon="-16.97303">
        <ele>1500.01</ele>
      </trkpt>
      <trkpt lat="32.75734" lon="-16.97303">
        <ele>1500.01</ele>
      </trkpt>
      <trkpt lat="32.75702" lon="-16.97312">
        <ele>1499.19</ele>
      </trkpt>
      <trkpt lat="32.75702" lon="-16.97312">
        <ele>1499.19</ele>
      </trkpt>
      <trkpt lat="32.75637" lon="-16.97364">
        <ele>1495.32</ele>
      </trkpt>
      <trkpt lat="32.75637" lon="-16.97364">
        <ele>1495.32</ele>
      </trkpt>
      <trkpt lat="32.75614" lon="-16.9736">
        <ele>1493.61</ele>
      </trkpt>
      <trkpt lat="32.75614" lon="-16.9736">
        <ele>1493.61</ele>
      </trkpt>
      <trkpt lat="32.75583" lon="-16.9738">
        <ele>1479.36</ele>
      </trkpt>
      <trkpt lat="32.75583" lon="-16.9738">
        <ele>1479.36</ele>
      </trkpt>
      <trkpt lat="32.75562" lon="-16.97448">
        <ele>1472.15</ele>
      </trkpt>
      <trkpt lat="32.75562" lon="-16.97448">
        <ele>1472.15</ele>
      </trkpt>
      <trkpt lat="32.75552" lon="-16.97452">
        <ele>1469.3</ele>
      </trkpt>
      <trkpt lat="32.75552" lon="-16.97452">
        <ele>1469.3</ele>
      </trkpt>
      <trkpt lat="32.75556" lon="-16.97521">
        <ele>1467.9</ele>
      </trkpt>
      <trkpt lat="32.75556" lon="-16.97521">
        <ele>1467.9</ele>
      </trkpt>
      <trkpt lat="32.75521" lon="-16.97542">
        <ele>1458.12</ele>
      </trkpt>
      <trkpt lat="32.75521" lon="-16.97542">
        <ele>1458.12</ele>
      </trkpt>
      <trkpt lat="32.75496" lon="-16.97603">
        <ele>1444.22</ele>
      </trkpt>
      <trkpt lat="32.75496" lon="-16.97603">
        <ele>1444.22</ele>
      </trkpt>
      <trkpt lat="32.75475" lon="-16.97658">
        <ele>1423.0</ele>
      </trkpt>
      <trkpt lat="32.75453" lon="-16.97713">
        <ele>1390.34</ele>
      </trkpt>
      <trkpt lat="32.75453" lon="-16.97713">
        <ele>1390.34</ele>
      </trkpt>
      <trkpt lat="32.75435" lon="-16.97779">
        <ele>1404.45</ele>
      </trkpt>
      <trkpt lat="32.75435" lon="-16.97779">
        <ele>1404.45</ele>
      </trkpt>
      <trkpt lat="32.75408" lon="-16.97828">
        <ele>1417.77</ele>
      </trkpt>
      <trkpt lat="32.75408" lon="-16.97828">
        <ele>1417.77</ele>
      </trkpt>
      <trkpt lat="32.75405" lon="-16.97885">
        <ele>1437.43</ele>
      </trkpt>
      <trkpt lat="32.75402" lon="-16.97941">
        <ele>1438.51</ele>
      </trkpt>
      <trkpt lat="32.75402" lon="-16.97941">
        <ele>1438.51</ele>
      </trkpt>
      <trkpt lat="32.75435" lon="-16.97987">
        <ele>1452.08</ele>
      </trkpt>
      <trkpt lat="32.75467" lon="-16.98032">
        <ele>1454.92</ele>
      </trkpt>
      <trkpt lat="32.75467" lon="-16.98032">
        <ele>1454.92</ele>
      </trkpt>
      <trkpt lat="32.75521" lon="-16.98058">
        <ele>1455.32</ele>
      </trkpt>
      <trkpt lat="32.75521" lon="-16.98058">
        <ele>1455.32</ele>
      </trkpt>
      <trkpt lat="32.75527" lon="-16.98098">
        <ele>1444.18</ele>
      </trkpt>
      <trkpt lat="32.75527" lon="-16.98098">
        <ele>1444.18</ele>
      </trkpt>
      <trkpt lat="32.75515" lon="-16.9809">
        <ele>1446.87</ele>
      </trkpt>
      <trkpt lat="32.75515" lon="-16.9809">
        <ele>1446.87</ele>
      </trkpt>
      <trkpt lat="32.75512" lon="-16.98111">
        <ele>1447.97</ele>
      </trkpt>
      <trkpt lat="32.75512" lon="-16.98111">
        <ele>1447.97</ele>
      </trkpt>
      <trkpt lat="32.75487" lon="-16.98099">
        <ele>1451.56</ele>
      </trkpt>
      <trkpt lat="32.75487" lon="-16.98099">
        <ele>1451.56</ele>
      </trkpt>
      <trkpt lat="32.75505" lon="-16.98135">
        <ele>1465.44</ele>
      </trkpt>
      <trkpt lat="32.75505" lon="-16.98135">
        <ele>1465.44</ele>
      </trkpt>
      <trkpt lat="32.75497" lon="-16.98133">
        <ele>1463.02</ele>
      </trkpt>
      <trkpt lat="32.75497" lon="-16.98133">
        <ele>1463.02</ele>
      </trkpt>
      <trkpt lat="32.75499" lon="-16.98176">
        <ele>1486.6</ele>
      </trkpt>
      <trkpt lat="32.75499" lon="-16.98176">
        <ele>1486.6</ele>
      </trkpt>
      <trkpt lat="32.75509" lon="-16.98198">
        <ele>1508.57</ele>
      </trkpt>
      <trkpt lat="32.75509" lon="-16.98198">
        <ele>1508.57</ele>
      </trkpt>
      <trkpt lat="32.75476" lon="-16.98174">
        <ele>1474.18</ele>
      </trkpt>
      <trkpt lat="32.75476" lon="-16.98174">
        <ele>1474.18</ele>
      </trkpt>
      <trkpt lat="32.75475" lon="-16.98165">
        <ele>1467.93</ele>
      </trkpt>
      <trkpt lat="32.75475" lon="-16.98165">
        <ele>1467.93</ele>
      </trkpt>
      <trkpt lat="32.75469" lon="-16.98163">
        <ele>1463.85</ele>
      </trkpt>
      <trkpt lat="32.75469" lon="-16.98163">
        <ele>1463.85</ele>
      </trkpt>
      <trkpt lat="32.75468" lon="-16.98179">
        <ele>1472.41</ele>
      </trkpt>
      <trkpt lat="32.75468" lon="-16.98179">
        <ele>1472.41</ele>
      </trkpt>
      <trkpt lat="32.75477" lon="-16.98193">
        <ele>1487.78</ele>
      </trkpt>
      <trkpt lat="32.75477" lon="-16.98193">
        <ele>1487.78</ele>
      </trkpt>
      <trkpt lat="32.75461" lon="-16.98206">
        <ele>1489.32</ele>
      </trkpt>
      <trkpt lat="32.75461" lon="-16.98206">
        <ele>1489.32</ele>
      </trkpt>
      <trkpt lat="32.75485" lon="-16.98253">
        <ele>1546.36</ele>
      </trkpt>
      <trkpt lat="32.75508" lon="-16.98299">
        <ele>1574.36</ele>
      </trkpt>
      <trkpt lat="32.75508" lon="-16.98299">
        <ele>1574.36</ele>
      </trkpt>
      <trkpt lat="32.75499" lon="-16.98394">
        <ele>1600.18</ele>
      </trkpt>
      <trkpt lat="32.75499" lon="-16.98394">
        <ele>1600.18</ele>
      </trkpt>
      <trkpt lat="32.75487" lon="-16.98428">
        <ele>1611.8</ele>
      </trkpt>
      <trkpt lat="32.75487" lon="-16.98428">
        <ele>1611.8</ele>
      </trkpt>
      <trkpt lat="32.75454" lon="-16.98445">
        <ele>1616.17</ele>
      </trkpt>
      <trkpt lat="32.75454" lon="-16.98445">
        <ele>1616.17</ele>
      </trkpt>
      <trkpt lat="32.75426" lon="-16.98477">
        <ele>1616.41</ele>
      </trkpt>
      <trkpt lat="32.75426" lon="-16.98477">
        <ele>1616.41</ele>
      </trkpt>
      <trkpt lat="32.75439" lon="-16.98542">
        <ele>1607.26</ele>
      </trkpt>
      <trkpt lat="32.75439" lon="-16.98542">
        <ele>1607.26</ele>
      </trkpt>
      <trkpt lat="32.75406" lon="-16.98578">
        <ele>1608.05</ele>
      </trkpt>
      <trkpt lat="32.75406" lon="-16.98578">
        <ele>1608.05</ele>
      </trkpt>
      <trkpt lat="32.75378" lon="-16.9857">
        <ele>1613.92</ele>
      </trkpt>
      <trkpt lat="32.75378" lon="-16.9857">
        <ele>1613.92</ele>
      </trkpt>
      <trkpt lat="32.75362" lon="-16.98585">
        <ele>1612.42</ele>
      </trkpt>
      <trkpt lat="32.75362" lon="-16.98585">
        <ele>1612.42</ele>
      </trkpt>
      <trkpt lat="32.7533" lon="-16.9864">
        <ele>1591.05</ele>
      </trkpt>
      <trkpt lat="32.7533" lon="-16.9864">
        <ele>1591.05</ele>
      </trkpt>
      <trkpt lat="32.75326" lon="-16.98667">
        <ele>1582.1</ele>
      </trkpt>
      <trkpt lat="32.75326" lon="-16.98667">
        <ele>1582.1</ele>
      </trkpt>
      <trkpt lat="32.75303" lon="-16.98707">
        <ele>1564.49</ele>
      </trkpt>
      <trkpt lat="32.75303" lon="-16.98707">
        <ele>1564.49</ele>
      </trkpt>
      <trkpt lat="32.75295" lon="-16.98733">
        <ele>1552.89</ele>
      </trkpt>
      <trkpt lat="32.75295" lon="-16.98733">
        <ele>1552.89</ele>
      </trkpt>
      <trkpt lat="32.75305" lon="-16.98769">
        <ele>1544.54</ele>
      </trkpt>
      <trkpt lat="32.75305" lon="-16.98769">
        <ele>1544.54</ele>
      </trkpt>
      <trkpt lat="32.753" lon="-16.98832">
        <ele>1531.2</ele>
      </trkpt>
      <trkpt lat="32.753" lon="-16.98832">
        <ele>1531.2</ele>
      </trkpt>
      <trkpt lat="32.75291" lon="-16.98894">
        <ele>1530.56</ele>
      </trkpt>
      <trkpt lat="32.75291" lon="-16.98894">
        <ele>1530.56</ele>
      </trkpt>
      <trkpt lat="32.75284" lon="-16.9889">
        <ele>1532.1</ele>
      </trkpt>
      <trkpt lat="32.75284" lon="-16.9889">
        <ele>1532.1</ele>
      </trkpt>
      <trkpt lat="32.75268" lon="-16.9891">
        <ele>1525.0</ele>
      </trkpt>
      <trkpt lat="32.75268" lon="-16.9891">
        <ele>1525.0</ele>
      </trkpt>
      <trkpt lat="32.75265" lon="-16.98939">
        <ele>1511.34</ele>
      </trkpt>
      <trkpt lat="32.75265" lon="-16.98939">
        <ele>1511.34</ele>
      </trkpt>
      <trkpt lat="32.75279" lon="-16.98952">
        <ele>1511.62</ele>
      </trkpt>
      <trkpt lat="32.75279" lon="-16.98952">
        <ele>1511.62</ele>
      </trkpt>
      <trkpt lat="32.75303" lon="-16.98951">
        <ele>1511.48</ele>
      </trkpt>
      <trkpt lat="32.75303" lon="-16.98951">
        <ele>1511.48</ele>
      </trkpt>
      <trkpt lat="32.75314" lon="-16.98966">
        <ele>1504.25</ele>
      </trkpt>
      <trkpt lat="32.75314" lon="-16.98966">
        <ele>1504.25</ele>
      </trkpt>
      <trkpt lat="32.753" lon="-16.98987">
        <ele>1495.7</ele>
      </trkpt>
      <trkpt lat="32.753" lon="-16.98987">
        <ele>1495.7</ele>
      </trkpt>
      <trkpt lat="32.75305" lon="-16.99022">
        <ele>1487.54</ele>
      </trkpt>
      <trkpt lat="32.75305" lon="-16.99022">
        <ele>1487.54</ele>
      </trkpt>
      <trkpt lat="32.75328" lon="-16.99047">
        <ele>1480.23</ele>
      </trkpt>
      <trkpt lat="32.75328" lon="-16.99047">
        <ele>1480.23</ele>
      </trkpt>
      <trkpt lat="32.75321" lon="-16.99096">
        <ele>1465.01</ele>
      </trkpt>
      <trkpt lat="32.75321" lon="-16.99096">
        <ele>1465.01</ele>
      </trkpt>
      <trkpt lat="32.75337" lon="-16.99142">
        <ele>1454.1</ele>
      </trkpt>
      <trkpt lat="32.75337" lon="-16.99142">
        <ele>1454.1</ele>
      </trkpt>
      <trkpt lat="32.75332" lon="-16.99172">
        <ele>1455.09</ele>
      </trkpt>
      <trkpt lat="32.75332" lon="-16.99172">
        <ele>1455.09</ele>
      </trkpt>
      <trkpt lat="32.75316" lon="-16.99174">
        <ele>1452.67</ele>
      </trkpt>
      <trkpt lat="32.75316" lon="-16.99174">
        <ele>1452.67</ele>
      </trkpt>
      <trkpt lat="32.75337" lon="-16.99234">
        <ele>1435.81</ele>
      </trkpt>
      <trkpt lat="32.75337" lon="-16.99234">
        <ele>1435.81</ele>
      </trkpt>
      <trkpt lat="32.7533" lon="-16.99273">
        <ele>1413.58</ele>
      </trkpt>
      <trkpt lat="32.7533" lon="-16.99273">
        <ele>1413.58</ele>
      </trkpt>
      <trkpt lat="32.7536" lon="-16.99357">
        <ele>1376.69</ele>
      </trkpt>
      <trkpt lat="32.7536" lon="-16.99357">
        <ele>1376.69</ele>
      </trkpt>
      <trkpt lat="32.75347" lon="-16.99396">
        <ele>1372.6</ele>
      </trkpt>
      <trkpt lat="32.75347" lon="-16.99396">
        <ele>1372.6</ele>
      </trkpt>
      <trkpt lat="32.75373" lon="-16.99436">
        <ele>1379.76</ele>
      </trkpt>
      <trkpt lat="32.75373" lon="-16.99436">
        <ele>1379.76</ele>
      </trkpt>
      <trkpt lat="32.75379" lon="-16.99479">
        <ele>1377.73</ele>
      </trkpt>
      <trkpt lat="32.75379" lon="-16.99479">
        <ele>1377.73</ele>
      </trkpt>
      <trkpt lat="32.75359" lon="-16.99531">
        <ele>1361.86</ele>
      </trkpt>
      <trkpt lat="32.75359" lon="-16.99531">
        <ele>1361.86</ele>
      </trkpt>
      <trkpt lat="32.75376" lon="-16.99568">
        <ele>1362.95</ele>
      </trkpt>
      <trkpt lat="32.75376" lon="-16.99568">
        <ele>1362.95</ele>
      </trkpt>
      <trkpt lat="32.75384" lon="-16.99645">
        <ele>1366.59</ele>
      </trkpt>
      <trkpt lat="32.75384" lon="-16.99645">
        <ele>1366.59</ele>
      </trkpt>
      <trkpt lat="32.75395" lon="-16.99681">
        <ele>1385.83</ele>
      </trkpt>
      <trkpt lat="32.75395" lon="-16.99681">
        <ele>1385.83</ele>
      </trkpt>
      <trkpt lat="32.75399" lon="-16.99715">
        <ele>1381.84</ele>
      </trkpt>
      <trkpt lat="32.75399" lon="-16.99715">
        <ele>1381.84</ele>
      </trkpt>
      <trkpt lat="32.7543" lon="-16.99721">
        <ele>1397.77</ele>
      </trkpt>
      <trkpt lat="32.7543" lon="-16.99721">
        <ele>1397.77</ele>
      </trkpt>
      <trkpt lat="32.75459" lon="-16.99787">
        <ele>1397.92</ele>
      </trkpt>
      <trkpt lat="32.75459" lon="-16.99787">
        <ele>1397.92</ele>
      </trkpt>
      <trkpt lat="32.75429" lon="-16.99848">
        <ele>1368.33</ele>
      </trkpt>
      <trkpt lat="32.75429" lon="-16.99848">
        <ele>1368.33</ele>
      </trkpt>
      <trkpt lat="32.75449" lon="-16.9988">
        <ele>1388.09</ele>
      </trkpt>
      <trkpt lat="32.75449" lon="-16.9988">
        <ele>1388.09</ele>
      </trkpt>
      <trkpt lat="32.75468" lon="-16.9992">
        <ele>1410.86</ele>
      </trkpt>
      <trkpt lat="32.75468" lon="-16.9992">
        <ele>1410.86</ele>
      </trkpt>
      <trkpt lat="32.75467" lon="-16.99973">
        <ele>1389.41</ele>
      </trkpt>
      <trkpt lat="32.75467" lon="-16.99973">
        <ele>1389.41</ele>
      </trkpt>
      <trkpt lat="32.75465" lon="-16.99985">
        <ele>1378.54</ele>
      </trkpt>
      <trkpt lat="32.75465" lon="-16.99985">
        <ele>1378.54</ele>
      </trkpt>
      <trkpt lat="32.7548" lon="-17.00031">
        <ele>1375.24</ele>
      </trkpt>
      <trkpt lat="32.7548" lon="-17.00031">
        <ele>1375.24</ele>
      </trkpt>
      <trkpt lat="32.75507" lon="-17.00033">
        <ele>1403.77</ele>
      </trkpt>
      <trkpt lat="32.75507" lon="-17.00033">
        <ele>1403.77</ele>
      </trkpt>
      <trkpt lat="32.75524" lon="-17.00094">
        <ele>1377.35</ele>
      </trkpt>
      <trkpt lat="32.75524" lon="-17.00094">
        <ele>1377.35</ele>
      </trkpt>
      <trkpt lat="32.75541" lon="-17.00096">
        <ele>1392.69</ele>
      </trkpt>
      <trkpt lat="32.75541" lon="-17.00096">
        <ele>1392.69</ele>
      </trkpt>
      <trkpt lat="32.75562" lon="-17.00146">
        <ele>1394.36</ele>
      </trkpt>
      <trkpt lat="32.75562" lon="-17.00146">
        <ele>1394.36</ele>
      </trkpt>
      <trkpt lat="32.75549" lon="-17.00194">
        <ele>1371.9</ele>
      </trkpt>
      <trkpt lat="32.75549" lon="-17.00194">
        <ele>1371.9</ele>
      </trkpt>
      <trkpt lat="32.75548" lon="-17.00255">
        <ele>1335.55</ele>
      </trkpt>
      <trkpt lat="32.75548" lon="-17.00255">
        <ele>1335.55</ele>
      </trkpt>
      <trkpt lat="32.75598" lon="-17.00265">
        <ele>1355.67</ele>
      </trkpt>
      <trkpt lat="32.75648" lon="-17.00275">
        <ele>1328.32</ele>
      </trkpt>
      <trkpt lat="32.75648" lon="-17.00275">
        <ele>1328.32</ele>
      </trkpt>
      <trkpt lat="32.75604" lon="-17.00294">
        <ele>1330.5</ele>
      </trkpt>
      <trkpt lat="32.7556" lon="-17.00312">
        <ele>1308.37</ele>
      </trkpt>
      <trkpt lat="32.7556" lon="-17.00312">
        <ele>1308.37</ele>
      </trkpt>
      <trkpt lat="32.75544" lon="-17.00359">
        <ele>1299.25</ele>
      </trkpt>
      <trkpt lat="32.75544" lon="-17.00359">
        <ele>1299.25</ele>
      </trkpt>
      <trkpt lat="32.75507" lon="-17.00361">
        <ele>1288.29</ele>
      </trkpt>
      <trkpt lat="32.75507" lon="-17.00361">
        <ele>1288.29</ele>
      </trkpt>
      <trkpt lat="32.75487" lon="-17.00414">
        <ele>1269.46</ele>
      </trkpt>
      <trkpt lat="32.75468" lon="-17.00467">
        <ele>1237.26</ele>
      </trkpt>
      <trkpt lat="32.75448" lon="-17.0052">
        <ele>1224.62</ele>
      </trkpt>
      <trkpt lat="32.75448" lon="-17.0052">
        <ele>1224.62</ele>
      </trkpt>
      <trkpt lat="32.7541" lon="-17.00577">
        <ele>1215.05</ele>
      </trkpt>
      <trkpt lat="32.75373" lon="-17.00634">
        <ele>1230.38</ele>
      </trkpt>
      <trkpt lat="32.75373" lon="-17.00634">
        <ele>1230.38</ele>
      </trkpt>
      <trkpt lat="32.75349" lon="-17.00639">
        <ele>1224.89</ele>
      </trkpt>
      <trkpt lat="32.75349" lon="-17.00639">
        <ele>1224.89</ele>
      </trkpt>
      <trkpt lat="32.75322" lon="-17.00701">
        <ele>1226.56</ele>
      </trkpt>
      <trkpt lat="32.75295" lon="-17.00763">
        <ele>1192.65</ele>
      </trkpt>
      <trkpt lat="32.75268" lon="-17.00825">
        <ele>1163.05</ele>
      </trkpt>
      <trkpt lat="32.75268" lon="-17.00825">
        <ele>1163.05</ele>
      </trkpt>
      <trkpt lat="32.75269" lon="-17.00923">
        <ele>1140.02</ele>
      </trkpt>
      <trkpt lat="32.75269" lon="-17.00923">
        <ele>1140.02</ele>
      </trkpt>
      <trkpt lat="32.75266" lon="-17.00989">
        <ele>1117.47</ele>
      </trkpt>
      <trkpt lat="32.75262" lon="-17.01055">
        <ele>1103.27</ele>
      </trkpt>
      <trkpt lat="32.75262" lon="-17.01055">
        <ele>1103.27</ele>
      </trkpt>
      <trkpt lat="32.75211" lon="-17.01135">
        <ele>1062.41</ele>
      </trkpt>
      <trkpt lat="32.75211" lon="-17.01135">
        <ele>1062.41</ele>
      </trkpt>
      <trkpt lat="32.75242" lon="-17.01131">
        <ele>1078.76</ele>
      </trkpt>
      <trkpt lat="32.75242" lon="-17.01131">
        <ele>1078.76</ele>
      </trkpt>
      <trkpt lat="32.7523" lon="-17.0117">
        <ele>1066.04</ele>
      </trkpt>
      <trkpt lat="32.7523" lon="-17.0117">
        <ele>1066.04</ele>
      </trkpt>
      <trkpt lat="32.7526" lon="-17.01156">
        <ele>1085.89</ele>
      </trkpt>
      <trkpt lat="32.7526" lon="-17.01156">
        <ele>1085.89</ele>
      </trkpt>
      <trkpt lat="32.75259" lon="-17.01186">
        <ele>1084.3</ele>
      </trkpt>
      <trkpt lat="32.75259" lon="-17.01186">
        <ele>1084.3</ele>
      </trkpt>
      <trkpt lat="32.75278" lon="-17.0118">
        <ele>1109.04</ele>
      </trkpt>
      <trkpt lat="32.75278" lon="-17.0118">
        <ele>1109.04</ele>
      </trkpt>
      <trkpt lat="32.7528" lon="-17.01197">
        <ele>1112.13</ele>
      </trkpt>
      <trkpt lat="32.7528" lon="-17.01197">
        <ele>1112.13</ele>
      </trkpt>
      <trkpt lat="32.75303" lon="-17.01218">
        <ele>1117.19</ele>
      </trkpt>
      <trkpt lat="32.75303" lon="-17.01218">
        <ele>1117.19</ele>
      </trkpt>
      <trkpt lat="32.75305" lon="-17.01173">
        <ele>1125.59</ele>
      </trkpt>
      <trkpt lat="32.75305" lon="-17.01173">
        <ele>1125.59</ele>
      </trkpt>
      <trkpt lat="32.75322" lon="-17.01171">
        <ele>1125.97</ele>
      </trkpt>
      <trkpt lat="32.75322" lon="-17.01171">
        <ele>1125.97</ele>
      </trkpt>
      <trkpt lat="32.75322" lon="-17.01221">
        <ele>1117.76</ele>
      </trkpt>
      <trkpt lat="32.75322" lon="-17.01221">
        <ele>1117.76</ele>
      </trkpt>
      <trkpt lat="32.75297" lon="-17.01228">
        <ele>1116.82</ele>
      </trkpt>
      <trkpt lat="32.75297" lon="-17.01228">
        <ele>1116.82</ele>
      </trkpt>
      <trkpt lat="32.75276" lon="-17.01246">
        <ele>1118.76</ele>
      </trkpt>
      <trkpt lat="32.75276" lon="-17.01246">
        <ele>1118.76</ele>
      </trkpt>
      <trkpt lat="32.75268" lon="-17.01272">
        <ele>1108.99</ele>
      </trkpt>
      <trkpt lat="32.75268" lon="-17.01272">
        <ele>1108.99</ele>
      </trkpt>
      <trkpt lat="32.75272" lon="-17.01305">
        <ele>1112.31</ele>
      </trkpt>
      <trkpt lat="32.75272" lon="-17.01305">
        <ele>1112.31</ele>
      </trkpt>
      <trkpt lat="32.75252" lon="-17.01343">
        <ele>1121.03</ele>
      </trkpt>
      <trkpt lat="32.75252" lon="-17.01343">
        <ele>1121.03</ele>
      </trkpt>
      <trkpt lat="32.75259" lon="-17.0136">
        <ele>1121.0</ele>
      </trkpt>
      <trkpt lat="32.75259" lon="-17.0136">
        <ele>1121.0</ele>
      </trkpt>
      <trkpt lat="32.75254" lon="-17.01428">
        <ele>1112.29</ele>
      </trkpt>
      <trkpt lat="32.75254" lon="-17.01428">
        <ele>1112.29</ele>
      </trkpt>
      <trkpt lat="32.75253" lon="-17.01482">
        <ele>1087.54</ele>
      </trkpt>
      <trkpt lat="32.75251" lon="-17.01536">
        <ele>1066.21</ele>
      </trkpt>
      <trkpt lat="32.75251" lon="-17.01536">
        <ele>1066.21</ele>
      </trkpt>
      <trkpt lat="32.7529" lon="-17.01625">
        <ele>1032.58</ele>
      </trkpt>
      <trkpt lat="32.7529" lon="-17.01625">
        <ele>1032.58</ele>
      </trkpt>
      <trkpt lat="32.75317" lon="-17.0167">
        <ele>1021.35</ele>
      </trkpt>
      <trkpt lat="32.75344" lon="-17.01715">
        <ele>1012.46</ele>
      </trkpt>
      <trkpt lat="32.75344" lon="-17.01715">
        <ele>1012.46</ele>
      </trkpt>
      <trkpt lat="32.75358" lon="-17.01701">
        <ele>1007.83</ele>
      </trkpt>
      <trkpt lat="32.75358" lon="-17.01701">
        <ele>1007.83</ele>
      </trkpt>
      <trkpt lat="32.7537" lon="-17.01716">
        <ele>1006.42</ele>
      </trkpt>
    </trkseg>
  </trk>
</gpx>
