<?xml version="1.0"?>
<gpx xmlns="http://www.topografix.com/GPX/1/1" xmlns:xsi="http://www.w3.org/2001/XMLSchema-instance" version="1.1" creator="AllTrails.com" xsi:schemaLocation="http://www.topografix.com/GPX/1/1 http://www.topografix.com/GPX/1/1/gpx.xsd">
  <metadata>
    <name><![CDATA[pr-1-2-vereda-do-pico-ruivo]]></name>
    <desc><![CDATA[]]></desc>
    <link href="http://www.alltrails.com">
      <text>AllTrails, LLC</text>
    </link>
    <bounds minlat="32.75838" minlon="-16.94339" maxlat="32.7649008" maxlon="-16.9209969"/>
  </metadata>
  <trk>
    <name><![CDATA[pr-1-2-vereda-do-pico-ruivo]]></name>
    <src>AllTrails</src>
    <trkseg>
      <trkpt lat="32.7649" lon="-16.921">
        <ele>1575.61</ele>
      </trkpt>
      <trkpt lat="32.7649" lon="-16.921">
        <ele>1575.61</ele>
      </trkpt>
      <trkpt lat="32.76488" lon="-16.92107">
        <ele>1575.52</ele>
      </trkpt>
      <trkpt lat="32.76482" lon="-16.92114">
        <ele>1575.62</ele>
      </trkpt>
      <trkpt lat="32.76478" lon="-16.92116">
        <ele>1575.77</ele>
      </trkpt>
      <trkpt lat="32.76459" lon="-16.9214">
        <ele>1579.59</ele>
      </trkpt>
      <trkpt lat="32.76439" lon="-16.92165">
        <ele>1585.8</ele>
      </trkpt>
      <trkpt lat="32.76436" lon="-16.9217">
        <ele>1586.84</ele>
      </trkpt>
      <trkpt lat="32.76431" lon="-16.92176">
        <ele>1587.69</ele>
      </trkpt>
      <trkpt lat="32.76428" lon="-16.92182">
        <ele>1588.27</ele>
      </trkpt>
      <trkpt lat="32.76427" lon="-16.92188">
        <ele>1588.82</ele>
      </trkpt>
      <trkpt lat="32.76423" lon="-16.9222">
        <ele>1593.51</ele>
      </trkpt>
      <trkpt lat="32.76422" lon="-16.92224">
        <ele>1593.56</ele>
      </trkpt>
      <trkpt lat="32.76419" lon="-16.92228">
        <ele>1592.69</ele>
      </trkpt>
      <trkpt lat="32.76413" lon="-16.92234">
        <ele>1590.25</ele>
      </trkpt>
      <trkpt lat="32.76406" lon="-16.92248">
        <ele>1589.01</ele>
      </trkpt>
      <trkpt lat="32.76402" lon="-16.92256">
        <ele>1588.74</ele>
      </trkpt>
      <trkpt lat="32.76398" lon="-16.92265">
        <ele>1588.3</ele>
      </trkpt>
      <trkpt lat="32.76397" lon="-16.92279">
        <ele>1587.87</ele>
      </trkpt>
      <trkpt lat="32.76397" lon="-16.9229">
        <ele>1586.7</ele>
      </trkpt>
      <trkpt lat="32.76397" lon="-16.92306">
        <ele>1585.09</ele>
      </trkpt>
      <trkpt lat="32.76396" lon="-16.9233">
        <ele>1587.64</ele>
      </trkpt>
      <trkpt lat="32.76396" lon="-16.92337">
        <ele>1589.05</ele>
      </trkpt>
      <trkpt lat="32.76397" lon="-16.92343">
        <ele>1590.85</ele>
      </trkpt>
      <trkpt lat="32.76398" lon="-16.92352">
        <ele>1593.47</ele>
      </trkpt>
      <trkpt lat="32.76401" lon="-16.92368">
        <ele>1597.0</ele>
      </trkpt>
      <trkpt lat="32.76414" lon="-16.92404">
        <ele>1609.36</ele>
      </trkpt>
      <trkpt lat="32.76429" lon="-16.92424">
        <ele>1614.96</ele>
      </trkpt>
      <trkpt lat="32.76437" lon="-16.92432">
        <ele>1617.83</ele>
      </trkpt>
      <trkpt lat="32.76453" lon="-16.92447">
        <ele>1620.72</ele>
      </trkpt>
      <trkpt lat="32.76466" lon="-16.92484">
        <ele>1627.35</ele>
      </trkpt>
      <trkpt lat="32.76471" lon="-16.92499">
        <ele>1629.97</ele>
      </trkpt>
      <trkpt lat="32.76472" lon="-16.92511">
        <ele>1632.81</ele>
      </trkpt>
      <trkpt lat="32.7647" lon="-16.9252">
        <ele>1635.38</ele>
      </trkpt>
      <trkpt lat="32.76467" lon="-16.9252">
        <ele>1635.84</ele>
      </trkpt>
      <trkpt lat="32.76463" lon="-16.92515">
        <ele>1635.26</ele>
      </trkpt>
      <trkpt lat="32.76457" lon="-16.9251">
        <ele>1635.06</ele>
      </trkpt>
      <trkpt lat="32.76455" lon="-16.92512">
        <ele>1635.86</ele>
      </trkpt>
      <trkpt lat="32.76444" lon="-16.92539">
        <ele>1643.83</ele>
      </trkpt>
      <trkpt lat="32.76428" lon="-16.92573">
        <ele>1654.0</ele>
      </trkpt>
      <trkpt lat="32.76421" lon="-16.92586">
        <ele>1659.37</ele>
      </trkpt>
      <trkpt lat="32.76413" lon="-16.92603">
        <ele>1661.66</ele>
      </trkpt>
      <trkpt lat="32.76409" lon="-16.92609">
        <ele>1662.93</ele>
      </trkpt>
      <trkpt lat="32.76394" lon="-16.92631">
        <ele>1661.97</ele>
      </trkpt>
      <trkpt lat="32.76378" lon="-16.92646">
        <ele>1655.18</ele>
      </trkpt>
      <trkpt lat="32.76373" lon="-16.92655">
        <ele>1652.55</ele>
      </trkpt>
      <trkpt lat="32.7637" lon="-16.9266">
        <ele>1651.0</ele>
      </trkpt>
      <trkpt lat="32.76369" lon="-16.92665">
        <ele>1650.24</ele>
      </trkpt>
      <trkpt lat="32.76366" lon="-16.92676">
        <ele>1648.03</ele>
      </trkpt>
      <trkpt lat="32.76361" lon="-16.92684">
        <ele>1645.69</ele>
      </trkpt>
      <trkpt lat="32.7635" lon="-16.92729">
        <ele>1639.24</ele>
      </trkpt>
      <trkpt lat="32.76348" lon="-16.9274">
        <ele>1639.37</ele>
      </trkpt>
      <trkpt lat="32.76347" lon="-16.92742">
        <ele>1639.14</ele>
      </trkpt>
      <trkpt lat="32.76347" lon="-16.92742">
        <ele>1639.14</ele>
      </trkpt>
      <trkpt lat="32.76347" lon="-16.92742">
        <ele>1639.14</ele>
      </trkpt>
      <trkpt lat="32.76344" lon="-16.92759">
        <ele>1638.37</ele>
      </trkpt>
      <trkpt lat="32.76339" lon="-16.92773">
        <ele>1637.22</ele>
      </trkpt>
      <trkpt lat="32.7633" lon="-16.92794">
        <ele>1636.68</ele>
      </trkpt>
      <trkpt lat="32.76324" lon="-16.92811">
        <ele>1641.88</ele>
      </trkpt>
      <trkpt lat="32.76322" lon="-16.92824">
        <ele>1649.79</ele>
      </trkpt>
      <trkpt lat="32.76322" lon="-16.9285">
        <ele>1666.16</ele>
      </trkpt>
      <trkpt lat="32.76324" lon="-16.92862">
        <ele>1673.28</ele>
      </trkpt>
      <trkpt lat="32.76325" lon="-16.92876">
        <ele>1677.3</ele>
      </trkpt>
      <trkpt lat="32.76327" lon="-16.92889">
        <ele>1680.91</ele>
      </trkpt>
      <trkpt lat="32.76334" lon="-16.92906">
        <ele>1680.32</ele>
      </trkpt>
      <trkpt lat="32.7634" lon="-16.92927">
        <ele>1678.16</ele>
      </trkpt>
      <trkpt lat="32.76342" lon="-16.92939">
        <ele>1677.5</ele>
      </trkpt>
      <trkpt lat="32.76344" lon="-16.92949">
        <ele>1677.55</ele>
      </trkpt>
      <trkpt lat="32.76347" lon="-16.92964">
        <ele>1678.99</ele>
      </trkpt>
      <trkpt lat="32.76352" lon="-16.92986">
        <ele>1681.73</ele>
      </trkpt>
      <trkpt lat="32.76358" lon="-16.93">
        <ele>1683.23</ele>
      </trkpt>
      <trkpt lat="32.76364" lon="-16.93012">
        <ele>1684.61</ele>
      </trkpt>
      <trkpt lat="32.76369" lon="-16.93015">
        <ele>1683.85</ele>
      </trkpt>
      <trkpt lat="32.76377" lon="-16.93026">
        <ele>1683.38</ele>
      </trkpt>
      <trkpt lat="32.76381" lon="-16.93032">
        <ele>1682.32</ele>
      </trkpt>
      <trkpt lat="32.76383" lon="-16.9304">
        <ele>1681.87</ele>
      </trkpt>
      <trkpt lat="32.76383" lon="-16.93048">
        <ele>1682.21</ele>
      </trkpt>
      <trkpt lat="32.76382" lon="-16.93058">
        <ele>1683.35</ele>
      </trkpt>
      <trkpt lat="32.76381" lon="-16.93062">
        <ele>1684.4</ele>
      </trkpt>
      <trkpt lat="32.76378" lon="-16.93064">
        <ele>1686.04</ele>
      </trkpt>
      <trkpt lat="32.76377" lon="-16.93068">
        <ele>1687.12</ele>
      </trkpt>
      <trkpt lat="32.76377" lon="-16.93074">
        <ele>1688.08</ele>
      </trkpt>
      <trkpt lat="32.76383" lon="-16.93093">
        <ele>1686.76</ele>
      </trkpt>
      <trkpt lat="32.76387" lon="-16.93107">
        <ele>1684.88</ele>
      </trkpt>
      <trkpt lat="32.76388" lon="-16.93121">
        <ele>1685.47</ele>
      </trkpt>
      <trkpt lat="32.76386" lon="-16.93136">
        <ele>1687.95</ele>
      </trkpt>
      <trkpt lat="32.76382" lon="-16.93147">
        <ele>1688.88</ele>
      </trkpt>
      <trkpt lat="32.76375" lon="-16.93156">
        <ele>1690.84</ele>
      </trkpt>
      <trkpt lat="32.76366" lon="-16.93164">
        <ele>1694.02</ele>
      </trkpt>
      <trkpt lat="32.76352" lon="-16.93177">
        <ele>1701.13</ele>
      </trkpt>
      <trkpt lat="32.76343" lon="-16.93192">
        <ele>1705.84</ele>
      </trkpt>
      <trkpt lat="32.76341" lon="-16.93199">
        <ele>1705.74</ele>
      </trkpt>
      <trkpt lat="32.76338" lon="-16.93208">
        <ele>1705.31</ele>
      </trkpt>
      <trkpt lat="32.76334" lon="-16.93216">
        <ele>1705.93</ele>
      </trkpt>
      <trkpt lat="32.76329" lon="-16.93226">
        <ele>1707.06</ele>
      </trkpt>
      <trkpt lat="32.76325" lon="-16.93238">
        <ele>1708.82</ele>
      </trkpt>
      <trkpt lat="32.76322" lon="-16.9325">
        <ele>1710.57</ele>
      </trkpt>
      <trkpt lat="32.76317" lon="-16.93269">
        <ele>1713.38</ele>
      </trkpt>
      <trkpt lat="32.76314" lon="-16.93279">
        <ele>1715.21</ele>
      </trkpt>
      <trkpt lat="32.76313" lon="-16.93289">
        <ele>1715.19</ele>
      </trkpt>
      <trkpt lat="32.76311" lon="-16.93307">
        <ele>1715.25</ele>
      </trkpt>
      <trkpt lat="32.76307" lon="-16.9332">
        <ele>1716.26</ele>
      </trkpt>
      <trkpt lat="32.76304" lon="-16.93329">
        <ele>1716.84</ele>
      </trkpt>
      <trkpt lat="32.763" lon="-16.93332">
        <ele>1719.17</ele>
      </trkpt>
      <trkpt lat="32.7629" lon="-16.93339">
        <ele>1723.68</ele>
      </trkpt>
      <trkpt lat="32.76279" lon="-16.93345">
        <ele>1727.93</ele>
      </trkpt>
      <trkpt lat="32.76266" lon="-16.93353">
        <ele>1731.5</ele>
      </trkpt>
      <trkpt lat="32.76251" lon="-16.93366">
        <ele>1736.43</ele>
      </trkpt>
      <trkpt lat="32.76242" lon="-16.9337">
        <ele>1737.91</ele>
      </trkpt>
      <trkpt lat="32.76242" lon="-16.9337">
        <ele>1737.91</ele>
      </trkpt>
      <trkpt lat="32.76242" lon="-16.9337">
        <ele>1737.91</ele>
      </trkpt>
      <trkpt lat="32.76234" lon="-16.93375">
        <ele>1739.2</ele>
      </trkpt>
      <trkpt lat="32.76216" lon="-16.93395">
        <ele>1740.29</ele>
      </trkpt>
      <trkpt lat="32.76208" lon="-16.93404">
        <ele>1738.34</ele>
      </trkpt>
      <trkpt lat="32.762" lon="-16.93409">
        <ele>1738.76</ele>
      </trkpt>
      <trkpt lat="32.76195" lon="-16.93412">
        <ele>1739.33</ele>
      </trkpt>
      <trkpt lat="32.76188" lon="-16.93416">
        <ele>1739.34</ele>
      </trkpt>
      <trkpt lat="32.76182" lon="-16.93421">
        <ele>1738.49</ele>
      </trkpt>
      <trkpt lat="32.76172" lon="-16.93432">
        <ele>1736.65</ele>
      </trkpt>
      <trkpt lat="32.76163" lon="-16.93441">
        <ele>1736.16</ele>
      </trkpt>
      <trkpt lat="32.76158" lon="-16.93447">
        <ele>1735.22</ele>
      </trkpt>
      <trkpt lat="32.76153" lon="-16.93451">
        <ele>1734.19</ele>
      </trkpt>
      <trkpt lat="32.76137" lon="-16.9347">
        <ele>1724.87</ele>
      </trkpt>
      <trkpt lat="32.76134" lon="-16.93476">
        <ele>1722.24</ele>
      </trkpt>
      <trkpt lat="32.76132" lon="-16.93483">
        <ele>1719.39</ele>
      </trkpt>
      <trkpt lat="32.76129" lon="-16.93491">
        <ele>1715.9</ele>
      </trkpt>
      <trkpt lat="32.76129" lon="-16.93497">
        <ele>1713.06</ele>
      </trkpt>
      <trkpt lat="32.76128" lon="-16.93502">
        <ele>1710.8</ele>
      </trkpt>
      <trkpt lat="32.76124" lon="-16.93511">
        <ele>1707.14</ele>
      </trkpt>
      <trkpt lat="32.76123" lon="-16.93517">
        <ele>1704.78</ele>
      </trkpt>
      <trkpt lat="32.76123" lon="-16.93522">
        <ele>1702.83</ele>
      </trkpt>
      <trkpt lat="32.76125" lon="-16.93528">
        <ele>1700.45</ele>
      </trkpt>
      <trkpt lat="32.76125" lon="-16.93534">
        <ele>1699.04</ele>
      </trkpt>
      <trkpt lat="32.76124" lon="-16.9354">
        <ele>1697.76</ele>
      </trkpt>
      <trkpt lat="32.76123" lon="-16.93545">
        <ele>1696.77</ele>
      </trkpt>
      <trkpt lat="32.76123" lon="-16.93556">
        <ele>1694.33</ele>
      </trkpt>
      <trkpt lat="32.76124" lon="-16.93563">
        <ele>1692.48</ele>
      </trkpt>
      <trkpt lat="32.76123" lon="-16.93574">
        <ele>1690.16</ele>
      </trkpt>
      <trkpt lat="32.76121" lon="-16.9358">
        <ele>1689.27</ele>
      </trkpt>
      <trkpt lat="32.76111" lon="-16.93601">
        <ele>1685.3</ele>
      </trkpt>
      <trkpt lat="32.76108" lon="-16.93611">
        <ele>1682.71</ele>
      </trkpt>
      <trkpt lat="32.76107" lon="-16.93618">
        <ele>1680.16</ele>
      </trkpt>
      <trkpt lat="32.76108" lon="-16.93625">
        <ele>1677.17</ele>
      </trkpt>
      <trkpt lat="32.76108" lon="-16.93632">
        <ele>1674.4</ele>
      </trkpt>
      <trkpt lat="32.76108" lon="-16.93647">
        <ele>1663.43</ele>
      </trkpt>
      <trkpt lat="32.76107" lon="-16.93653">
        <ele>1657.51</ele>
      </trkpt>
      <trkpt lat="32.76105" lon="-16.9366">
        <ele>1650.71</ele>
      </trkpt>
      <trkpt lat="32.76105" lon="-16.93666">
        <ele>1644.56</ele>
      </trkpt>
      <trkpt lat="32.76108" lon="-16.93678">
        <ele>1642.99</ele>
      </trkpt>
      <trkpt lat="32.76108" lon="-16.93681">
        <ele>1642.87</ele>
      </trkpt>
      <trkpt lat="32.76104" lon="-16.93687">
        <ele>1642.15</ele>
      </trkpt>
      <trkpt lat="32.76102" lon="-16.93692">
        <ele>1641.32</ele>
      </trkpt>
      <trkpt lat="32.76092" lon="-16.93734">
        <ele>1638.04</ele>
      </trkpt>
      <trkpt lat="32.76083" lon="-16.93754">
        <ele>1644.82</ele>
      </trkpt>
      <trkpt lat="32.76077" lon="-16.93764">
        <ele>1652.53</ele>
      </trkpt>
      <trkpt lat="32.76071" lon="-16.93767">
        <ele>1657.25</ele>
      </trkpt>
      <trkpt lat="32.76068" lon="-16.93772">
        <ele>1660.57</ele>
      </trkpt>
      <trkpt lat="32.76065" lon="-16.93778">
        <ele>1663.88</ele>
      </trkpt>
      <trkpt lat="32.7606" lon="-16.93789">
        <ele>1664.68</ele>
      </trkpt>
      <trkpt lat="32.76054" lon="-16.93796">
        <ele>1664.59</ele>
      </trkpt>
      <trkpt lat="32.76051" lon="-16.938">
        <ele>1664.12</ele>
      </trkpt>
      <trkpt lat="32.76047" lon="-16.93807">
        <ele>1663.87</ele>
      </trkpt>
      <trkpt lat="32.76045" lon="-16.93813">
        <ele>1664.34</ele>
      </trkpt>
      <trkpt lat="32.76045" lon="-16.93827">
        <ele>1664.47</ele>
      </trkpt>
      <trkpt lat="32.76044" lon="-16.93835">
        <ele>1664.56</ele>
      </trkpt>
      <trkpt lat="32.76046" lon="-16.93841">
        <ele>1664.07</ele>
      </trkpt>
      <trkpt lat="32.7605" lon="-16.93853">
        <ele>1663.94</ele>
      </trkpt>
      <trkpt lat="32.7605" lon="-16.93864">
        <ele>1663.75</ele>
      </trkpt>
      <trkpt lat="32.76052" lon="-16.93873">
        <ele>1663.09</ele>
      </trkpt>
      <trkpt lat="32.76053" lon="-16.9388">
        <ele>1662.32</ele>
      </trkpt>
      <trkpt lat="32.76053" lon="-16.93891">
        <ele>1661.35</ele>
      </trkpt>
      <trkpt lat="32.76053" lon="-16.93899">
        <ele>1661.61</ele>
      </trkpt>
      <trkpt lat="32.76054" lon="-16.93905">
        <ele>1661.72</ele>
      </trkpt>
      <trkpt lat="32.76054" lon="-16.93909">
        <ele>1661.85</ele>
      </trkpt>
      <trkpt lat="32.76053" lon="-16.93911">
        <ele>1662.0</ele>
      </trkpt>
      <trkpt lat="32.76053" lon="-16.93915">
        <ele>1662.13</ele>
      </trkpt>
      <trkpt lat="32.76053" lon="-16.93921">
        <ele>1665.01</ele>
      </trkpt>
      <trkpt lat="32.76053" lon="-16.93924">
        <ele>1666.96</ele>
      </trkpt>
      <trkpt lat="32.76053" lon="-16.93929">
        <ele>1670.22</ele>
      </trkpt>
      <trkpt lat="32.76053" lon="-16.93933">
        <ele>1672.82</ele>
      </trkpt>
      <trkpt lat="32.76055" lon="-16.93939">
        <ele>1676.53</ele>
      </trkpt>
      <trkpt lat="32.76058" lon="-16.93952">
        <ele>1680.37</ele>
      </trkpt>
      <trkpt lat="32.76059" lon="-16.93962">
        <ele>1682.28</ele>
      </trkpt>
      <trkpt lat="32.76063" lon="-16.93973">
        <ele>1683.69</ele>
      </trkpt>
      <trkpt lat="32.76065" lon="-16.93981">
        <ele>1686.59</ele>
      </trkpt>
      <trkpt lat="32.76065" lon="-16.93989">
        <ele>1690.22</ele>
      </trkpt>
      <trkpt lat="32.76063" lon="-16.93996">
        <ele>1694.55</ele>
      </trkpt>
      <trkpt lat="32.76058" lon="-16.9401">
        <ele>1702.38</ele>
      </trkpt>
      <trkpt lat="32.76055" lon="-16.9402">
        <ele>1706.91</ele>
      </trkpt>
      <trkpt lat="32.76052" lon="-16.9403">
        <ele>1710.72</ele>
      </trkpt>
      <trkpt lat="32.76047" lon="-16.94038">
        <ele>1714.55</ele>
      </trkpt>
      <trkpt lat="32.76043" lon="-16.94044">
        <ele>1717.34</ele>
      </trkpt>
      <trkpt lat="32.76036" lon="-16.94052">
        <ele>1721.25</ele>
      </trkpt>
      <trkpt lat="32.7603" lon="-16.94059">
        <ele>1724.05</ele>
      </trkpt>
      <trkpt lat="32.7603" lon="-16.94062">
        <ele>1724.5</ele>
      </trkpt>
      <trkpt lat="32.7603" lon="-16.94062">
        <ele>1724.5</ele>
      </trkpt>
      <trkpt lat="32.7603" lon="-16.94062">
        <ele>1724.5</ele>
      </trkpt>
      <trkpt lat="32.76025" lon="-16.94072">
        <ele>1726.02</ele>
      </trkpt>
      <trkpt lat="32.76015" lon="-16.94088">
        <ele>1729.22</ele>
      </trkpt>
      <trkpt lat="32.76014" lon="-16.94091">
        <ele>1730.26</ele>
      </trkpt>
      <trkpt lat="32.76013" lon="-16.94094">
        <ele>1731.31</ele>
      </trkpt>
      <trkpt lat="32.76013" lon="-16.94099">
        <ele>1733.11</ele>
      </trkpt>
      <trkpt lat="32.76014" lon="-16.941">
        <ele>1733.5</ele>
      </trkpt>
      <trkpt lat="32.76017" lon="-16.94103">
        <ele>1734.69</ele>
      </trkpt>
      <trkpt lat="32.76019" lon="-16.94107">
        <ele>1736.2</ele>
      </trkpt>
      <trkpt lat="32.76022" lon="-16.94111">
        <ele>1737.75</ele>
      </trkpt>
      <trkpt lat="32.7603" lon="-16.94124">
        <ele>1740.95</ele>
      </trkpt>
      <trkpt lat="32.7603" lon="-16.94126">
        <ele>1741.49</ele>
      </trkpt>
      <trkpt lat="32.76028" lon="-16.94128">
        <ele>1742.23</ele>
      </trkpt>
      <trkpt lat="32.76026" lon="-16.94128">
        <ele>1742.35</ele>
      </trkpt>
      <trkpt lat="32.76022" lon="-16.94128">
        <ele>1742.55</ele>
      </trkpt>
      <trkpt lat="32.76017" lon="-16.94128">
        <ele>1742.81</ele>
      </trkpt>
      <trkpt lat="32.76017" lon="-16.94131">
        <ele>1743.74</ele>
      </trkpt>
      <trkpt lat="32.76018" lon="-16.94133">
        <ele>1744.27</ele>
      </trkpt>
      <trkpt lat="32.7602" lon="-16.94138">
        <ele>1745.58</ele>
      </trkpt>
      <trkpt lat="32.76023" lon="-16.94144">
        <ele>1747.2</ele>
      </trkpt>
      <trkpt lat="32.76028" lon="-16.94153">
        <ele>1750.01</ele>
      </trkpt>
      <trkpt lat="32.7603" lon="-16.94154">
        <ele>1749.74</ele>
      </trkpt>
      <trkpt lat="32.76035" lon="-16.94153">
        <ele>1747.97</ele>
      </trkpt>
      <trkpt lat="32.76035" lon="-16.94153">
        <ele>1747.97</ele>
      </trkpt>
      <trkpt lat="32.76035" lon="-16.94153">
        <ele>1747.97</ele>
      </trkpt>
      <trkpt lat="32.76026" lon="-16.9416">
        <ele>1752.55</ele>
      </trkpt>
      <trkpt lat="32.76017" lon="-16.94162">
        <ele>1752.87</ele>
      </trkpt>
      <trkpt lat="32.76016" lon="-16.94165">
        <ele>1753.68</ele>
      </trkpt>
      <trkpt lat="32.76015" lon="-16.94168">
        <ele>1754.18</ele>
      </trkpt>
      <trkpt lat="32.76012" lon="-16.94181">
        <ele>1755.61</ele>
      </trkpt>
      <trkpt lat="32.76012" lon="-16.94184">
        <ele>1755.98</ele>
      </trkpt>
      <trkpt lat="32.7601" lon="-16.9419">
        <ele>1757.35</ele>
      </trkpt>
      <trkpt lat="32.76007" lon="-16.94196">
        <ele>1759.48</ele>
      </trkpt>
      <trkpt lat="32.76006" lon="-16.94203">
        <ele>1761.11</ele>
      </trkpt>
      <trkpt lat="32.76006" lon="-16.94208">
        <ele>1761.99</ele>
      </trkpt>
      <trkpt lat="32.76006" lon="-16.94212">
        <ele>1762.68</ele>
      </trkpt>
      <trkpt lat="32.76009" lon="-16.94221">
        <ele>1762.03</ele>
      </trkpt>
      <trkpt lat="32.76012" lon="-16.9423">
        <ele>1763.08</ele>
      </trkpt>
      <trkpt lat="32.76016" lon="-16.94241">
        <ele>1763.44</ele>
      </trkpt>
      <trkpt lat="32.76019" lon="-16.94248">
        <ele>1762.5</ele>
      </trkpt>
      <trkpt lat="32.76019" lon="-16.94248">
        <ele>1762.5</ele>
      </trkpt>
      <trkpt lat="32.76019" lon="-16.94248">
        <ele>1762.5</ele>
      </trkpt>
      <trkpt lat="32.76018" lon="-16.94258">
        <ele>1765.7</ele>
      </trkpt>
      <trkpt lat="32.76016" lon="-16.94262">
        <ele>1768.73</ele>
      </trkpt>
      <trkpt lat="32.76014" lon="-16.94266">
        <ele>1771.75</ele>
      </trkpt>
      <trkpt lat="32.76014" lon="-16.94269">
        <ele>1772.29</ele>
      </trkpt>
      <trkpt lat="32.76014" lon="-16.94273">
        <ele>1773.01</ele>
      </trkpt>
      <trkpt lat="32.76013" lon="-16.94278">
        <ele>1775.1</ele>
      </trkpt>
      <trkpt lat="32.76012" lon="-16.94284">
        <ele>1778.16</ele>
      </trkpt>
      <trkpt lat="32.76011" lon="-16.94291">
        <ele>1781.51</ele>
      </trkpt>
      <trkpt lat="32.7601" lon="-16.94299">
        <ele>1785.14</ele>
      </trkpt>
      <trkpt lat="32.76012" lon="-16.9431">
        <ele>1786.28</ele>
      </trkpt>
      <trkpt lat="32.76013" lon="-16.94316">
        <ele>1786.92</ele>
      </trkpt>
      <trkpt lat="32.76014" lon="-16.94319">
        <ele>1786.76</ele>
      </trkpt>
      <trkpt lat="32.76014" lon="-16.94324">
        <ele>1788.2</ele>
      </trkpt>
      <trkpt lat="32.76014" lon="-16.94334">
        <ele>1791.01</ele>
      </trkpt>
      <trkpt lat="32.76012" lon="-16.94332">
        <ele>1792.4</ele>
      </trkpt>
      <trkpt lat="32.7601" lon="-16.94328">
        <ele>1793.21</ele>
      </trkpt>
      <trkpt lat="32.76007" lon="-16.94324">
        <ele>1795.09</ele>
      </trkpt>
      <trkpt lat="32.76006" lon="-16.94322">
        <ele>1795.58</ele>
      </trkpt>
      <trkpt lat="32.76005" lon="-16.94322">
        <ele>1796.58</ele>
      </trkpt>
      <trkpt lat="32.76004" lon="-16.94323">
        <ele>1797.81</ele>
      </trkpt>
      <trkpt lat="32.76005" lon="-16.94324">
        <ele>1797.06</ele>
      </trkpt>
      <trkpt lat="32.76005" lon="-16.94327">
        <ele>1797.79</ele>
      </trkpt>
      <trkpt lat="32.76006" lon="-16.9433">
        <ele>1797.56</ele>
      </trkpt>
      <trkpt lat="32.76005" lon="-16.94332">
        <ele>1799.0</ele>
      </trkpt>
      <trkpt lat="32.76004" lon="-16.94332">
        <ele>1799.94</ele>
      </trkpt>
      <trkpt lat="32.76002" lon="-16.94332">
        <ele>1801.83</ele>
      </trkpt>
      <trkpt lat="32.76001" lon="-16.94331">
        <ele>1802.55</ele>
      </trkpt>
      <trkpt lat="32.75998" lon="-16.94328">
        <ele>1804.01</ele>
      </trkpt>
      <trkpt lat="32.75995" lon="-16.94323">
        <ele>1804.71</ele>
      </trkpt>
      <trkpt lat="32.75993" lon="-16.9432">
        <ele>1805.27</ele>
      </trkpt>
      <trkpt lat="32.75991" lon="-16.94317">
        <ele>1805.85</ele>
      </trkpt>
      <trkpt lat="32.75989" lon="-16.94314">
        <ele>1806.44</ele>
      </trkpt>
      <trkpt lat="32.75989" lon="-16.94314">
        <ele>1806.44</ele>
      </trkpt>
      <trkpt lat="32.75989" lon="-16.94314">
        <ele>1806.44</ele>
      </trkpt>
      <trkpt lat="32.75985" lon="-16.9431">
        <ele>1808.05</ele>
      </trkpt>
      <trkpt lat="32.75984" lon="-16.9431">
        <ele>1808.66</ele>
      </trkpt>
      <trkpt lat="32.75983" lon="-16.94311">
        <ele>1809.46</ele>
      </trkpt>
      <trkpt lat="32.75982" lon="-16.94313">
        <ele>1810.45</ele>
      </trkpt>
      <trkpt lat="32.75981" lon="-16.94316">
        <ele>1811.63</ele>
      </trkpt>
      <trkpt lat="32.7598" lon="-16.9432">
        <ele>1812.99</ele>
      </trkpt>
      <trkpt lat="32.7598" lon="-16.94328">
        <ele>1814.51</ele>
      </trkpt>
      <trkpt lat="32.75979" lon="-16.94332">
        <ele>1815.84</ele>
      </trkpt>
      <trkpt lat="32.75977" lon="-16.94337">
        <ele>1816.79</ele>
      </trkpt>
      <trkpt lat="32.75975" lon="-16.94339">
        <ele>1817.65</ele>
      </trkpt>
      <trkpt lat="32.75971" lon="-16.94336">
        <ele>1819.41</ele>
      </trkpt>
      <trkpt lat="32.75968" lon="-16.9433">
        <ele>1818.73</ele>
      </trkpt>
      <trkpt lat="32.75966" lon="-16.94323">
        <ele>1817.44</ele>
      </trkpt>
      <trkpt lat="32.75959" lon="-16.94311">
        <ele>1815.51</ele>
      </trkpt>
      <trkpt lat="32.75957" lon="-16.94308">
        <ele>1815.2</ele>
      </trkpt>
      <trkpt lat="32.75954" lon="-16.94304">
        <ele>1814.47</ele>
      </trkpt>
      <trkpt lat="32.75952" lon="-16.94305">
        <ele>1814.82</ele>
      </trkpt>
      <trkpt lat="32.75952" lon="-16.94306">
        <ele>1815.02</ele>
      </trkpt>
      <trkpt lat="32.75951" lon="-16.94308">
        <ele>1815.1</ele>
      </trkpt>
      <trkpt lat="32.75947" lon="-16.94323">
        <ele>1815.29</ele>
      </trkpt>
      <trkpt lat="32.75947" lon="-16.94326">
        <ele>1815.34</ele>
      </trkpt>
      <trkpt lat="32.75945" lon="-16.94328">
        <ele>1815.08</ele>
      </trkpt>
      <trkpt lat="32.75932" lon="-16.9433">
        <ele>1812.99</ele>
      </trkpt>
      <trkpt lat="32.75921" lon="-16.94334">
        <ele>1811.58</ele>
      </trkpt>
      <trkpt lat="32.75911" lon="-16.94335">
        <ele>1809.33</ele>
      </trkpt>
      <trkpt lat="32.75902" lon="-16.9433">
        <ele>1806.04</ele>
      </trkpt>
      <trkpt lat="32.75902" lon="-16.9433">
        <ele>1806.04</ele>
      </trkpt>
      <trkpt lat="32.75902" lon="-16.9433">
        <ele>1806.04</ele>
      </trkpt>
      <trkpt lat="32.75896" lon="-16.94324">
        <ele>1802.7</ele>
      </trkpt>
      <trkpt lat="32.75886" lon="-16.94306">
        <ele>1793.69</ele>
      </trkpt>
      <trkpt lat="32.75884" lon="-16.94298">
        <ele>1790.31</ele>
      </trkpt>
      <trkpt lat="32.75885" lon="-16.94295">
        <ele>1789.95</ele>
      </trkpt>
      <trkpt lat="32.75888" lon="-16.94293">
        <ele>1790.92</ele>
      </trkpt>
      <trkpt lat="32.75889" lon="-16.94287">
        <ele>1789.69</ele>
      </trkpt>
      <trkpt lat="32.75888" lon="-16.94283">
        <ele>1788.03</ele>
      </trkpt>
      <trkpt lat="32.7589" lon="-16.94282">
        <ele>1788.53</ele>
      </trkpt>
      <trkpt lat="32.75892" lon="-16.94279">
        <ele>1788.16</ele>
      </trkpt>
      <trkpt lat="32.75888" lon="-16.94271">
        <ele>1784.16</ele>
      </trkpt>
      <trkpt lat="32.75888" lon="-16.94271">
        <ele>1784.16</ele>
      </trkpt>
      <trkpt lat="32.75888" lon="-16.94271">
        <ele>1784.16</ele>
      </trkpt>
      <trkpt lat="32.75886" lon="-16.94268">
        <ele>1782.29</ele>
      </trkpt>
      <trkpt lat="32.75876" lon="-16.94254">
        <ele>1775.45</ele>
      </trkpt>
      <trkpt lat="32.75866" lon="-16.94249">
        <ele>1772.86</ele>
      </trkpt>
      <trkpt lat="32.75862" lon="-16.94246">
        <ele>1772.03</ele>
      </trkpt>
      <trkpt lat="32.7586" lon="-16.94242">
        <ele>1771.71</ele>
      </trkpt>
      <trkpt lat="32.75856" lon="-16.94234">
        <ele>1771.56</ele>
      </trkpt>
      <trkpt lat="32.75844" lon="-16.94224">
        <ele>1772.18</ele>
      </trkpt>
      <trkpt lat="32.75841" lon="-16.94215">
        <ele>1772.62</ele>
      </trkpt>
      <trkpt lat="32.75839" lon="-16.94206">
        <ele>1772.72</ele>
      </trkpt>
      <trkpt lat="32.75838" lon="-16.94199">
        <ele>1772.67</ele>
      </trkpt>
      <trkpt lat="32.7584" lon="-16.94194">
        <ele>1772.86</ele>
      </trkpt>
      <trkpt lat="32.7584" lon="-16.94194">
        <ele>1772.86</ele>
      </trkpt>
      <trkpt lat="32.7584" lon="-16.94194">
        <ele>1772.86</ele>
      </trkpt>
    </trkseg>
  </trk>
</gpx>
