<?xml version="1.0"?>
<gpx xmlns="http://www.topografix.com/GPX/1/1" xmlns:xsi="http://www.w3.org/2001/XMLSchema-instance" version="1.1" creator="AllTrails.com" xsi:schemaLocation="http://www.topografix.com/GPX/1/1 http://www.topografix.com/GPX/1/1/gpx.xsd">
  <metadata>
    <name><![CDATA[PR10 - Ribeiro Frio - Portela]]></name>
    <desc><![CDATA[]]></desc>
    <link href="http://www.alltrails.com">
      <text>AllTrails, LLC</text>
    </link>
    <bounds minlat="32.73214" minlon="-16.88631" maxlat="32.74622" maxlon="-16.82641"/>
  </metadata>
  <trk>
    <name><![CDATA[PR10 - Ribeiro Frio - Portela]]></name>
    <src>AllTrails</src>
    <trkseg>
      <trkpt lat="32.73512" lon="-16.8863">
        <ele>898.39</ele>
      </trkpt>
      <trkpt lat="32.73514" lon="-16.88631">
        <ele>897.75</ele>
      </trkpt>
      <trkpt lat="32.7351" lon="-16.88628">
        <ele>898.99</ele>
      </trkpt>
      <trkpt lat="32.73505" lon="-16.88624">
        <ele>900.18</ele>
      </trkpt>
      <trkpt lat="32.73503" lon="-16.88622">
        <ele>900.51</ele>
      </trkpt>
      <trkpt lat="32.735" lon="-16.88618">
        <ele>900.74</ele>
      </trkpt>
      <trkpt lat="32.73495" lon="-16.88614">
        <ele>903.99</ele>
      </trkpt>
      <trkpt lat="32.73496" lon="-16.88603">
        <ele>905.88</ele>
      </trkpt>
      <trkpt lat="32.735" lon="-16.88591">
        <ele>907.24</ele>
      </trkpt>
      <trkpt lat="32.73508" lon="-16.88583">
        <ele>907.28</ele>
      </trkpt>
      <trkpt lat="32.73526" lon="-16.88573">
        <ele>904.48</ele>
      </trkpt>
      <trkpt lat="32.73544" lon="-16.88573">
        <ele>900.08</ele>
      </trkpt>
      <trkpt lat="32.73556" lon="-16.88564">
        <ele>898.76</ele>
      </trkpt>
      <trkpt lat="32.73577" lon="-16.88587">
        <ele>895.09</ele>
      </trkpt>
      <trkpt lat="32.73582" lon="-16.88591">
        <ele>893.86</ele>
      </trkpt>
      <trkpt lat="32.73582" lon="-16.88591">
        <ele>893.86</ele>
      </trkpt>
      <trkpt lat="32.73582" lon="-16.88591">
        <ele>893.86</ele>
      </trkpt>
      <trkpt lat="32.73588" lon="-16.88595">
        <ele>891.35</ele>
      </trkpt>
      <trkpt lat="32.73618" lon="-16.88596">
        <ele>883.16</ele>
      </trkpt>
      <trkpt lat="32.73625" lon="-16.88596">
        <ele>881.76</ele>
      </trkpt>
      <trkpt lat="32.73633" lon="-16.88596">
        <ele>880.17</ele>
      </trkpt>
      <trkpt lat="32.7365" lon="-16.88597">
        <ele>873.78</ele>
      </trkpt>
      <trkpt lat="32.73657" lon="-16.88588">
        <ele>869.23</ele>
      </trkpt>
      <trkpt lat="32.73664" lon="-16.88574">
        <ele>869.69</ele>
      </trkpt>
      <trkpt lat="32.73668" lon="-16.88556">
        <ele>878.27</ele>
      </trkpt>
      <trkpt lat="32.73677" lon="-16.88541">
        <ele>882.09</ele>
      </trkpt>
      <trkpt lat="32.73688" lon="-16.88532">
        <ele>882.34</ele>
      </trkpt>
      <trkpt lat="32.73698" lon="-16.88519">
        <ele>885.72</ele>
      </trkpt>
      <trkpt lat="32.73721" lon="-16.88502">
        <ele>897.69</ele>
      </trkpt>
      <trkpt lat="32.73733" lon="-16.88496">
        <ele>893.36</ele>
      </trkpt>
      <trkpt lat="32.73744" lon="-16.88495">
        <ele>886.07</ele>
      </trkpt>
      <trkpt lat="32.73757" lon="-16.88497">
        <ele>877.93</ele>
      </trkpt>
      <trkpt lat="32.73768" lon="-16.88503">
        <ele>870.32</ele>
      </trkpt>
      <trkpt lat="32.73778" lon="-16.88515">
        <ele>860.37</ele>
      </trkpt>
      <trkpt lat="32.73784" lon="-16.88523">
        <ele>855.02</ele>
      </trkpt>
      <trkpt lat="32.73789" lon="-16.88524">
        <ele>853.5</ele>
      </trkpt>
      <trkpt lat="32.73794" lon="-16.88522">
        <ele>853.14</ele>
      </trkpt>
      <trkpt lat="32.738" lon="-16.88512">
        <ele>854.77</ele>
      </trkpt>
      <trkpt lat="32.73807" lon="-16.88496">
        <ele>858.03</ele>
      </trkpt>
      <trkpt lat="32.73812" lon="-16.8849">
        <ele>859.56</ele>
      </trkpt>
      <trkpt lat="32.73818" lon="-16.88477">
        <ele>862.19</ele>
      </trkpt>
      <trkpt lat="32.73826" lon="-16.88466">
        <ele>862.37</ele>
      </trkpt>
      <trkpt lat="32.73839" lon="-16.88454">
        <ele>859.7</ele>
      </trkpt>
      <trkpt lat="32.73853" lon="-16.88436">
        <ele>847.13</ele>
      </trkpt>
      <trkpt lat="32.73864" lon="-16.88416">
        <ele>850.8</ele>
      </trkpt>
      <trkpt lat="32.73866" lon="-16.88411">
        <ele>849.4</ele>
      </trkpt>
      <trkpt lat="32.73863" lon="-16.88404">
        <ele>851.09</ele>
      </trkpt>
      <trkpt lat="32.73862" lon="-16.88393">
        <ele>851.01</ele>
      </trkpt>
      <trkpt lat="32.73865" lon="-16.8838">
        <ele>858.54</ele>
      </trkpt>
      <trkpt lat="32.73875" lon="-16.88369">
        <ele>862.18</ele>
      </trkpt>
      <trkpt lat="32.73886" lon="-16.88365">
        <ele>856.57</ele>
      </trkpt>
      <trkpt lat="32.73895" lon="-16.88363">
        <ele>849.68</ele>
      </trkpt>
      <trkpt lat="32.739" lon="-16.88359">
        <ele>846.55</ele>
      </trkpt>
      <trkpt lat="32.73905" lon="-16.88351">
        <ele>844.32</ele>
      </trkpt>
      <trkpt lat="32.73909" lon="-16.88341">
        <ele>843.82</ele>
      </trkpt>
      <trkpt lat="32.73909" lon="-16.88334">
        <ele>845.88</ele>
      </trkpt>
      <trkpt lat="32.73907" lon="-16.88319">
        <ele>853.47</ele>
      </trkpt>
      <trkpt lat="32.73909" lon="-16.88297">
        <ele>860.6</ele>
      </trkpt>
      <trkpt lat="32.73914" lon="-16.88287">
        <ele>861.18</ele>
      </trkpt>
      <trkpt lat="32.73921" lon="-16.8828">
        <ele>859.7</ele>
      </trkpt>
      <trkpt lat="32.73926" lon="-16.88273">
        <ele>858.65</ele>
      </trkpt>
      <trkpt lat="32.73928" lon="-16.8827">
        <ele>858.09</ele>
      </trkpt>
      <trkpt lat="32.73928" lon="-16.88265">
        <ele>859.13</ele>
      </trkpt>
      <trkpt lat="32.73924" lon="-16.88255">
        <ele>863.87</ele>
      </trkpt>
      <trkpt lat="32.73923" lon="-16.88245">
        <ele>862.86</ele>
      </trkpt>
      <trkpt lat="32.73924" lon="-16.88225">
        <ele>850.72</ele>
      </trkpt>
      <trkpt lat="32.73923" lon="-16.88215">
        <ele>848.59</ele>
      </trkpt>
      <trkpt lat="32.73919" lon="-16.88205">
        <ele>850.56</ele>
      </trkpt>
      <trkpt lat="32.73914" lon="-16.88202">
        <ele>854.35</ele>
      </trkpt>
      <trkpt lat="32.73907" lon="-16.88196">
        <ele>857.74</ele>
      </trkpt>
      <trkpt lat="32.739" lon="-16.88193">
        <ele>861.39</ele>
      </trkpt>
      <trkpt lat="32.73891" lon="-16.88191">
        <ele>866.75</ele>
      </trkpt>
      <trkpt lat="32.73886" lon="-16.88187">
        <ele>869.34</ele>
      </trkpt>
      <trkpt lat="32.73879" lon="-16.88181">
        <ele>873.26</ele>
      </trkpt>
      <trkpt lat="32.73876" lon="-16.88174">
        <ele>873.93</ele>
      </trkpt>
      <trkpt lat="32.73875" lon="-16.88163">
        <ele>872.34</ele>
      </trkpt>
      <trkpt lat="32.73877" lon="-16.88148">
        <ele>868.25</ele>
      </trkpt>
      <trkpt lat="32.73885" lon="-16.88136">
        <ele>861.74</ele>
      </trkpt>
      <trkpt lat="32.73889" lon="-16.88128">
        <ele>860.09</ele>
      </trkpt>
      <trkpt lat="32.73889" lon="-16.88116">
        <ele>861.38</ele>
      </trkpt>
      <trkpt lat="32.73887" lon="-16.88109">
        <ele>862.01</ele>
      </trkpt>
      <trkpt lat="32.73883" lon="-16.88097">
        <ele>858.49</ele>
      </trkpt>
      <trkpt lat="32.73881" lon="-16.88092">
        <ele>856.77</ele>
      </trkpt>
      <trkpt lat="32.73874" lon="-16.88088">
        <ele>856.1</ele>
      </trkpt>
      <trkpt lat="32.73866" lon="-16.88085">
        <ele>855.52</ele>
      </trkpt>
      <trkpt lat="32.73852" lon="-16.88082">
        <ele>859.51</ele>
      </trkpt>
      <trkpt lat="32.73849" lon="-16.88077">
        <ele>860.75</ele>
      </trkpt>
      <trkpt lat="32.73845" lon="-16.88074">
        <ele>862.64</ele>
      </trkpt>
      <trkpt lat="32.73841" lon="-16.88067">
        <ele>864.39</ele>
      </trkpt>
      <trkpt lat="32.7384" lon="-16.8806">
        <ele>864.6</ele>
      </trkpt>
      <trkpt lat="32.73845" lon="-16.88051">
        <ele>861.77</ele>
      </trkpt>
      <trkpt lat="32.73846" lon="-16.88045">
        <ele>861.33</ele>
      </trkpt>
      <trkpt lat="32.73845" lon="-16.88038">
        <ele>861.97</ele>
      </trkpt>
      <trkpt lat="32.73845" lon="-16.88025">
        <ele>862.36</ele>
      </trkpt>
      <trkpt lat="32.73851" lon="-16.88">
        <ele>861.73</ele>
      </trkpt>
      <trkpt lat="32.73854" lon="-16.87993">
        <ele>860.2</ele>
      </trkpt>
      <trkpt lat="32.73862" lon="-16.8797">
        <ele>855.0</ele>
      </trkpt>
      <trkpt lat="32.73864" lon="-16.8796">
        <ele>848.29</ele>
      </trkpt>
      <trkpt lat="32.73867" lon="-16.87939">
        <ele>837.41</ele>
      </trkpt>
      <trkpt lat="32.73866" lon="-16.87932">
        <ele>835.47</ele>
      </trkpt>
      <trkpt lat="32.73865" lon="-16.87925">
        <ele>833.47</ele>
      </trkpt>
      <trkpt lat="32.73862" lon="-16.87923">
        <ele>833.94</ele>
      </trkpt>
      <trkpt lat="32.73856" lon="-16.87922">
        <ele>836.98</ele>
      </trkpt>
      <trkpt lat="32.73846" lon="-16.87915">
        <ele>841.14</ele>
      </trkpt>
      <trkpt lat="32.73839" lon="-16.87909">
        <ele>844.71</ele>
      </trkpt>
      <trkpt lat="32.7383" lon="-16.87902">
        <ele>849.02</ele>
      </trkpt>
      <trkpt lat="32.73823" lon="-16.879">
        <ele>853.0</ele>
      </trkpt>
      <trkpt lat="32.73817" lon="-16.87898">
        <ele>856.09</ele>
      </trkpt>
      <trkpt lat="32.73813" lon="-16.87894">
        <ele>857.06</ele>
      </trkpt>
      <trkpt lat="32.73811" lon="-16.87888">
        <ele>856.29</ele>
      </trkpt>
      <trkpt lat="32.7381" lon="-16.87883">
        <ele>856.97</ele>
      </trkpt>
      <trkpt lat="32.7381" lon="-16.87878">
        <ele>857.15</ele>
      </trkpt>
      <trkpt lat="32.7381" lon="-16.8787">
        <ele>857.44</ele>
      </trkpt>
      <trkpt lat="32.73807" lon="-16.87865">
        <ele>859.13</ele>
      </trkpt>
      <trkpt lat="32.73804" lon="-16.87861">
        <ele>860.77</ele>
      </trkpt>
      <trkpt lat="32.73804" lon="-16.87859">
        <ele>860.48</ele>
      </trkpt>
      <trkpt lat="32.73805" lon="-16.87856">
        <ele>859.54</ele>
      </trkpt>
      <trkpt lat="32.73807" lon="-16.87855">
        <ele>858.39</ele>
      </trkpt>
      <trkpt lat="32.73808" lon="-16.87851">
        <ele>857.31</ele>
      </trkpt>
      <trkpt lat="32.73808" lon="-16.87846">
        <ele>856.59</ele>
      </trkpt>
      <trkpt lat="32.73802" lon="-16.87835">
        <ele>857.91</ele>
      </trkpt>
      <trkpt lat="32.73795" lon="-16.87828">
        <ele>859.65</ele>
      </trkpt>
      <trkpt lat="32.73782" lon="-16.87821">
        <ele>865.29</ele>
      </trkpt>
      <trkpt lat="32.73777" lon="-16.87817">
        <ele>867.7</ele>
      </trkpt>
      <trkpt lat="32.73774" lon="-16.87808">
        <ele>868.35</ele>
      </trkpt>
      <trkpt lat="32.73772" lon="-16.87799">
        <ele>866.24</ele>
      </trkpt>
      <trkpt lat="32.73772" lon="-16.87791">
        <ele>862.72</ele>
      </trkpt>
      <trkpt lat="32.7377" lon="-16.87771">
        <ele>854.69</ele>
      </trkpt>
      <trkpt lat="32.7377" lon="-16.87761">
        <ele>849.92</ele>
      </trkpt>
      <trkpt lat="32.73773" lon="-16.87754">
        <ele>845.81</ele>
      </trkpt>
      <trkpt lat="32.73778" lon="-16.87745">
        <ele>841.5</ele>
      </trkpt>
      <trkpt lat="32.73779" lon="-16.87738">
        <ele>839.27</ele>
      </trkpt>
      <trkpt lat="32.73775" lon="-16.87729">
        <ele>837.78</ele>
      </trkpt>
      <trkpt lat="32.73751" lon="-16.87712">
        <ele>841.76</ele>
      </trkpt>
      <trkpt lat="32.73749" lon="-16.87707">
        <ele>841.78</ele>
      </trkpt>
      <trkpt lat="32.73746" lon="-16.87691">
        <ele>839.58</ele>
      </trkpt>
      <trkpt lat="32.73742" lon="-16.87686">
        <ele>839.96</ele>
      </trkpt>
      <trkpt lat="32.73733" lon="-16.87681">
        <ele>844.24</ele>
      </trkpt>
      <trkpt lat="32.73719" lon="-16.8767">
        <ele>854.96</ele>
      </trkpt>
      <trkpt lat="32.73711" lon="-16.87669">
        <ele>866.31</ele>
      </trkpt>
      <trkpt lat="32.73701" lon="-16.87671">
        <ele>880.67</ele>
      </trkpt>
      <trkpt lat="32.7369" lon="-16.87671">
        <ele>896.36</ele>
      </trkpt>
      <trkpt lat="32.73686" lon="-16.87666">
        <ele>901.68</ele>
      </trkpt>
      <trkpt lat="32.73686" lon="-16.87656">
        <ele>899.0</ele>
      </trkpt>
      <trkpt lat="32.73706" lon="-16.8763">
        <ele>876.18</ele>
      </trkpt>
      <trkpt lat="32.73717" lon="-16.87616">
        <ele>870.19</ele>
      </trkpt>
      <trkpt lat="32.73724" lon="-16.87593">
        <ele>865.97</ele>
      </trkpt>
      <trkpt lat="32.73729" lon="-16.87559">
        <ele>857.13</ele>
      </trkpt>
      <trkpt lat="32.73726" lon="-16.87528">
        <ele>863.21</ele>
      </trkpt>
      <trkpt lat="32.73733" lon="-16.87506">
        <ele>851.11</ele>
      </trkpt>
      <trkpt lat="32.73734" lon="-16.87493">
        <ele>849.07</ele>
      </trkpt>
      <trkpt lat="32.73736" lon="-16.87473">
        <ele>847.57</ele>
      </trkpt>
      <trkpt lat="32.73743" lon="-16.87463">
        <ele>845.36</ele>
      </trkpt>
      <trkpt lat="32.73743" lon="-16.8745">
        <ele>850.39</ele>
      </trkpt>
      <trkpt lat="32.73733" lon="-16.87434">
        <ele>861.9</ele>
      </trkpt>
      <trkpt lat="32.73729" lon="-16.87421">
        <ele>868.81</ele>
      </trkpt>
      <trkpt lat="32.73723" lon="-16.87411">
        <ele>875.92</ele>
      </trkpt>
      <trkpt lat="32.73723" lon="-16.87407">
        <ele>876.33</ele>
      </trkpt>
      <trkpt lat="32.73729" lon="-16.87393">
        <ele>871.87</ele>
      </trkpt>
      <trkpt lat="32.73729" lon="-16.87385">
        <ele>871.58</ele>
      </trkpt>
      <trkpt lat="32.73731" lon="-16.87367">
        <ele>866.54</ele>
      </trkpt>
      <trkpt lat="32.7374" lon="-16.87339">
        <ele>857.65</ele>
      </trkpt>
      <trkpt lat="32.73742" lon="-16.87334">
        <ele>856.39</ele>
      </trkpt>
      <trkpt lat="32.73752" lon="-16.87311">
        <ele>857.93</ele>
      </trkpt>
      <trkpt lat="32.73761" lon="-16.87285">
        <ele>859.95</ele>
      </trkpt>
      <trkpt lat="32.73764" lon="-16.87272">
        <ele>859.54</ele>
      </trkpt>
      <trkpt lat="32.7377" lon="-16.87256">
        <ele>853.57</ele>
      </trkpt>
      <trkpt lat="32.73777" lon="-16.87234">
        <ele>849.22</ele>
      </trkpt>
      <trkpt lat="32.7378" lon="-16.87215">
        <ele>850.99</ele>
      </trkpt>
      <trkpt lat="32.73786" lon="-16.87202">
        <ele>850.04</ele>
      </trkpt>
      <trkpt lat="32.73788" lon="-16.87193">
        <ele>851.92</ele>
      </trkpt>
      <trkpt lat="32.73789" lon="-16.87178">
        <ele>857.86</ele>
      </trkpt>
      <trkpt lat="32.73791" lon="-16.87166">
        <ele>861.68</ele>
      </trkpt>
      <trkpt lat="32.73795" lon="-16.87158">
        <ele>861.21</ele>
      </trkpt>
      <trkpt lat="32.73799" lon="-16.87154">
        <ele>859.48</ele>
      </trkpt>
      <trkpt lat="32.73803" lon="-16.87151">
        <ele>857.4</ele>
      </trkpt>
      <trkpt lat="32.7381" lon="-16.87149">
        <ele>853.09</ele>
      </trkpt>
      <trkpt lat="32.73815" lon="-16.87146">
        <ele>850.66</ele>
      </trkpt>
      <trkpt lat="32.73817" lon="-16.87142">
        <ele>850.6</ele>
      </trkpt>
      <trkpt lat="32.73819" lon="-16.87132">
        <ele>850.94</ele>
      </trkpt>
      <trkpt lat="32.73823" lon="-16.87119">
        <ele>848.84</ele>
      </trkpt>
      <trkpt lat="32.7383" lon="-16.8711">
        <ele>843.39</ele>
      </trkpt>
      <trkpt lat="32.7388" lon="-16.87058">
        <ele>844.31</ele>
      </trkpt>
      <trkpt lat="32.73891" lon="-16.87049">
        <ele>844.74</ele>
      </trkpt>
      <trkpt lat="32.73895" lon="-16.87046">
        <ele>843.72</ele>
      </trkpt>
      <trkpt lat="32.73895" lon="-16.87046">
        <ele>843.72</ele>
      </trkpt>
      <trkpt lat="32.73895" lon="-16.87046">
        <ele>843.72</ele>
      </trkpt>
      <trkpt lat="32.73904" lon="-16.87038">
        <ele>842.34</ele>
      </trkpt>
      <trkpt lat="32.73915" lon="-16.87026">
        <ele>842.07</ele>
      </trkpt>
      <trkpt lat="32.73921" lon="-16.87018">
        <ele>838.59</ele>
      </trkpt>
      <trkpt lat="32.73927" lon="-16.87006">
        <ele>835.54</ele>
      </trkpt>
      <trkpt lat="32.73928" lon="-16.86995">
        <ele>834.64</ele>
      </trkpt>
      <trkpt lat="32.73927" lon="-16.86986">
        <ele>833.94</ele>
      </trkpt>
      <trkpt lat="32.73923" lon="-16.86973">
        <ele>833.18</ele>
      </trkpt>
      <trkpt lat="32.73904" lon="-16.86931">
        <ele>826.12</ele>
      </trkpt>
      <trkpt lat="32.73897" lon="-16.86927">
        <ele>828.16</ele>
      </trkpt>
      <trkpt lat="32.73895" lon="-16.86927">
        <ele>829.14</ele>
      </trkpt>
      <trkpt lat="32.73892" lon="-16.86927">
        <ele>830.6</ele>
      </trkpt>
      <trkpt lat="32.73884" lon="-16.86931">
        <ele>831.95</ele>
      </trkpt>
      <trkpt lat="32.73872" lon="-16.86956">
        <ele>835.29</ele>
      </trkpt>
      <trkpt lat="32.73823" lon="-16.86995">
        <ele>827.96</ele>
      </trkpt>
      <trkpt lat="32.73799" lon="-16.87023">
        <ele>829.05</ele>
      </trkpt>
      <trkpt lat="32.73768" lon="-16.87039">
        <ele>834.23</ele>
      </trkpt>
      <trkpt lat="32.73744" lon="-16.87063">
        <ele>845.91</ele>
      </trkpt>
      <trkpt lat="32.73726" lon="-16.87071">
        <ele>853.81</ele>
      </trkpt>
      <trkpt lat="32.73718" lon="-16.87073">
        <ele>855.93</ele>
      </trkpt>
      <trkpt lat="32.73713" lon="-16.87072">
        <ele>855.38</ele>
      </trkpt>
      <trkpt lat="32.73711" lon="-16.87071">
        <ele>854.81</ele>
      </trkpt>
      <trkpt lat="32.73708" lon="-16.87059">
        <ele>847.68</ele>
      </trkpt>
      <trkpt lat="32.73701" lon="-16.87048">
        <ele>844.92</ele>
      </trkpt>
      <trkpt lat="32.73693" lon="-16.87041">
        <ele>845.07</ele>
      </trkpt>
      <trkpt lat="32.73681" lon="-16.87035">
        <ele>845.5</ele>
      </trkpt>
      <trkpt lat="32.7368" lon="-16.87032">
        <ele>844.82</ele>
      </trkpt>
      <trkpt lat="32.7368" lon="-16.87029">
        <ele>843.95</ele>
      </trkpt>
      <trkpt lat="32.73692" lon="-16.87011">
        <ele>839.29</ele>
      </trkpt>
      <trkpt lat="32.73693" lon="-16.87003">
        <ele>837.92</ele>
      </trkpt>
      <trkpt lat="32.73693" lon="-16.86997">
        <ele>836.77</ele>
      </trkpt>
      <trkpt lat="32.73692" lon="-16.86991">
        <ele>835.64</ele>
      </trkpt>
      <trkpt lat="32.73688" lon="-16.86985">
        <ele>835.67</ele>
      </trkpt>
      <trkpt lat="32.73683" lon="-16.86981">
        <ele>836.61</ele>
      </trkpt>
      <trkpt lat="32.73671" lon="-16.86976">
        <ele>840.12</ele>
      </trkpt>
      <trkpt lat="32.73658" lon="-16.86967">
        <ele>841.74</ele>
      </trkpt>
      <trkpt lat="32.73641" lon="-16.86948">
        <ele>836.58</ele>
      </trkpt>
      <trkpt lat="32.73609" lon="-16.86927">
        <ele>833.18</ele>
      </trkpt>
      <trkpt lat="32.73594" lon="-16.86924">
        <ele>828.13</ele>
      </trkpt>
      <trkpt lat="32.73573" lon="-16.86925">
        <ele>828.31</ele>
      </trkpt>
      <trkpt lat="32.73542" lon="-16.86917">
        <ele>822.71</ele>
      </trkpt>
      <trkpt lat="32.73521" lon="-16.86914">
        <ele>825.32</ele>
      </trkpt>
      <trkpt lat="32.73516" lon="-16.86915">
        <ele>827.71</ele>
      </trkpt>
      <trkpt lat="32.7351" lon="-16.86921">
        <ele>832.1</ele>
      </trkpt>
      <trkpt lat="32.73497" lon="-16.86931">
        <ele>836.84</ele>
      </trkpt>
      <trkpt lat="32.73493" lon="-16.86937">
        <ele>838.0</ele>
      </trkpt>
      <trkpt lat="32.73492" lon="-16.86943">
        <ele>838.81</ele>
      </trkpt>
      <trkpt lat="32.73493" lon="-16.86953">
        <ele>838.84</ele>
      </trkpt>
      <trkpt lat="32.73492" lon="-16.86962">
        <ele>838.54</ele>
      </trkpt>
      <trkpt lat="32.73491" lon="-16.86966">
        <ele>838.27</ele>
      </trkpt>
      <trkpt lat="32.73477" lon="-16.86996">
        <ele>840.14</ele>
      </trkpt>
      <trkpt lat="32.73473" lon="-16.87006">
        <ele>840.94</ele>
      </trkpt>
      <trkpt lat="32.73467" lon="-16.87011">
        <ele>840.22</ele>
      </trkpt>
      <trkpt lat="32.7346" lon="-16.87013">
        <ele>839.95</ele>
      </trkpt>
      <trkpt lat="32.73454" lon="-16.87014">
        <ele>839.87</ele>
      </trkpt>
      <trkpt lat="32.73449" lon="-16.87017">
        <ele>840.49</ele>
      </trkpt>
      <trkpt lat="32.73446" lon="-16.87021">
        <ele>841.72</ele>
      </trkpt>
      <trkpt lat="32.73438" lon="-16.87032">
        <ele>846.55</ele>
      </trkpt>
      <trkpt lat="32.73429" lon="-16.87048">
        <ele>851.28</ele>
      </trkpt>
      <trkpt lat="32.73423" lon="-16.87055">
        <ele>853.56</ele>
      </trkpt>
      <trkpt lat="32.73412" lon="-16.87066">
        <ele>857.15</ele>
      </trkpt>
      <trkpt lat="32.73405" lon="-16.87069">
        <ele>858.43</ele>
      </trkpt>
      <trkpt lat="32.734" lon="-16.87067">
        <ele>858.91</ele>
      </trkpt>
      <trkpt lat="32.73399" lon="-16.87067">
        <ele>859.04</ele>
      </trkpt>
      <trkpt lat="32.73394" lon="-16.87059">
        <ele>859.27</ele>
      </trkpt>
      <trkpt lat="32.73394" lon="-16.87054">
        <ele>859.28</ele>
      </trkpt>
      <trkpt lat="32.73395" lon="-16.87049">
        <ele>859.66</ele>
      </trkpt>
      <trkpt lat="32.73404" lon="-16.87039">
        <ele>857.67</ele>
      </trkpt>
      <trkpt lat="32.73406" lon="-16.87034">
        <ele>856.98</ele>
      </trkpt>
      <trkpt lat="32.73407" lon="-16.8702">
        <ele>853.33</ele>
      </trkpt>
      <trkpt lat="32.73407" lon="-16.87008">
        <ele>848.41</ele>
      </trkpt>
      <trkpt lat="32.73407" lon="-16.86997">
        <ele>845.13</ele>
      </trkpt>
      <trkpt lat="32.73411" lon="-16.86983">
        <ele>843.84</ele>
      </trkpt>
      <trkpt lat="32.73414" lon="-16.86977">
        <ele>842.86</ele>
      </trkpt>
      <trkpt lat="32.73414" lon="-16.86977">
        <ele>842.86</ele>
      </trkpt>
      <trkpt lat="32.73413" lon="-16.86977">
        <ele>843.19</ele>
      </trkpt>
      <trkpt lat="32.73423" lon="-16.86952">
        <ele>841.18</ele>
      </trkpt>
      <trkpt lat="32.73427" lon="-16.86946">
        <ele>840.17</ele>
      </trkpt>
      <trkpt lat="32.73428" lon="-16.86941">
        <ele>840.59</ele>
      </trkpt>
      <trkpt lat="32.73427" lon="-16.86936">
        <ele>841.96</ele>
      </trkpt>
      <trkpt lat="32.73424" lon="-16.86933">
        <ele>843.81</ele>
      </trkpt>
      <trkpt lat="32.73419" lon="-16.86922">
        <ele>848.54</ele>
      </trkpt>
      <trkpt lat="32.73413" lon="-16.86913">
        <ele>855.26</ele>
      </trkpt>
      <trkpt lat="32.73412" lon="-16.86904">
        <ele>859.41</ele>
      </trkpt>
      <trkpt lat="32.73424" lon="-16.86885">
        <ele>855.57</ele>
      </trkpt>
      <trkpt lat="32.73431" lon="-16.86862">
        <ele>851.02</ele>
      </trkpt>
      <trkpt lat="32.73429" lon="-16.86845">
        <ele>846.82</ele>
      </trkpt>
      <trkpt lat="32.73442" lon="-16.86836">
        <ele>835.81</ele>
      </trkpt>
      <trkpt lat="32.7345" lon="-16.86826">
        <ele>825.73</ele>
      </trkpt>
      <trkpt lat="32.73451" lon="-16.86815">
        <ele>817.65</ele>
      </trkpt>
      <trkpt lat="32.73443" lon="-16.86809">
        <ele>817.17</ele>
      </trkpt>
      <trkpt lat="32.73432" lon="-16.86809">
        <ele>822.42</ele>
      </trkpt>
      <trkpt lat="32.73423" lon="-16.86793">
        <ele>816.46</ele>
      </trkpt>
      <trkpt lat="32.73397" lon="-16.86766">
        <ele>813.58</ele>
      </trkpt>
      <trkpt lat="32.73371" lon="-16.86752">
        <ele>817.82</ele>
      </trkpt>
      <trkpt lat="32.73361" lon="-16.86739">
        <ele>817.65</ele>
      </trkpt>
      <trkpt lat="32.73326" lon="-16.86733">
        <ele>825.15</ele>
      </trkpt>
      <trkpt lat="32.73308" lon="-16.86722">
        <ele>828.26</ele>
      </trkpt>
      <trkpt lat="32.733" lon="-16.86717">
        <ele>829.74</ele>
      </trkpt>
      <trkpt lat="32.73297" lon="-16.86715">
        <ele>830.32</ele>
      </trkpt>
      <trkpt lat="32.73295" lon="-16.86713">
        <ele>830.63</ele>
      </trkpt>
      <trkpt lat="32.73294" lon="-16.86712">
        <ele>830.79</ele>
      </trkpt>
      <trkpt lat="32.73289" lon="-16.86712">
        <ele>832.37</ele>
      </trkpt>
      <trkpt lat="32.73284" lon="-16.86714">
        <ele>834.19</ele>
      </trkpt>
      <trkpt lat="32.73277" lon="-16.86715">
        <ele>836.3</ele>
      </trkpt>
      <trkpt lat="32.7327" lon="-16.86718">
        <ele>836.9</ele>
      </trkpt>
      <trkpt lat="32.73262" lon="-16.8672">
        <ele>836.87</ele>
      </trkpt>
      <trkpt lat="32.73244" lon="-16.86719">
        <ele>841.36</ele>
      </trkpt>
      <trkpt lat="32.73229" lon="-16.8672">
        <ele>851.23</ele>
      </trkpt>
      <trkpt lat="32.73222" lon="-16.86719">
        <ele>855.81</ele>
      </trkpt>
      <trkpt lat="32.73218" lon="-16.86711">
        <ele>856.17</ele>
      </trkpt>
      <trkpt lat="32.73217" lon="-16.86708">
        <ele>856.31</ele>
      </trkpt>
      <trkpt lat="32.73216" lon="-16.86704">
        <ele>856.47</ele>
      </trkpt>
      <trkpt lat="32.73215" lon="-16.86701">
        <ele>856.7</ele>
      </trkpt>
      <trkpt lat="32.73214" lon="-16.867">
        <ele>857.0</ele>
      </trkpt>
      <trkpt lat="32.73214" lon="-16.867">
        <ele>857.0</ele>
      </trkpt>
      <trkpt lat="32.73229" lon="-16.867">
        <ele>852.25</ele>
      </trkpt>
      <trkpt lat="32.73235" lon="-16.86701">
        <ele>850.19</ele>
      </trkpt>
      <trkpt lat="32.73251" lon="-16.86705">
        <ele>843.14</ele>
      </trkpt>
      <trkpt lat="32.73259" lon="-16.86705">
        <ele>840.75</ele>
      </trkpt>
      <trkpt lat="32.73266" lon="-16.86704">
        <ele>838.78</ele>
      </trkpt>
      <trkpt lat="32.73285" lon="-16.86698">
        <ele>831.85</ele>
      </trkpt>
      <trkpt lat="32.73299" lon="-16.86699">
        <ele>827.1</ele>
      </trkpt>
      <trkpt lat="32.73304" lon="-16.86695">
        <ele>824.66</ele>
      </trkpt>
      <trkpt lat="32.73309" lon="-16.86692">
        <ele>824.68</ele>
      </trkpt>
      <trkpt lat="32.73313" lon="-16.86687">
        <ele>825.69</ele>
      </trkpt>
      <trkpt lat="32.73315" lon="-16.86683">
        <ele>826.31</ele>
      </trkpt>
      <trkpt lat="32.73315" lon="-16.86678">
        <ele>827.32</ele>
      </trkpt>
      <trkpt lat="32.7331" lon="-16.86669">
        <ele>830.78</ele>
      </trkpt>
      <trkpt lat="32.73299" lon="-16.86654">
        <ele>838.21</ele>
      </trkpt>
      <trkpt lat="32.73292" lon="-16.8665">
        <ele>840.83</ele>
      </trkpt>
      <trkpt lat="32.73289" lon="-16.86649">
        <ele>841.72</ele>
      </trkpt>
      <trkpt lat="32.73286" lon="-16.86649">
        <ele>842.38</ele>
      </trkpt>
      <trkpt lat="32.73286" lon="-16.86643">
        <ele>843.65</ele>
      </trkpt>
      <trkpt lat="32.73286" lon="-16.86642">
        <ele>843.86</ele>
      </trkpt>
      <trkpt lat="32.73287" lon="-16.86637">
        <ele>845.38</ele>
      </trkpt>
      <trkpt lat="32.73291" lon="-16.86638">
        <ele>844.14</ele>
      </trkpt>
      <trkpt lat="32.73295" lon="-16.8664">
        <ele>842.63</ele>
      </trkpt>
      <trkpt lat="32.73302" lon="-16.86643">
        <ele>840.51</ele>
      </trkpt>
      <trkpt lat="32.73309" lon="-16.86644">
        <ele>839.4</ele>
      </trkpt>
      <trkpt lat="32.73314" lon="-16.86643">
        <ele>839.63</ele>
      </trkpt>
      <trkpt lat="32.7332" lon="-16.8664">
        <ele>840.97</ele>
      </trkpt>
      <trkpt lat="32.73325" lon="-16.86634">
        <ele>844.97</ele>
      </trkpt>
      <trkpt lat="32.73338" lon="-16.86626">
        <ele>848.68</ele>
      </trkpt>
      <trkpt lat="32.73344" lon="-16.86627">
        <ele>845.92</ele>
      </trkpt>
      <trkpt lat="32.73353" lon="-16.86645">
        <ele>832.07</ele>
      </trkpt>
      <trkpt lat="32.7336" lon="-16.86655">
        <ele>824.57</ele>
      </trkpt>
      <trkpt lat="32.73366" lon="-16.86659">
        <ele>822.63</ele>
      </trkpt>
      <trkpt lat="32.73371" lon="-16.86661">
        <ele>822.26</ele>
      </trkpt>
      <trkpt lat="32.73378" lon="-16.86659">
        <ele>823.84</ele>
      </trkpt>
      <trkpt lat="32.73382" lon="-16.86654">
        <ele>825.86</ele>
      </trkpt>
      <trkpt lat="32.73385" lon="-16.86639">
        <ele>830.39</ele>
      </trkpt>
      <trkpt lat="32.73392" lon="-16.86626">
        <ele>835.64</ele>
      </trkpt>
      <trkpt lat="32.73396" lon="-16.86624">
        <ele>836.53</ele>
      </trkpt>
      <trkpt lat="32.73402" lon="-16.86624">
        <ele>836.62</ele>
      </trkpt>
      <trkpt lat="32.7341" lon="-16.86629">
        <ele>834.98</ele>
      </trkpt>
      <trkpt lat="32.7343" lon="-16.86647">
        <ele>828.59</ele>
      </trkpt>
      <trkpt lat="32.73442" lon="-16.86645">
        <ele>827.85</ele>
      </trkpt>
      <trkpt lat="32.73447" lon="-16.86641">
        <ele>827.28</ele>
      </trkpt>
      <trkpt lat="32.7345" lon="-16.86621">
        <ele>832.88</ele>
      </trkpt>
      <trkpt lat="32.7346" lon="-16.86602">
        <ele>836.97</ele>
      </trkpt>
      <trkpt lat="32.73471" lon="-16.86564">
        <ele>854.57</ele>
      </trkpt>
      <trkpt lat="32.7348" lon="-16.86552">
        <ele>857.56</ele>
      </trkpt>
      <trkpt lat="32.73488" lon="-16.86549">
        <ele>856.23</ele>
      </trkpt>
      <trkpt lat="32.73501" lon="-16.86548">
        <ele>853.56</ele>
      </trkpt>
      <trkpt lat="32.73526" lon="-16.86547">
        <ele>841.06</ele>
      </trkpt>
      <trkpt lat="32.73559" lon="-16.86532">
        <ele>826.01</ele>
      </trkpt>
      <trkpt lat="32.73563" lon="-16.86522">
        <ele>828.46</ele>
      </trkpt>
      <trkpt lat="32.73559" lon="-16.86513">
        <ele>834.96</ele>
      </trkpt>
      <trkpt lat="32.73553" lon="-16.86508">
        <ele>841.19</ele>
      </trkpt>
      <trkpt lat="32.73553" lon="-16.86505">
        <ele>842.69</ele>
      </trkpt>
      <trkpt lat="32.73555" lon="-16.86502">
        <ele>843.2</ele>
      </trkpt>
      <trkpt lat="32.73564" lon="-16.86489">
        <ele>844.07</ele>
      </trkpt>
      <trkpt lat="32.7357" lon="-16.86484">
        <ele>843.16</ele>
      </trkpt>
      <trkpt lat="32.7358" lon="-16.86481">
        <ele>838.99</ele>
      </trkpt>
      <trkpt lat="32.73595" lon="-16.86475">
        <ele>829.84</ele>
      </trkpt>
      <trkpt lat="32.73613" lon="-16.86475">
        <ele>813.29</ele>
      </trkpt>
      <trkpt lat="32.73621" lon="-16.86472">
        <ele>808.79</ele>
      </trkpt>
      <trkpt lat="32.73624" lon="-16.86464">
        <ele>811.26</ele>
      </trkpt>
      <trkpt lat="32.73624" lon="-16.86455">
        <ele>815.88</ele>
      </trkpt>
      <trkpt lat="32.73611" lon="-16.86432">
        <ele>846.58</ele>
      </trkpt>
      <trkpt lat="32.73606" lon="-16.86403">
        <ele>858.6</ele>
      </trkpt>
      <trkpt lat="32.73604" lon="-16.86392">
        <ele>859.23</ele>
      </trkpt>
      <trkpt lat="32.73601" lon="-16.86388">
        <ele>860.2</ele>
      </trkpt>
      <trkpt lat="32.73597" lon="-16.86385">
        <ele>862.15</ele>
      </trkpt>
      <trkpt lat="32.73594" lon="-16.86385">
        <ele>862.64</ele>
      </trkpt>
      <trkpt lat="32.73591" lon="-16.86386">
        <ele>862.75</ele>
      </trkpt>
      <trkpt lat="32.7359" lon="-16.86385">
        <ele>863.3</ele>
      </trkpt>
      <trkpt lat="32.736" lon="-16.86373">
        <ele>866.75</ele>
      </trkpt>
      <trkpt lat="32.73605" lon="-16.86368">
        <ele>868.38</ele>
      </trkpt>
      <trkpt lat="32.73629" lon="-16.86365">
        <ele>868.61</ele>
      </trkpt>
      <trkpt lat="32.73637" lon="-16.86365">
        <ele>868.36</ele>
      </trkpt>
      <trkpt lat="32.73642" lon="-16.86368">
        <ele>866.54</ele>
      </trkpt>
      <trkpt lat="32.73647" lon="-16.8637">
        <ele>863.45</ele>
      </trkpt>
      <trkpt lat="32.73652" lon="-16.86369">
        <ele>861.81</ele>
      </trkpt>
      <trkpt lat="32.73656" lon="-16.86367">
        <ele>862.01</ele>
      </trkpt>
      <trkpt lat="32.7366" lon="-16.86363">
        <ele>865.28</ele>
      </trkpt>
      <trkpt lat="32.73664" lon="-16.86358">
        <ele>867.67</ele>
      </trkpt>
      <trkpt lat="32.73669" lon="-16.86352">
        <ele>866.4</ele>
      </trkpt>
      <trkpt lat="32.73679" lon="-16.86343">
        <ele>862.23</ele>
      </trkpt>
      <trkpt lat="32.73695" lon="-16.86337">
        <ele>857.99</ele>
      </trkpt>
      <trkpt lat="32.73707" lon="-16.8634">
        <ele>855.73</ele>
      </trkpt>
      <trkpt lat="32.7372" lon="-16.8635">
        <ele>845.73</ele>
      </trkpt>
      <trkpt lat="32.73732" lon="-16.8636">
        <ele>830.98</ele>
      </trkpt>
      <trkpt lat="32.73746" lon="-16.86366">
        <ele>820.63</ele>
      </trkpt>
      <trkpt lat="32.73761" lon="-16.86366">
        <ele>817.01</ele>
      </trkpt>
      <trkpt lat="32.73771" lon="-16.86362">
        <ele>818.29</ele>
      </trkpt>
      <trkpt lat="32.73777" lon="-16.86357">
        <ele>821.7</ele>
      </trkpt>
      <trkpt lat="32.73781" lon="-16.8635">
        <ele>825.81</ele>
      </trkpt>
      <trkpt lat="32.7379" lon="-16.86308">
        <ele>845.52</ele>
      </trkpt>
      <trkpt lat="32.73797" lon="-16.86297">
        <ele>849.85</ele>
      </trkpt>
      <trkpt lat="32.73803" lon="-16.86281">
        <ele>853.87</ele>
      </trkpt>
      <trkpt lat="32.73811" lon="-16.86268">
        <ele>851.38</ele>
      </trkpt>
      <trkpt lat="32.73816" lon="-16.86256">
        <ele>850.92</ele>
      </trkpt>
      <trkpt lat="32.73818" lon="-16.8625">
        <ele>851.14</ele>
      </trkpt>
      <trkpt lat="32.73817" lon="-16.86242">
        <ele>851.77</ele>
      </trkpt>
      <trkpt lat="32.73813" lon="-16.86237">
        <ele>854.76</ele>
      </trkpt>
      <trkpt lat="32.73805" lon="-16.86233">
        <ele>860.73</ele>
      </trkpt>
      <trkpt lat="32.73794" lon="-16.86222">
        <ele>865.72</ele>
      </trkpt>
      <trkpt lat="32.73786" lon="-16.86209">
        <ele>864.97</ele>
      </trkpt>
      <trkpt lat="32.73779" lon="-16.86194">
        <ele>865.41</ele>
      </trkpt>
      <trkpt lat="32.73772" lon="-16.86182">
        <ele>854.68</ele>
      </trkpt>
      <trkpt lat="32.73751" lon="-16.86157">
        <ele>837.73</ele>
      </trkpt>
      <trkpt lat="32.73739" lon="-16.86137">
        <ele>835.92</ele>
      </trkpt>
      <trkpt lat="32.7373" lon="-16.8613">
        <ele>837.95</ele>
      </trkpt>
      <trkpt lat="32.73726" lon="-16.86122">
        <ele>835.31</ele>
      </trkpt>
      <trkpt lat="32.73719" lon="-16.86113">
        <ele>834.65</ele>
      </trkpt>
      <trkpt lat="32.73716" lon="-16.86108">
        <ele>836.74</ele>
      </trkpt>
      <trkpt lat="32.73716" lon="-16.86102">
        <ele>836.79</ele>
      </trkpt>
      <trkpt lat="32.7372" lon="-16.86095">
        <ele>833.19</ele>
      </trkpt>
      <trkpt lat="32.73728" lon="-16.86087">
        <ele>829.57</ele>
      </trkpt>
      <trkpt lat="32.73741" lon="-16.86076">
        <ele>825.95</ele>
      </trkpt>
      <trkpt lat="32.73755" lon="-16.86065">
        <ele>822.95</ele>
      </trkpt>
      <trkpt lat="32.73769" lon="-16.86059">
        <ele>821.47</ele>
      </trkpt>
      <trkpt lat="32.73778" lon="-16.86051">
        <ele>821.0</ele>
      </trkpt>
      <trkpt lat="32.73781" lon="-16.86038">
        <ele>819.09</ele>
      </trkpt>
      <trkpt lat="32.73781" lon="-16.86028">
        <ele>819.33</ele>
      </trkpt>
      <trkpt lat="32.73774" lon="-16.86002">
        <ele>806.7</ele>
      </trkpt>
      <trkpt lat="32.73774" lon="-16.85987">
        <ele>798.62</ele>
      </trkpt>
      <trkpt lat="32.7377" lon="-16.85976">
        <ele>795.11</ele>
      </trkpt>
      <trkpt lat="32.7376" lon="-16.85964">
        <ele>792.32</ele>
      </trkpt>
      <trkpt lat="32.73701" lon="-16.85933">
        <ele>811.74</ele>
      </trkpt>
      <trkpt lat="32.73684" lon="-16.85915">
        <ele>811.48</ele>
      </trkpt>
      <trkpt lat="32.73669" lon="-16.85868">
        <ele>795.55</ele>
      </trkpt>
      <trkpt lat="32.73654" lon="-16.85857">
        <ele>799.43</ele>
      </trkpt>
      <trkpt lat="32.73643" lon="-16.85854">
        <ele>804.95</ele>
      </trkpt>
      <trkpt lat="32.73603" lon="-16.85852">
        <ele>829.41</ele>
      </trkpt>
      <trkpt lat="32.736" lon="-16.85851">
        <ele>830.8</ele>
      </trkpt>
      <trkpt lat="32.73597" lon="-16.8585">
        <ele>832.12</ele>
      </trkpt>
      <trkpt lat="32.73597" lon="-16.85845">
        <ele>830.75</ele>
      </trkpt>
      <trkpt lat="32.73603" lon="-16.85834">
        <ele>825.76</ele>
      </trkpt>
      <trkpt lat="32.73605" lon="-16.85816">
        <ele>827.06</ele>
      </trkpt>
      <trkpt lat="32.73603" lon="-16.85805">
        <ele>828.79</ele>
      </trkpt>
      <trkpt lat="32.736" lon="-16.85799">
        <ele>829.87</ele>
      </trkpt>
      <trkpt lat="32.73594" lon="-16.85793">
        <ele>831.6</ele>
      </trkpt>
      <trkpt lat="32.7359" lon="-16.85791">
        <ele>832.61</ele>
      </trkpt>
      <trkpt lat="32.73585" lon="-16.85784">
        <ele>834.19</ele>
      </trkpt>
      <trkpt lat="32.7358" lon="-16.85773">
        <ele>837.13</ele>
      </trkpt>
      <trkpt lat="32.73576" lon="-16.85765">
        <ele>840.26</ele>
      </trkpt>
      <trkpt lat="32.73574" lon="-16.85755">
        <ele>843.22</ele>
      </trkpt>
      <trkpt lat="32.73571" lon="-16.85745">
        <ele>847.0</ele>
      </trkpt>
      <trkpt lat="32.73567" lon="-16.85741">
        <ele>849.55</ele>
      </trkpt>
      <trkpt lat="32.73562" lon="-16.85738">
        <ele>852.0</ele>
      </trkpt>
      <trkpt lat="32.73556" lon="-16.85738">
        <ele>853.88</ele>
      </trkpt>
      <trkpt lat="32.73554" lon="-16.85735">
        <ele>855.28</ele>
      </trkpt>
      <trkpt lat="32.73551" lon="-16.85725">
        <ele>859.42</ele>
      </trkpt>
      <trkpt lat="32.73552" lon="-16.8572">
        <ele>860.77</ele>
      </trkpt>
      <trkpt lat="32.73553" lon="-16.85717">
        <ele>861.68</ele>
      </trkpt>
      <trkpt lat="32.73553" lon="-16.85715">
        <ele>862.59</ele>
      </trkpt>
      <trkpt lat="32.73554" lon="-16.85711">
        <ele>864.12</ele>
      </trkpt>
      <trkpt lat="32.73564" lon="-16.85712">
        <ele>861.92</ele>
      </trkpt>
      <trkpt lat="32.73576" lon="-16.85713">
        <ele>859.45</ele>
      </trkpt>
      <trkpt lat="32.73585" lon="-16.85712">
        <ele>859.24</ele>
      </trkpt>
      <trkpt lat="32.73595" lon="-16.8571">
        <ele>861.49</ele>
      </trkpt>
      <trkpt lat="32.736" lon="-16.85711">
        <ele>861.19</ele>
      </trkpt>
      <trkpt lat="32.73607" lon="-16.85716">
        <ele>858.85</ele>
      </trkpt>
      <trkpt lat="32.73613" lon="-16.85725">
        <ele>854.25</ele>
      </trkpt>
      <trkpt lat="32.73626" lon="-16.85735">
        <ele>846.21</ele>
      </trkpt>
      <trkpt lat="32.73631" lon="-16.85735">
        <ele>845.55</ele>
      </trkpt>
      <trkpt lat="32.73634" lon="-16.85734">
        <ele>846.0</ele>
      </trkpt>
      <trkpt lat="32.73638" lon="-16.85734">
        <ele>845.51</ele>
      </trkpt>
      <trkpt lat="32.73644" lon="-16.85735">
        <ele>845.12</ele>
      </trkpt>
      <trkpt lat="32.7365" lon="-16.85735">
        <ele>845.85</ele>
      </trkpt>
      <trkpt lat="32.73654" lon="-16.85734">
        <ele>847.18</ele>
      </trkpt>
      <trkpt lat="32.7366" lon="-16.85727">
        <ele>853.61</ele>
      </trkpt>
      <trkpt lat="32.73667" lon="-16.85721">
        <ele>858.79</ele>
      </trkpt>
      <trkpt lat="32.73678" lon="-16.85716">
        <ele>864.44</ele>
      </trkpt>
      <trkpt lat="32.73686" lon="-16.85715">
        <ele>867.03</ele>
      </trkpt>
      <trkpt lat="32.73692" lon="-16.85718">
        <ele>866.82</ele>
      </trkpt>
      <trkpt lat="32.73694" lon="-16.85724">
        <ele>863.67</ele>
      </trkpt>
      <trkpt lat="32.73698" lon="-16.85731">
        <ele>859.76</ele>
      </trkpt>
      <trkpt lat="32.73704" lon="-16.85739">
        <ele>853.7</ele>
      </trkpt>
      <trkpt lat="32.73717" lon="-16.85745">
        <ele>846.51</ele>
      </trkpt>
      <trkpt lat="32.73733" lon="-16.85744">
        <ele>846.93</ele>
      </trkpt>
      <trkpt lat="32.73743" lon="-16.85741">
        <ele>851.27</ele>
      </trkpt>
      <trkpt lat="32.73756" lon="-16.85734">
        <ele>862.61</ele>
      </trkpt>
      <trkpt lat="32.73767" lon="-16.85721">
        <ele>879.85</ele>
      </trkpt>
      <trkpt lat="32.73777" lon="-16.85721">
        <ele>878.87</ele>
      </trkpt>
      <trkpt lat="32.73788" lon="-16.85727">
        <ele>864.45</ele>
      </trkpt>
      <trkpt lat="32.738" lon="-16.85736">
        <ele>847.5</ele>
      </trkpt>
      <trkpt lat="32.73814" lon="-16.85741">
        <ele>838.21</ele>
      </trkpt>
      <trkpt lat="32.73821" lon="-16.85741">
        <ele>836.63</ele>
      </trkpt>
      <trkpt lat="32.73829" lon="-16.85736">
        <ele>838.17</ele>
      </trkpt>
      <trkpt lat="32.73832" lon="-16.85723">
        <ele>845.92</ele>
      </trkpt>
      <trkpt lat="32.73832" lon="-16.85714">
        <ele>850.96</ele>
      </trkpt>
      <trkpt lat="32.7383" lon="-16.85705">
        <ele>856.83</ele>
      </trkpt>
      <trkpt lat="32.73829" lon="-16.85694">
        <ele>863.56</ele>
      </trkpt>
      <trkpt lat="32.73834" lon="-16.85684">
        <ele>865.48</ele>
      </trkpt>
      <trkpt lat="32.73844" lon="-16.85678">
        <ele>862.47</ele>
      </trkpt>
      <trkpt lat="32.73849" lon="-16.85671">
        <ele>863.25</ele>
      </trkpt>
      <trkpt lat="32.73856" lon="-16.85652">
        <ele>871.68</ele>
      </trkpt>
      <trkpt lat="32.7386" lon="-16.8565">
        <ele>871.91</ele>
      </trkpt>
      <trkpt lat="32.73864" lon="-16.85651">
        <ele>870.23</ele>
      </trkpt>
      <trkpt lat="32.7387" lon="-16.85663">
        <ele>859.62</ele>
      </trkpt>
      <trkpt lat="32.73877" lon="-16.8568">
        <ele>849.51</ele>
      </trkpt>
      <trkpt lat="32.73891" lon="-16.85692">
        <ele>843.97</ele>
      </trkpt>
      <trkpt lat="32.73909" lon="-16.85699">
        <ele>833.64</ele>
      </trkpt>
      <trkpt lat="32.73918" lon="-16.85699">
        <ele>830.43</ele>
      </trkpt>
      <trkpt lat="32.73944" lon="-16.85687">
        <ele>839.29</ele>
      </trkpt>
      <trkpt lat="32.73957" lon="-16.85679">
        <ele>843.7</ele>
      </trkpt>
      <trkpt lat="32.73965" lon="-16.85671">
        <ele>850.31</ele>
      </trkpt>
      <trkpt lat="32.73978" lon="-16.85666">
        <ele>855.91</ele>
      </trkpt>
      <trkpt lat="32.73987" lon="-16.85671">
        <ele>852.34</ele>
      </trkpt>
      <trkpt lat="32.7399" lon="-16.85677">
        <ele>847.56</ele>
      </trkpt>
      <trkpt lat="32.73995" lon="-16.85695">
        <ele>833.64</ele>
      </trkpt>
      <trkpt lat="32.74015" lon="-16.85726">
        <ele>822.76</ele>
      </trkpt>
      <trkpt lat="32.74056" lon="-16.85792">
        <ele>811.4</ele>
      </trkpt>
      <trkpt lat="32.74057" lon="-16.85791">
        <ele>811.87</ele>
      </trkpt>
      <trkpt lat="32.74058" lon="-16.85789">
        <ele>812.72</ele>
      </trkpt>
      <trkpt lat="32.74061" lon="-16.85782">
        <ele>815.58</ele>
      </trkpt>
      <trkpt lat="32.74064" lon="-16.85769">
        <ele>818.06</ele>
      </trkpt>
      <trkpt lat="32.7406" lon="-16.85753">
        <ele>819.55</ele>
      </trkpt>
      <trkpt lat="32.7406" lon="-16.85737">
        <ele>823.51</ele>
      </trkpt>
      <trkpt lat="32.74061" lon="-16.85723">
        <ele>827.39</ele>
      </trkpt>
      <trkpt lat="32.74063" lon="-16.85711">
        <ele>832.92</ele>
      </trkpt>
      <trkpt lat="32.74076" lon="-16.85691">
        <ele>835.23</ele>
      </trkpt>
      <trkpt lat="32.74079" lon="-16.85675">
        <ele>839.45</ele>
      </trkpt>
      <trkpt lat="32.74086" lon="-16.85647">
        <ele>851.6</ele>
      </trkpt>
      <trkpt lat="32.74092" lon="-16.85636">
        <ele>852.84</ele>
      </trkpt>
      <trkpt lat="32.74103" lon="-16.85625">
        <ele>851.53</ele>
      </trkpt>
      <trkpt lat="32.74141" lon="-16.85612">
        <ele>817.68</ele>
      </trkpt>
      <trkpt lat="32.7415" lon="-16.85607">
        <ele>809.65</ele>
      </trkpt>
      <trkpt lat="32.74156" lon="-16.85601">
        <ele>807.03</ele>
      </trkpt>
      <trkpt lat="32.74162" lon="-16.85587">
        <ele>812.3</ele>
      </trkpt>
      <trkpt lat="32.74166" lon="-16.85571">
        <ele>819.55</ele>
      </trkpt>
      <trkpt lat="32.74167" lon="-16.85557">
        <ele>827.76</ele>
      </trkpt>
      <trkpt lat="32.74165" lon="-16.85544">
        <ele>829.8</ele>
      </trkpt>
      <trkpt lat="32.74166" lon="-16.85536">
        <ele>828.8</ele>
      </trkpt>
      <trkpt lat="32.74168" lon="-16.85529">
        <ele>827.72</ele>
      </trkpt>
      <trkpt lat="32.74186" lon="-16.85496">
        <ele>831.4</ele>
      </trkpt>
      <trkpt lat="32.742" lon="-16.85484">
        <ele>831.52</ele>
      </trkpt>
      <trkpt lat="32.74204" lon="-16.85484">
        <ele>831.13</ele>
      </trkpt>
      <trkpt lat="32.74209" lon="-16.85482">
        <ele>831.53</ele>
      </trkpt>
      <trkpt lat="32.7421" lon="-16.85478">
        <ele>833.2</ele>
      </trkpt>
      <trkpt lat="32.74218" lon="-16.85475">
        <ele>833.46</ele>
      </trkpt>
      <trkpt lat="32.74223" lon="-16.85473">
        <ele>833.72</ele>
      </trkpt>
      <trkpt lat="32.74208" lon="-16.85457">
        <ele>840.73</ele>
      </trkpt>
      <trkpt lat="32.74185" lon="-16.85449">
        <ele>848.96</ele>
      </trkpt>
      <trkpt lat="32.74199" lon="-16.8544">
        <ele>846.26</ele>
      </trkpt>
      <trkpt lat="32.74208" lon="-16.85439">
        <ele>843.99</ele>
      </trkpt>
      <trkpt lat="32.74219" lon="-16.85417">
        <ele>839.61</ele>
      </trkpt>
      <trkpt lat="32.74224" lon="-16.854">
        <ele>836.67</ele>
      </trkpt>
      <trkpt lat="32.74216" lon="-16.85391">
        <ele>834.26</ele>
      </trkpt>
      <trkpt lat="32.74206" lon="-16.85391">
        <ele>834.06</ele>
      </trkpt>
      <trkpt lat="32.74194" lon="-16.854">
        <ele>837.33</ele>
      </trkpt>
      <trkpt lat="32.7418" lon="-16.85416">
        <ele>845.15</ele>
      </trkpt>
      <trkpt lat="32.74174" lon="-16.85417">
        <ele>846.28</ele>
      </trkpt>
      <trkpt lat="32.74169" lon="-16.85417">
        <ele>846.83</ele>
      </trkpt>
      <trkpt lat="32.74155" lon="-16.85419">
        <ele>840.1</ele>
      </trkpt>
      <trkpt lat="32.74128" lon="-16.85444">
        <ele>839.74</ele>
      </trkpt>
      <trkpt lat="32.74116" lon="-16.85448">
        <ele>832.13</ele>
      </trkpt>
      <trkpt lat="32.74103" lon="-16.85447">
        <ele>825.19</ele>
      </trkpt>
      <trkpt lat="32.74085" lon="-16.85441">
        <ele>817.61</ele>
      </trkpt>
      <trkpt lat="32.74073" lon="-16.85441">
        <ele>819.55</ele>
      </trkpt>
      <trkpt lat="32.74064" lon="-16.85443">
        <ele>822.36</ele>
      </trkpt>
      <trkpt lat="32.74055" lon="-16.85443">
        <ele>824.51</ele>
      </trkpt>
      <trkpt lat="32.7405" lon="-16.85443">
        <ele>825.27</ele>
      </trkpt>
      <trkpt lat="32.7403" lon="-16.85435">
        <ele>826.19</ele>
      </trkpt>
      <trkpt lat="32.7401" lon="-16.85434">
        <ele>832.05</ele>
      </trkpt>
      <trkpt lat="32.7401" lon="-16.8543">
        <ele>831.5</ele>
      </trkpt>
      <trkpt lat="32.74005" lon="-16.85419">
        <ele>832.08</ele>
      </trkpt>
      <trkpt lat="32.74001" lon="-16.85402">
        <ele>833.47</ele>
      </trkpt>
      <trkpt lat="32.73992" lon="-16.85387">
        <ele>836.53</ele>
      </trkpt>
      <trkpt lat="32.7399" lon="-16.8538">
        <ele>837.09</ele>
      </trkpt>
      <trkpt lat="32.73989" lon="-16.85356">
        <ele>834.57</ele>
      </trkpt>
      <trkpt lat="32.73988" lon="-16.85337">
        <ele>825.03</ele>
      </trkpt>
      <trkpt lat="32.73994" lon="-16.853">
        <ele>798.68</ele>
      </trkpt>
      <trkpt lat="32.73992" lon="-16.85298">
        <ele>798.76</ele>
      </trkpt>
      <trkpt lat="32.73988" lon="-16.85298">
        <ele>801.99</ele>
      </trkpt>
      <trkpt lat="32.73978" lon="-16.85297">
        <ele>809.26</ele>
      </trkpt>
      <trkpt lat="32.73967" lon="-16.85296">
        <ele>815.74</ele>
      </trkpt>
      <trkpt lat="32.73957" lon="-16.8529">
        <ele>816.91</ele>
      </trkpt>
      <trkpt lat="32.73944" lon="-16.85285">
        <ele>821.7</ele>
      </trkpt>
      <trkpt lat="32.73937" lon="-16.85268">
        <ele>815.08</ele>
      </trkpt>
      <trkpt lat="32.73934" lon="-16.85262">
        <ele>813.67</ele>
      </trkpt>
      <trkpt lat="32.73931" lon="-16.85251">
        <ele>811.12</ele>
      </trkpt>
      <trkpt lat="32.7393" lon="-16.85244">
        <ele>810.84</ele>
      </trkpt>
      <trkpt lat="32.73931" lon="-16.85236">
        <ele>809.74</ele>
      </trkpt>
      <trkpt lat="32.73929" lon="-16.85228">
        <ele>810.44</ele>
      </trkpt>
      <trkpt lat="32.7393" lon="-16.8522">
        <ele>809.47</ele>
      </trkpt>
      <trkpt lat="32.73928" lon="-16.85212">
        <ele>811.0</ele>
      </trkpt>
      <trkpt lat="32.73929" lon="-16.85205">
        <ele>810.53</ele>
      </trkpt>
      <trkpt lat="32.73929" lon="-16.85197">
        <ele>810.72</ele>
      </trkpt>
      <trkpt lat="32.73928" lon="-16.85183">
        <ele>812.14</ele>
      </trkpt>
      <trkpt lat="32.73927" lon="-16.85178">
        <ele>813.38</ele>
      </trkpt>
      <trkpt lat="32.73928" lon="-16.85173">
        <ele>812.88</ele>
      </trkpt>
      <trkpt lat="32.73924" lon="-16.85158">
        <ele>816.17</ele>
      </trkpt>
      <trkpt lat="32.73924" lon="-16.85154">
        <ele>815.42</ele>
      </trkpt>
      <trkpt lat="32.73925" lon="-16.8515">
        <ele>813.52</ele>
      </trkpt>
      <trkpt lat="32.7393" lon="-16.85149">
        <ele>807.63</ele>
      </trkpt>
      <trkpt lat="32.73936" lon="-16.85148">
        <ele>800.6</ele>
      </trkpt>
      <trkpt lat="32.73939" lon="-16.85141">
        <ele>795.71</ele>
      </trkpt>
      <trkpt lat="32.73941" lon="-16.85134">
        <ele>790.95</ele>
      </trkpt>
      <trkpt lat="32.73941" lon="-16.85122">
        <ele>785.99</ele>
      </trkpt>
      <trkpt lat="32.73932" lon="-16.85097">
        <ele>779.86</ele>
      </trkpt>
      <trkpt lat="32.73932" lon="-16.85076">
        <ele>775.22</ele>
      </trkpt>
      <trkpt lat="32.73925" lon="-16.85061">
        <ele>782.68</ele>
      </trkpt>
      <trkpt lat="32.73913" lon="-16.85056">
        <ele>795.42</ele>
      </trkpt>
      <trkpt lat="32.73906" lon="-16.8505">
        <ele>805.18</ele>
      </trkpt>
      <trkpt lat="32.73903" lon="-16.85039">
        <ele>810.18</ele>
      </trkpt>
      <trkpt lat="32.73901" lon="-16.8503">
        <ele>813.03</ele>
      </trkpt>
      <trkpt lat="32.73903" lon="-16.85005">
        <ele>812.7</ele>
      </trkpt>
      <trkpt lat="32.73905" lon="-16.84991">
        <ele>812.48</ele>
      </trkpt>
      <trkpt lat="32.73907" lon="-16.84974">
        <ele>812.46</ele>
      </trkpt>
      <trkpt lat="32.73905" lon="-16.84965">
        <ele>812.54</ele>
      </trkpt>
      <trkpt lat="32.73906" lon="-16.84957">
        <ele>810.79</ele>
      </trkpt>
      <trkpt lat="32.73913" lon="-16.84948">
        <ele>806.68</ele>
      </trkpt>
      <trkpt lat="32.73916" lon="-16.84935">
        <ele>806.25</ele>
      </trkpt>
      <trkpt lat="32.73916" lon="-16.84923">
        <ele>807.54</ele>
      </trkpt>
      <trkpt lat="32.73911" lon="-16.84902">
        <ele>815.02</ele>
      </trkpt>
      <trkpt lat="32.73911" lon="-16.84902">
        <ele>815.02</ele>
      </trkpt>
      <trkpt lat="32.73911" lon="-16.84902">
        <ele>815.02</ele>
      </trkpt>
      <trkpt lat="32.73908" lon="-16.84891">
        <ele>820.28</ele>
      </trkpt>
      <trkpt lat="32.73907" lon="-16.84876">
        <ele>829.86</ele>
      </trkpt>
      <trkpt lat="32.73914" lon="-16.84843">
        <ele>841.02</ele>
      </trkpt>
      <trkpt lat="32.7392" lon="-16.84833">
        <ele>840.14</ele>
      </trkpt>
      <trkpt lat="32.73949" lon="-16.84815">
        <ele>821.37</ele>
      </trkpt>
      <trkpt lat="32.73972" lon="-16.84793">
        <ele>819.85</ele>
      </trkpt>
      <trkpt lat="32.73977" lon="-16.84783">
        <ele>816.07</ele>
      </trkpt>
      <trkpt lat="32.73978" lon="-16.84772">
        <ele>815.72</ele>
      </trkpt>
      <trkpt lat="32.73975" lon="-16.84757">
        <ele>818.28</ele>
      </trkpt>
      <trkpt lat="32.73973" lon="-16.84748">
        <ele>819.48</ele>
      </trkpt>
      <trkpt lat="32.73973" lon="-16.84735">
        <ele>815.05</ele>
      </trkpt>
      <trkpt lat="32.73969" lon="-16.84722">
        <ele>811.69</ele>
      </trkpt>
      <trkpt lat="32.73969" lon="-16.84722">
        <ele>811.69</ele>
      </trkpt>
      <trkpt lat="32.73969" lon="-16.84722">
        <ele>811.69</ele>
      </trkpt>
      <trkpt lat="32.73967" lon="-16.84711">
        <ele>811.98</ele>
      </trkpt>
      <trkpt lat="32.73964" lon="-16.84705">
        <ele>812.41</ele>
      </trkpt>
      <trkpt lat="32.73961" lon="-16.84702">
        <ele>812.84</ele>
      </trkpt>
      <trkpt lat="32.73955" lon="-16.84698">
        <ele>813.64</ele>
      </trkpt>
      <trkpt lat="32.73948" lon="-16.847">
        <ele>814.84</ele>
      </trkpt>
      <trkpt lat="32.7395" lon="-16.84695">
        <ele>814.23</ele>
      </trkpt>
      <trkpt lat="32.73954" lon="-16.84683">
        <ele>815.17</ele>
      </trkpt>
      <trkpt lat="32.7396" lon="-16.84671">
        <ele>817.39</ele>
      </trkpt>
      <trkpt lat="32.73968" lon="-16.84653">
        <ele>820.38</ele>
      </trkpt>
      <trkpt lat="32.73969" lon="-16.84637">
        <ele>821.06</ele>
      </trkpt>
      <trkpt lat="32.73975" lon="-16.84631">
        <ele>818.81</ele>
      </trkpt>
      <trkpt lat="32.7398" lon="-16.84599">
        <ele>810.66</ele>
      </trkpt>
      <trkpt lat="32.73988" lon="-16.84574">
        <ele>806.77</ele>
      </trkpt>
      <trkpt lat="32.74" lon="-16.84554">
        <ele>803.66</ele>
      </trkpt>
      <trkpt lat="32.74015" lon="-16.84522">
        <ele>795.26</ele>
      </trkpt>
      <trkpt lat="32.74024" lon="-16.8451">
        <ele>792.59</ele>
      </trkpt>
      <trkpt lat="32.74036" lon="-16.84507">
        <ele>788.3</ele>
      </trkpt>
      <trkpt lat="32.74046" lon="-16.84501">
        <ele>783.79</ele>
      </trkpt>
      <trkpt lat="32.74056" lon="-16.84494">
        <ele>779.03</ele>
      </trkpt>
      <trkpt lat="32.7406" lon="-16.84488">
        <ele>777.59</ele>
      </trkpt>
      <trkpt lat="32.74067" lon="-16.84485">
        <ele>776.58</ele>
      </trkpt>
      <trkpt lat="32.74078" lon="-16.84477">
        <ele>776.78</ele>
      </trkpt>
      <trkpt lat="32.74078" lon="-16.84477">
        <ele>776.78</ele>
      </trkpt>
      <trkpt lat="32.74078" lon="-16.84477">
        <ele>776.78</ele>
      </trkpt>
      <trkpt lat="32.74083" lon="-16.84474">
        <ele>777.54</ele>
      </trkpt>
      <trkpt lat="32.74105" lon="-16.84464">
        <ele>780.48</ele>
      </trkpt>
      <trkpt lat="32.74115" lon="-16.84452">
        <ele>783.44</ele>
      </trkpt>
      <trkpt lat="32.74122" lon="-16.84441">
        <ele>786.37</ele>
      </trkpt>
      <trkpt lat="32.74127" lon="-16.84429">
        <ele>786.34</ele>
      </trkpt>
      <trkpt lat="32.74135" lon="-16.84416">
        <ele>786.84</ele>
      </trkpt>
      <trkpt lat="32.74141" lon="-16.84404">
        <ele>784.52</ele>
      </trkpt>
      <trkpt lat="32.74144" lon="-16.84395">
        <ele>782.58</ele>
      </trkpt>
      <trkpt lat="32.74153" lon="-16.84357">
        <ele>773.43</ele>
      </trkpt>
      <trkpt lat="32.74172" lon="-16.84319">
        <ele>772.2</ele>
      </trkpt>
      <trkpt lat="32.7418" lon="-16.8431">
        <ele>778.39</ele>
      </trkpt>
      <trkpt lat="32.74205" lon="-16.84288">
        <ele>790.18</ele>
      </trkpt>
      <trkpt lat="32.74216" lon="-16.84275">
        <ele>791.95</ele>
      </trkpt>
      <trkpt lat="32.74228" lon="-16.84242">
        <ele>785.98</ele>
      </trkpt>
      <trkpt lat="32.74235" lon="-16.84211">
        <ele>780.88</ele>
      </trkpt>
      <trkpt lat="32.74245" lon="-16.84189">
        <ele>776.95</ele>
      </trkpt>
      <trkpt lat="32.74256" lon="-16.84183">
        <ele>776.32</ele>
      </trkpt>
      <trkpt lat="32.74287" lon="-16.84179">
        <ele>776.96</ele>
      </trkpt>
      <trkpt lat="32.74311" lon="-16.84176">
        <ele>774.67</ele>
      </trkpt>
      <trkpt lat="32.74345" lon="-16.84142">
        <ele>755.0</ele>
      </trkpt>
      <trkpt lat="32.74352" lon="-16.84126">
        <ele>750.57</ele>
      </trkpt>
      <trkpt lat="32.74358" lon="-16.84089">
        <ele>751.34</ele>
      </trkpt>
      <trkpt lat="32.74357" lon="-16.84065">
        <ele>754.99</ele>
      </trkpt>
      <trkpt lat="32.7436" lon="-16.84048">
        <ele>758.7</ele>
      </trkpt>
      <trkpt lat="32.74372" lon="-16.84004">
        <ele>765.44</ele>
      </trkpt>
      <trkpt lat="32.74372" lon="-16.83999">
        <ele>765.75</ele>
      </trkpt>
      <trkpt lat="32.74372" lon="-16.83999">
        <ele>765.75</ele>
      </trkpt>
      <trkpt lat="32.74372" lon="-16.83999">
        <ele>765.75</ele>
      </trkpt>
      <trkpt lat="32.74373" lon="-16.83984">
        <ele>762.52</ele>
      </trkpt>
      <trkpt lat="32.74374" lon="-16.83968">
        <ele>758.97</ele>
      </trkpt>
      <trkpt lat="32.74373" lon="-16.83937">
        <ele>752.36</ele>
      </trkpt>
      <trkpt lat="32.7438" lon="-16.83934">
        <ele>751.77</ele>
      </trkpt>
      <trkpt lat="32.74399" lon="-16.83927">
        <ele>753.39</ele>
      </trkpt>
      <trkpt lat="32.74417" lon="-16.83917">
        <ele>759.0</ele>
      </trkpt>
      <trkpt lat="32.74431" lon="-16.83905">
        <ele>755.18</ele>
      </trkpt>
      <trkpt lat="32.74437" lon="-16.83892">
        <ele>749.63</ele>
      </trkpt>
      <trkpt lat="32.7445" lon="-16.83852">
        <ele>737.27</ele>
      </trkpt>
      <trkpt lat="32.74461" lon="-16.83813">
        <ele>733.69</ele>
      </trkpt>
      <trkpt lat="32.74472" lon="-16.83776">
        <ele>738.43</ele>
      </trkpt>
      <trkpt lat="32.74502" lon="-16.83721">
        <ele>772.83</ele>
      </trkpt>
      <trkpt lat="32.74515" lon="-16.83706">
        <ele>772.63</ele>
      </trkpt>
      <trkpt lat="32.74529" lon="-16.83692">
        <ele>771.4</ele>
      </trkpt>
      <trkpt lat="32.74556" lon="-16.83679">
        <ele>774.57</ele>
      </trkpt>
      <trkpt lat="32.74576" lon="-16.83677">
        <ele>765.09</ele>
      </trkpt>
      <trkpt lat="32.74595" lon="-16.83679">
        <ele>759.68</ele>
      </trkpt>
      <trkpt lat="32.74605" lon="-16.83684">
        <ele>757.34</ele>
      </trkpt>
      <trkpt lat="32.7461" lon="-16.83684">
        <ele>756.14</ele>
      </trkpt>
      <trkpt lat="32.74614" lon="-16.8368">
        <ele>755.29</ele>
      </trkpt>
      <trkpt lat="32.74612" lon="-16.83659">
        <ele>756.6</ele>
      </trkpt>
      <trkpt lat="32.74613" lon="-16.83648">
        <ele>753.44</ele>
      </trkpt>
      <trkpt lat="32.74621" lon="-16.83626">
        <ele>744.96</ele>
      </trkpt>
      <trkpt lat="32.74622" lon="-16.83612">
        <ele>741.59</ele>
      </trkpt>
      <trkpt lat="32.74618" lon="-16.83606">
        <ele>740.69</ele>
      </trkpt>
      <trkpt lat="32.74611" lon="-16.83585">
        <ele>737.31</ele>
      </trkpt>
      <trkpt lat="32.7461" lon="-16.83568">
        <ele>740.39</ele>
      </trkpt>
      <trkpt lat="32.74599" lon="-16.83556">
        <ele>748.05</ele>
      </trkpt>
      <trkpt lat="32.74584" lon="-16.83556">
        <ele>755.65</ele>
      </trkpt>
      <trkpt lat="32.74544" lon="-16.83541">
        <ele>771.42</ele>
      </trkpt>
      <trkpt lat="32.74535" lon="-16.83527">
        <ele>771.2</ele>
      </trkpt>
      <trkpt lat="32.74531" lon="-16.83485">
        <ele>767.67</ele>
      </trkpt>
      <trkpt lat="32.74501" lon="-16.83464">
        <ele>766.17</ele>
      </trkpt>
      <trkpt lat="32.74488" lon="-16.83402">
        <ele>755.65</ele>
      </trkpt>
      <trkpt lat="32.74496" lon="-16.8337">
        <ele>749.13</ele>
      </trkpt>
      <trkpt lat="32.7449" lon="-16.83338">
        <ele>743.99</ele>
      </trkpt>
      <trkpt lat="32.74489" lon="-16.83325">
        <ele>740.82</ele>
      </trkpt>
      <trkpt lat="32.74489" lon="-16.83325">
        <ele>740.82</ele>
      </trkpt>
      <trkpt lat="32.74489" lon="-16.83325">
        <ele>740.82</ele>
      </trkpt>
      <trkpt lat="32.74488" lon="-16.83304">
        <ele>733.44</ele>
      </trkpt>
      <trkpt lat="32.74493" lon="-16.83298">
        <ele>728.51</ele>
      </trkpt>
      <trkpt lat="32.74492" lon="-16.83284">
        <ele>720.63</ele>
      </trkpt>
      <trkpt lat="32.74483" lon="-16.83276">
        <ele>726.24</ele>
      </trkpt>
      <trkpt lat="32.7447" lon="-16.83271">
        <ele>735.53</ele>
      </trkpt>
      <trkpt lat="32.74433" lon="-16.83232">
        <ele>737.91</ele>
      </trkpt>
      <trkpt lat="32.74427" lon="-16.83207">
        <ele>736.14</ele>
      </trkpt>
      <trkpt lat="32.74438" lon="-16.83192">
        <ele>728.31</ele>
      </trkpt>
      <trkpt lat="32.74447" lon="-16.83169">
        <ele>717.67</ele>
      </trkpt>
      <trkpt lat="32.7444" lon="-16.83147">
        <ele>721.95</ele>
      </trkpt>
      <trkpt lat="32.74437" lon="-16.83131">
        <ele>723.78</ele>
      </trkpt>
      <trkpt lat="32.74451" lon="-16.83098">
        <ele>714.02</ele>
      </trkpt>
      <trkpt lat="32.74465" lon="-16.83084">
        <ele>708.5</ele>
      </trkpt>
      <trkpt lat="32.74483" lon="-16.83081">
        <ele>701.33</ele>
      </trkpt>
      <trkpt lat="32.74496" lon="-16.83066">
        <ele>700.93</ele>
      </trkpt>
      <trkpt lat="32.74527" lon="-16.83015">
        <ele>698.29</ele>
      </trkpt>
      <trkpt lat="32.7453" lon="-16.83">
        <ele>695.28</ele>
      </trkpt>
      <trkpt lat="32.74522" lon="-16.82984">
        <ele>688.57</ele>
      </trkpt>
      <trkpt lat="32.74513" lon="-16.82978">
        <ele>685.5</ele>
      </trkpt>
      <trkpt lat="32.74511" lon="-16.82976">
        <ele>684.41</ele>
      </trkpt>
      <trkpt lat="32.74509" lon="-16.82954">
        <ele>678.37</ele>
      </trkpt>
      <trkpt lat="32.74508" lon="-16.82946">
        <ele>676.5</ele>
      </trkpt>
      <trkpt lat="32.74504" lon="-16.82911">
        <ele>671.71</ele>
      </trkpt>
      <trkpt lat="32.74502" lon="-16.82896">
        <ele>665.21</ele>
      </trkpt>
      <trkpt lat="32.745" lon="-16.82889">
        <ele>662.04</ele>
      </trkpt>
      <trkpt lat="32.74496" lon="-16.82877">
        <ele>661.58</ele>
      </trkpt>
      <trkpt lat="32.7449" lon="-16.82848">
        <ele>662.76</ele>
      </trkpt>
      <trkpt lat="32.74485" lon="-16.82842">
        <ele>663.57</ele>
      </trkpt>
      <trkpt lat="32.7448" lon="-16.82793">
        <ele>671.39</ele>
      </trkpt>
      <trkpt lat="32.74482" lon="-16.82788">
        <ele>673.28</ele>
      </trkpt>
      <trkpt lat="32.74481" lon="-16.82761">
        <ele>673.64</ele>
      </trkpt>
      <trkpt lat="32.74474" lon="-16.82752">
        <ele>672.24</ele>
      </trkpt>
      <trkpt lat="32.7447" lon="-16.82745">
        <ele>666.84</ele>
      </trkpt>
      <trkpt lat="32.7447" lon="-16.82742">
        <ele>664.8</ele>
      </trkpt>
      <trkpt lat="32.74471" lon="-16.82734">
        <ele>659.87</ele>
      </trkpt>
      <trkpt lat="32.74474" lon="-16.82732">
        <ele>659.72</ele>
      </trkpt>
      <trkpt lat="32.74491" lon="-16.82732">
        <ele>666.25</ele>
      </trkpt>
      <trkpt lat="32.745" lon="-16.82731">
        <ele>669.63</ele>
      </trkpt>
      <trkpt lat="32.74505" lon="-16.8273">
        <ele>668.81</ele>
      </trkpt>
      <trkpt lat="32.74511" lon="-16.82726">
        <ele>667.45</ele>
      </trkpt>
      <trkpt lat="32.74514" lon="-16.82719">
        <ele>664.45</ele>
      </trkpt>
      <trkpt lat="32.74517" lon="-16.82711">
        <ele>658.92</ele>
      </trkpt>
      <trkpt lat="32.74521" lon="-16.82669">
        <ele>639.04</ele>
      </trkpt>
      <trkpt lat="32.74529" lon="-16.82655">
        <ele>631.92</ele>
      </trkpt>
      <trkpt lat="32.74531" lon="-16.82654">
        <ele>630.77</ele>
      </trkpt>
      <trkpt lat="32.74562" lon="-16.82653">
        <ele>619.13</ele>
      </trkpt>
      <trkpt lat="32.74571" lon="-16.82652">
        <ele>615.89</ele>
      </trkpt>
      <trkpt lat="32.74573" lon="-16.82643">
        <ele>610.77</ele>
      </trkpt>
      <trkpt lat="32.74571" lon="-16.82641">
        <ele>610.48</ele>
      </trkpt>
    </trkseg>
  </trk>
</gpx>
