<?xml version="1.0" encoding="UTF-8" standalone="no" ?>

<gpx xmlns="http://www.topografix.com/GPX/1/1" creator="waymarkedtrails.org" version="1.1" xmlns:xsi="http://www.w3.org/2001/XMLSchema-instance" xsi:schemaLocation="http://www.topografix.com/GPX/1/1 http://www.topografix.com/GPX/1/1/gpx.xsd"><metadata><name>PR12 - Caminho Real da Encumeada</name><copyright author="OpenStreetMap and Contributors"><license>https://www.openstreetmap.org/copyright</license></copyright><link href="http://hiking.waymarkedtrails.org/hiking/v1/details/relation/2239198/geometry/gpx"><text>Waymarked Trails</text></link><time>2025-01-04T16:22:53.081507</time></metadata><trk><name>PR12 - Caminho Real da Encumeada</name><trkseg><trkpt lat="32.7109967" lon="-16.9868117" /><trkpt lat="32.7110080" lon="-16.9869501" /><trkpt lat="32.7110239" lon="-16.9870280" /><trkpt lat="32.7110368" lon="-16.9871202" /><trkpt lat="32.7110459" lon="-16.9871668" /><trkpt lat="32.7110848" lon="-16.9871960" /><trkpt lat="32.7110983" lon="-16.9872291" /><trkpt lat="32.7111157" lon="-16.9872800" /><trkpt lat="32.7111190" lon="-16.9873310" /><trkpt lat="32.7111145" lon="-16.9873777" /><trkpt lat="32.7110836" lon="-16.9874548" /><trkpt lat="32.7110213" lon="-16.9875186" /><trkpt lat="32.7110002" lon="-16.9875389" /><trkpt lat="32.7109846" lon="-16.9875740" /><trkpt lat="32.7109930" lon="-16.9876012" /><trkpt lat="32.7110206" lon="-16.9876204" /><trkpt lat="32.7110664" lon="-16.9876001" /><trkpt lat="32.7111207" lon="-16.9875830" /><trkpt lat="32.7111872" lon="-16.9875737" /><trkpt lat="32.7112314" lon="-16.9875765" /><trkpt lat="32.7112784" lon="-16.9875842" /><trkpt lat="32.7113165" lon="-16.9875997" /><trkpt lat="32.7113470" lon="-16.9876365" /><trkpt lat="32.7113765" lon="-16.9876968" /><trkpt lat="32.7114202" lon="-16.9877636" /><trkpt lat="32.7114837" lon="-16.9878854" /><trkpt lat="32.7115335" lon="-16.9879797" /><trkpt lat="32.7115634" lon="-16.9880855" /><trkpt lat="32.7115865" lon="-16.9881339" /><trkpt lat="32.7116305" lon="-16.9881738" /><trkpt lat="32.7117027" lon="-16.9882190" /><trkpt lat="32.7117889" lon="-16.9883255" /><trkpt lat="32.7118487" lon="-16.9883824" /><trkpt lat="32.7118909" lon="-16.9883979" /><trkpt lat="32.7119587" lon="-16.9884047" /><trkpt lat="32.7121918" lon="-16.9884009" /><trkpt lat="32.7125710" lon="-16.9884358" /><trkpt lat="32.7129878" lon="-16.9884104" /><trkpt lat="32.7130282" lon="-16.9884290" /><trkpt lat="32.7130471" lon="-16.9884626" /><trkpt lat="32.7130480" lon="-16.9885153" /><trkpt lat="32.7130346" lon="-16.9885701" /><trkpt lat="32.7130340" lon="-16.9886364" /><trkpt lat="32.7130545" lon="-16.9887100" /><trkpt lat="32.7130880" lon="-16.9887933" /><trkpt lat="32.7131385" lon="-16.9888679" /><trkpt lat="32.7131780" lon="-16.9889146" /><trkpt lat="32.7132178" lon="-16.9889308" /><trkpt lat="32.7132526" lon="-16.9889287" /><trkpt lat="32.7132859" lon="-16.9889155" /><trkpt lat="32.7134170" lon="-16.9888242" /><trkpt lat="32.7134949" lon="-16.9887934" /><trkpt lat="32.7135734" lon="-16.9887661" /><trkpt lat="32.7136540" lon="-16.9887521" /><trkpt lat="32.7137246" lon="-16.9887541" /><trkpt lat="32.7137872" lon="-16.9887662" /><trkpt lat="32.7138206" lon="-16.9887834" /><trkpt lat="32.7139033" lon="-16.9888072" /><trkpt lat="32.7139899" lon="-16.9888570" /><trkpt lat="32.7140502" lon="-16.9888801" /><trkpt lat="32.7141099" lon="-16.9889011" /><trkpt lat="32.7141499" lon="-16.9889000" /><trkpt lat="32.7141812" lon="-16.9888902" /><trkpt lat="32.7142487" lon="-16.9888548" /><trkpt lat="32.7142731" lon="-16.9888416" /><trkpt lat="32.7142946" lon="-16.9888325" /><trkpt lat="32.7143098" lon="-16.9888304" /><trkpt lat="32.7143291" lon="-16.9888415" /><trkpt lat="32.7143630" lon="-16.9888766" /><trkpt lat="32.7144319" lon="-16.9889710" /><trkpt lat="32.7144876" lon="-16.9890311" /><trkpt lat="32.7145561" lon="-16.9891325" /><trkpt lat="32.7145880" lon="-16.9891820" /><trkpt lat="32.7146242" lon="-16.9892377" /><trkpt lat="32.7146588" lon="-16.9892909" /><trkpt lat="32.7146955" lon="-16.9893402" /><trkpt lat="32.7147071" lon="-16.9893959" /><trkpt lat="32.7146941" lon="-16.9894533" /><trkpt lat="32.7146642" lon="-16.9895636" /><trkpt lat="32.7146751" lon="-16.9896396" /><trkpt lat="32.7147095" lon="-16.9897680" /><trkpt lat="32.7147509" lon="-16.9899030" /><trkpt lat="32.7147807" lon="-16.9899491" /><trkpt lat="32.7148031" lon="-16.9899582" /><trkpt lat="32.7148388" lon="-16.9899688" /><trkpt lat="32.7149693" lon="-16.9899728" /><trkpt lat="32.7150982" lon="-16.9899480" /><trkpt lat="32.7151887" lon="-16.9899075" /><trkpt lat="32.7152532" lon="-16.9898427" /><trkpt lat="32.7152859" lon="-16.9898108" /><trkpt lat="32.7153347" lon="-16.9897861" /><trkpt lat="32.7155033" lon="-16.9897699" /><trkpt lat="32.7156270" lon="-16.9897027" /><trkpt lat="32.7156598" lon="-16.9896529" /><trkpt lat="32.7157150" lon="-16.9895598" /><trkpt lat="32.7157427" lon="-16.9895072" /><trkpt lat="32.7157666" lon="-16.9894858" /><trkpt lat="32.7158107" lon="-16.9894787" /><trkpt lat="32.7158580" lon="-16.9894709" /><trkpt lat="32.7158885" lon="-16.9894692" /><trkpt lat="32.7159859" lon="-16.9894638" /><trkpt lat="32.7160537" lon="-16.9894973" /><trkpt lat="32.7160985" lon="-16.9895307" /><trkpt lat="32.7161426" lon="-16.9895724" /><trkpt lat="32.7161524" lon="-16.9896087" /><trkpt lat="32.7161510" lon="-16.9896824" /><trkpt lat="32.7161484" lon="-16.9897962" /><trkpt lat="32.7161766" lon="-16.9898717" /><trkpt lat="32.7162119" lon="-16.9899238" /><trkpt lat="32.7162829" lon="-16.9899719" /><trkpt lat="32.7163540" lon="-16.9900273" /><trkpt lat="32.7163755" lon="-16.9900499" /><trkpt lat="32.7163895" lon="-16.9901075" /><trkpt lat="32.7163718" lon="-16.9902373" /><trkpt lat="32.7163351" lon="-16.9903457" /><trkpt lat="32.7163234" lon="-16.9904095" /><trkpt lat="32.7163295" lon="-16.9904410" /><trkpt lat="32.7163390" lon="-16.9904746" /><trkpt lat="32.7163657" lon="-16.9905196" /><trkpt lat="32.7163880" lon="-16.9905403" /><trkpt lat="32.7164159" lon="-16.9905449" /><trkpt lat="32.7164349" lon="-16.9905308" /><trkpt lat="32.7164584" lon="-16.9904718" /><trkpt lat="32.7164768" lon="-16.9904183" /><trkpt lat="32.7164943" lon="-16.9903933" /><trkpt lat="32.7165380" lon="-16.9903881" /><trkpt lat="32.7165568" lon="-16.9903775" /><trkpt lat="32.7165925" lon="-16.9903535" /><trkpt lat="32.7166475" lon="-16.9903526" /><trkpt lat="32.7167186" lon="-16.9903717" /><trkpt lat="32.7167522" lon="-16.9903656" /><trkpt lat="32.7167748" lon="-16.9903529" /><trkpt lat="32.7168109" lon="-16.9902923" /><trkpt lat="32.7168358" lon="-16.9902641" /><trkpt lat="32.7168676" lon="-16.9902460" /><trkpt lat="32.7169522" lon="-16.9902060" /><trkpt lat="32.7170158" lon="-16.9901415" /><trkpt lat="32.7170645" lon="-16.9901091" /><trkpt lat="32.7170906" lon="-16.9900999" /><trkpt lat="32.7171231" lon="-16.9901175" /><trkpt lat="32.7171396" lon="-16.9901448" /><trkpt lat="32.7171851" lon="-16.9901778" /><trkpt lat="32.7172236" lon="-16.9901793" /><trkpt lat="32.7172435" lon="-16.9901533" /><trkpt lat="32.7172532" lon="-16.9901351" /><trkpt lat="32.7172527" lon="-16.9900903" /><trkpt lat="32.7172334" lon="-16.9900254" /><trkpt lat="32.7171989" lon="-16.9899447" /><trkpt lat="32.7171567" lon="-16.9898773" /><trkpt lat="32.7171169" lon="-16.9898461" /><trkpt lat="32.7170194" lon="-16.9897905" /><trkpt lat="32.7169954" lon="-16.9897733" /><trkpt lat="32.7169792" lon="-16.9897521" /><trkpt lat="32.7169793" lon="-16.9897238" /><trkpt lat="32.7169939" lon="-16.9897135" /><trkpt lat="32.7170188" lon="-16.9897104" /><trkpt lat="32.7170582" lon="-16.9897169" /><trkpt lat="32.7171109" lon="-16.9897212" /><trkpt lat="32.7172435" lon="-16.9897463" /><trkpt lat="32.7172774" lon="-16.9897633" /><trkpt lat="32.7173035" lon="-16.9897948" /><trkpt lat="32.7173816" lon="-16.9899283" /><trkpt lat="32.7174304" lon="-16.9899915" /><trkpt lat="32.7174842" lon="-16.9900327" /><trkpt lat="32.7175702" lon="-16.9901002" /><trkpt lat="32.7176797" lon="-16.9901800" /><trkpt lat="32.7177431" lon="-16.9902221" /><trkpt lat="32.7178097" lon="-16.9902459" /><trkpt lat="32.7178568" lon="-16.9902520" /><trkpt lat="32.7179207" lon="-16.9902535" /><trkpt lat="32.7179541" lon="-16.9902477" /><trkpt lat="32.7180281" lon="-16.9902327" /><trkpt lat="32.7180579" lon="-16.9902383" /><trkpt lat="32.7181768" lon="-16.9902984" /><trkpt lat="32.7182349" lon="-16.9903515" /><trkpt lat="32.7182671" lon="-16.9903735" /><trkpt lat="32.7183004" lon="-16.9903736" /><trkpt lat="32.7183271" lon="-16.9903557" /><trkpt lat="32.7183758" lon="-16.9903189" /><trkpt lat="32.7184207" lon="-16.9902938" /><trkpt lat="32.7184728" lon="-16.9902781" /><trkpt lat="32.7185621" lon="-16.9902833" /><trkpt lat="32.7186481" lon="-16.9903068" /><trkpt lat="32.7188326" lon="-16.9903202" /><trkpt lat="32.7191234" lon="-16.9903058" /><trkpt lat="32.7191706" lon="-16.9903052" /><trkpt lat="32.7192310" lon="-16.9902941" /><trkpt lat="32.7192716" lon="-16.9902719" /><trkpt lat="32.7193232" lon="-16.9902605" /><trkpt lat="32.7193421" lon="-16.9902536" /><trkpt lat="32.7193867" lon="-16.9902611" /><trkpt lat="32.7194195" lon="-16.9902959" /><trkpt lat="32.7194315" lon="-16.9903489" /><trkpt lat="32.7194747" lon="-16.9903883" /><trkpt lat="32.7195143" lon="-16.9904102" /><trkpt lat="32.7195820" lon="-16.9904248" /><trkpt lat="32.7196506" lon="-16.9904372" /><trkpt lat="32.7197444" lon="-16.9904674" /><trkpt lat="32.7198943" lon="-16.9904869" /><trkpt lat="32.7200938" lon="-16.9904896" /><trkpt lat="32.7201321" lon="-16.9905041" /><trkpt lat="32.7202059" lon="-16.9905574" /><trkpt lat="32.7202578" lon="-16.9906114" /><trkpt lat="32.7203176" lon="-16.9906849" /><trkpt lat="32.7203447" lon="-16.9907070" /><trkpt lat="32.7203644" lon="-16.9907142" /><trkpt lat="32.7204027" lon="-16.9907260" /><trkpt lat="32.7204608" lon="-16.9907144" /><trkpt lat="32.7205358" lon="-16.9906876" /><trkpt lat="32.7206577" lon="-16.9905885" /><trkpt lat="32.7206946" lon="-16.9905438" /><trkpt lat="32.7207233" lon="-16.9904825" /><trkpt lat="32.7207623" lon="-16.9904359" /><trkpt lat="32.7207961" lon="-16.9904179" /><trkpt lat="32.7208416" lon="-16.9903944" /><trkpt lat="32.7208645" lon="-16.9903898" /><trkpt lat="32.7208760" lon="-16.9903934" /><trkpt lat="32.7209185" lon="-16.9904291" /><trkpt lat="32.7209602" lon="-16.9904594" /><trkpt lat="32.7210082" lon="-16.9904862" /><trkpt lat="32.7210291" lon="-16.9904946" /><trkpt lat="32.7210552" lon="-16.9904981" /><trkpt lat="32.7210950" lon="-16.9904817" /><trkpt lat="32.7211289" lon="-16.9904633" /><trkpt lat="32.7211608" lon="-16.9904548" /><trkpt lat="32.7212298" lon="-16.9904672" /><trkpt lat="32.7212600" lon="-16.9904638" /><trkpt lat="32.7212746" lon="-16.9904555" /><trkpt lat="32.7212992" lon="-16.9904429" /><trkpt lat="32.7213181" lon="-16.9904272" /><trkpt lat="32.7213641" lon="-16.9903821" /><trkpt lat="32.7214537" lon="-16.9903050" /><trkpt lat="32.7214705" lon="-16.9902853" /><trkpt lat="32.7214893" lon="-16.9902224" /><trkpt lat="32.7215210" lon="-16.9902083" /><trkpt lat="32.7215251" lon="-16.9901608" /><trkpt lat="32.7216148" lon="-16.9901543" /><trkpt lat="32.7217090" lon="-16.9901517" /><trkpt lat="32.7217837" lon="-16.9901511" /><trkpt lat="32.7218681" lon="-16.9901582" /><trkpt lat="32.7219843" lon="-16.9901609" /><trkpt lat="32.7220658" lon="-16.9901524" /><trkpt lat="32.7221382" lon="-16.9901576" /><trkpt lat="32.7222348" lon="-16.9901849" /><trkpt lat="32.7222660" lon="-16.9901854" /><trkpt lat="32.7223166" lon="-16.9901670" /><trkpt lat="32.7223672" lon="-16.9901629" /><trkpt lat="32.7224063" lon="-16.9901604" /><trkpt lat="32.7224177" lon="-16.9901689" /><trkpt lat="32.7224290" lon="-16.9902032" /><trkpt lat="32.7224321" lon="-16.9902406" /><trkpt lat="32.7224067" lon="-16.9902748" /><trkpt lat="32.7223754" lon="-16.9902876" /><trkpt lat="32.7223617" lon="-16.9902887" /><trkpt lat="32.7223443" lon="-16.9903040" /><trkpt lat="32.7223409" lon="-16.9903389" /><trkpt lat="32.7223689" lon="-16.9903495" /><trkpt lat="32.7224200" lon="-16.9903400" /><trkpt lat="32.7224596" lon="-16.9903243" /><trkpt lat="32.7224939" lon="-16.9902935" /><trkpt lat="32.7225089" lon="-16.9902634" /><trkpt lat="32.7225310" lon="-16.9901644" /><trkpt lat="32.7225520" lon="-16.9900882" /><trkpt lat="32.7225879" lon="-16.9900101" /><trkpt lat="32.7225944" lon="-16.9899556" /><trkpt lat="32.7225999" lon="-16.9899073" /><trkpt lat="32.7226058" lon="-16.9898097" /><trkpt lat="32.7225634" lon="-16.9897071" /><trkpt lat="32.7225596" lon="-16.9896068" /><trkpt lat="32.7225799" lon="-16.9894948" /><trkpt lat="32.7226458" lon="-16.9893001" /><trkpt lat="32.7226765" lon="-16.9891938" /><trkpt lat="32.7227597" lon="-16.9890430" /><trkpt lat="32.7227701" lon="-16.9889679" /><trkpt lat="32.7227970" lon="-16.9888868" /><trkpt lat="32.7228530" lon="-16.9887735" /><trkpt lat="32.7229241" lon="-16.9886950" /><trkpt lat="32.7230215" lon="-16.9886602" /><trkpt lat="32.7230959" lon="-16.9886369" /><trkpt lat="32.7231838" lon="-16.9885887" /><trkpt lat="32.7232329" lon="-16.9885478" /><trkpt lat="32.7232766" lon="-16.9884672" /><trkpt lat="32.7233169" lon="-16.9883190" /><trkpt lat="32.7233918" lon="-16.9881355" /><trkpt lat="32.7234237" lon="-16.9880729" /><trkpt lat="32.7234860" lon="-16.9879974" /><trkpt lat="32.7235364" lon="-16.9879483" /><trkpt lat="32.7235956" lon="-16.9879310" /><trkpt lat="32.7237036" lon="-16.9879382" /><trkpt lat="32.7237790" lon="-16.9879713" /><trkpt lat="32.7238738" lon="-16.9880203" /><trkpt lat="32.7239450" lon="-16.9880603" /><trkpt lat="32.7240673" lon="-16.9881384" /><trkpt lat="32.7241391" lon="-16.9881904" /><trkpt lat="32.7241842" lon="-16.9882175" /><trkpt lat="32.7242333" lon="-16.9882154" /><trkpt lat="32.7242665" lon="-16.9882046" /><trkpt lat="32.7243544" lon="-16.9881798" /><trkpt lat="32.7245191" lon="-16.9881861" /><trkpt lat="32.7245830" lon="-16.9882083" /><trkpt lat="32.7246519" lon="-16.9882408" /><trkpt lat="32.7246916" lon="-16.9882433" /><trkpt lat="32.7247367" lon="-16.9882192" /><trkpt lat="32.7247841" lon="-16.9882241" /><trkpt lat="32.7248328" lon="-16.9882260" /><trkpt lat="32.7248734" lon="-16.9882074" /><trkpt lat="32.7248990" lon="-16.9881436" /><trkpt lat="32.7249181" lon="-16.9880961" /><trkpt lat="32.7249530" lon="-16.9880705" /><trkpt lat="32.7249959" lon="-16.9880629" /><trkpt lat="32.7250228" lon="-16.9880257" /><trkpt lat="32.7250483" lon="-16.9879857" /><trkpt lat="32.7250549" lon="-16.9879312" /><trkpt lat="32.7250298" lon="-16.9878119" /><trkpt lat="32.7250159" lon="-16.9877570" /><trkpt lat="32.7250236" lon="-16.9877115" /><trkpt lat="32.7250504" lon="-16.9876243" /><trkpt lat="32.7250520" lon="-16.9875507" /><trkpt lat="32.7250309" lon="-16.9874732" /><trkpt lat="32.7249684" lon="-16.9873779" /><trkpt lat="32.7249264" lon="-16.9872621" /><trkpt lat="32.7249071" lon="-16.9871358" /><trkpt lat="32.7249041" lon="-16.9870217" /><trkpt lat="32.7249131" lon="-16.9869665" /><trkpt lat="32.7249212" lon="-16.9869329" /><trkpt lat="32.7249225" lon="-16.9869074" /><trkpt lat="32.7249062" lon="-16.9868767" /><trkpt lat="32.7248804" lon="-16.9868639" /><trkpt lat="32.7248088" lon="-16.9868264" /><trkpt lat="32.7247519" lon="-16.9867560" /><trkpt lat="32.7246974" lon="-16.9865637" /><trkpt lat="32.7246787" lon="-16.9864940" /><trkpt lat="32.7246707" lon="-16.9864186" /><trkpt lat="32.7246774" lon="-16.9862956" /><trkpt lat="32.7247060" lon="-16.9862153" /><trkpt lat="32.7247287" lon="-16.9861267" /><trkpt lat="32.7247242" lon="-16.9860617" /><trkpt lat="32.7247101" lon="-16.9860072" /><trkpt lat="32.7246821" lon="-16.9859586" /><trkpt lat="32.7246200" lon="-16.9858714" /><trkpt lat="32.7245786" lon="-16.9858064" /><trkpt lat="32.7245612" lon="-16.9857647" /><trkpt lat="32.7245553" lon="-16.9857012" /><trkpt lat="32.7245668" lon="-16.9855829" /><trkpt lat="32.7245765" lon="-16.9854888" /><trkpt lat="32.7246000" lon="-16.9854069" /><trkpt lat="32.7246754" lon="-16.9851358" /><trkpt lat="32.7247092" lon="-16.9849828" /><trkpt lat="32.7247299" lon="-16.9849375" /><trkpt lat="32.7247625" lon="-16.9848922" /><trkpt lat="32.7248134" lon="-16.9848293" /><trkpt lat="32.7248708" lon="-16.9847640" /><trkpt lat="32.7249088" lon="-16.9847204" /><trkpt lat="32.7250199" lon="-16.9846692" /><trkpt lat="32.7251908" lon="-16.9846217" /><trkpt lat="32.7252761" lon="-16.9846103" /><trkpt lat="32.7253668" lon="-16.9845969" /><trkpt lat="32.7254630" lon="-16.9845551" /><trkpt lat="32.7255353" lon="-16.9845399" /><trkpt lat="32.7256008" lon="-16.9845324" /><trkpt lat="32.7256424" lon="-16.9845418" /><trkpt lat="32.7256732" lon="-16.9845690" /><trkpt lat="32.7257044" lon="-16.9846020" /><trkpt lat="32.7257254" lon="-16.9846695" /><trkpt lat="32.7257426" lon="-16.9847228" /><trkpt lat="32.7257567" lon="-16.9847438" /><trkpt lat="32.7257879" lon="-16.9847527" /><trkpt lat="32.7258463" lon="-16.9847465" /><trkpt lat="32.7258950" lon="-16.9847038" /><trkpt lat="32.7259591" lon="-16.9846630" /><trkpt lat="32.7260383" lon="-16.9846157" /><trkpt lat="32.7260962" lon="-16.9845978" /><trkpt lat="32.7261395" lon="-16.9846070" /><trkpt lat="32.7262078" lon="-16.9846540" /><trkpt lat="32.7262449" lon="-16.9847135" /><trkpt lat="32.7263249" lon="-16.9847649" /><trkpt lat="32.7263638" lon="-16.9848228" /><trkpt lat="32.7264042" lon="-16.9848788" /><trkpt lat="32.7264645" lon="-16.9849736" /><trkpt lat="32.7265341" lon="-16.9851017" /><trkpt lat="32.7265667" lon="-16.9851969" /><trkpt lat="32.7265896" lon="-16.9852979" /><trkpt lat="32.7265939" lon="-16.9853274" /><trkpt lat="32.7265863" lon="-16.9853752" /><trkpt lat="32.7265710" lon="-16.9854159" /><trkpt lat="32.7265713" lon="-16.9854649" /><trkpt lat="32.7265889" lon="-16.9855048" /><trkpt lat="32.7266158" lon="-16.9855234" /><trkpt lat="32.7266419" lon="-16.9855277" /><trkpt lat="32.7266613" lon="-16.9855124" /><trkpt lat="32.7267593" lon="-16.9854365" /><trkpt lat="32.7268494" lon="-16.9853945" /><trkpt lat="32.7269159" lon="-16.9853865" /><trkpt lat="32.7270018" lon="-16.9854013" /><trkpt lat="32.7270810" lon="-16.9853876" /><trkpt lat="32.7271864" lon="-16.9853400" /><trkpt lat="32.7272623" lon="-16.9853094" /><trkpt lat="32.7273268" lon="-16.9853050" /><trkpt lat="32.7273907" lon="-16.9853128" /><trkpt lat="32.7274341" lon="-16.9853308" /><trkpt lat="32.7275574" lon="-16.9854101" /><trkpt lat="32.7275921" lon="-16.9854523" /><trkpt lat="32.7276045" lon="-16.9854995" /><trkpt lat="32.7276208" lon="-16.9855412" /><trkpt lat="32.7276516" lon="-16.9855614" /><trkpt lat="32.7278274" lon="-16.9855765" /><trkpt lat="32.7278836" lon="-16.9855746" /><trkpt lat="32.7279348" lon="-16.9855372" /><trkpt lat="32.7280278" lon="-16.9854446" /><trkpt lat="32.7280582" lon="-16.9854291" /><trkpt lat="32.7280724" lon="-16.9854042" /><trkpt lat="32.7280782" lon="-16.9853703" /><trkpt lat="32.7280806" lon="-16.9853109" /><trkpt lat="32.7280993" lon="-16.9852487" /><trkpt lat="32.7281506" lon="-16.9852068" /><trkpt lat="32.7281962" lon="-16.9851455" /><trkpt lat="32.7282209" lon="-16.9850833" /><trkpt lat="32.7282366" lon="-16.9850497" /><trkpt lat="32.7282498" lon="-16.9850278" /><trkpt lat="32.7282712" lon="-16.9850169" /><trkpt lat="32.7282852" lon="-16.9850206" /><trkpt lat="32.7282949" lon="-16.9850305" /><trkpt lat="32.7282961" lon="-16.9850593" /><trkpt lat="32.7282958" lon="-16.9851007" /><trkpt lat="32.7282994" lon="-16.9851326" /><trkpt lat="32.7283080" lon="-16.9851703" /><trkpt lat="32.7283261" lon="-16.9852084" /><trkpt lat="32.7283442" lon="-16.9852333" /><trkpt lat="32.7283833" lon="-16.9852626" /><trkpt lat="32.7284480" lon="-16.9852965" /><trkpt lat="32.7284993" lon="-16.9853201" /><trkpt lat="32.7286184" lon="-16.9853628" /><trkpt lat="32.7286780" lon="-16.9853807" /><trkpt lat="32.7287621" lon="-16.9853927" /><trkpt lat="32.7288853" lon="-16.9853860" /><trkpt lat="32.7290392" lon="-16.9853805" /><trkpt lat="32.7291085" lon="-16.9853765" /><trkpt lat="32.7291914" lon="-16.9853817" /><trkpt lat="32.7292662" lon="-16.9853913" /><trkpt lat="32.7293353" lon="-16.9853921" /><trkpt lat="32.7293824" lon="-16.9853781" /><trkpt lat="32.7294184" lon="-16.9853787" /><trkpt lat="32.7294706" lon="-16.9854043" /><trkpt lat="32.7295368" lon="-16.9854121" /><trkpt lat="32.7296263" lon="-16.9854563" /><trkpt lat="32.7297845" lon="-16.9855103" /><trkpt lat="32.7298670" lon="-16.9855393" /><trkpt lat="32.7299532" lon="-16.9855829" /><trkpt lat="32.7299988" lon="-16.9856125" /><trkpt lat="32.7300357" lon="-16.9856250" /><trkpt lat="32.7300958" lon="-16.9856210" /><trkpt lat="32.7301984" lon="-16.9855800" /><trkpt lat="32.7302813" lon="-16.9855758" /><trkpt lat="32.7303922" lon="-16.9855971" /><trkpt lat="32.7305187" lon="-16.9856492" /><trkpt lat="32.7306140" lon="-16.9856681" /><trkpt lat="32.7307384" lon="-16.9856961" /><trkpt lat="32.7308519" lon="-16.9857198" /><trkpt lat="32.7309690" lon="-16.9857703" /><trkpt lat="32.7310398" lon="-16.9858064" /><trkpt lat="32.7311630" lon="-16.9858289" /><trkpt lat="32.7312481" lon="-16.9858462" /><trkpt lat="32.7313001" lon="-16.9858604" /><trkpt lat="32.7313951" lon="-16.9859132" /><trkpt lat="32.7314707" lon="-16.9859742" /><trkpt lat="32.7315934" lon="-16.9860700" /><trkpt lat="32.7316619" lon="-16.9861169" /><trkpt lat="32.7317846" lon="-16.9862609" /><trkpt lat="32.7318293" lon="-16.9863139" /><trkpt lat="32.7318566" lon="-16.9863308" /><trkpt lat="32.7319284" lon="-16.9863375" /><trkpt lat="32.7319888" lon="-16.9863261" /><trkpt lat="32.7320584" lon="-16.9862830" /><trkpt lat="32.7321250" lon="-16.9862571" /><trkpt lat="32.7322125" lon="-16.9862571" /><trkpt lat="32.7322948" lon="-16.9862782" /><trkpt lat="32.7323728" lon="-16.9862881" /><trkpt lat="32.7324433" lon="-16.9862948" /><trkpt lat="32.7324918" lon="-16.9862914" /><trkpt lat="32.7325114" lon="-16.9863015" /><trkpt lat="32.7325288" lon="-16.9863314" /><trkpt lat="32.7325492" lon="-16.9863946" /><trkpt lat="32.7325761" lon="-16.9864749" /><trkpt lat="32.7326215" lon="-16.9865424" /><trkpt lat="32.7326311" lon="-16.9865557" /><trkpt lat="32.7326504" lon="-16.9865590" /><trkpt lat="32.7326832" lon="-16.9865468" /><trkpt lat="32.7327783" lon="-16.9865518" /><trkpt lat="32.7328130" lon="-16.9865692" /><trkpt lat="32.7328563" lon="-16.9866199" /><trkpt lat="32.7329026" lon="-16.9866430" /><trkpt lat="32.7329573" lon="-16.9866544" /><trkpt lat="32.7329862" lon="-16.9866778" /><trkpt lat="32.7330045" lon="-16.9867215" /><trkpt lat="32.7329973" lon="-16.9867714" /><trkpt lat="32.7329998" lon="-16.9868255" /><trkpt lat="32.7330289" lon="-16.9868756" /><trkpt lat="32.7330784" lon="-16.9868847" /><trkpt lat="32.7331212" lon="-16.9868903" /><trkpt lat="32.7331543" lon="-16.9869035" /><trkpt lat="32.7332055" lon="-16.9869191" /><trkpt lat="32.7332827" lon="-16.9871437" /><trkpt lat="32.7333632" lon="-16.9873412" /><trkpt lat="32.7334137" lon="-16.9875096" /><trkpt lat="32.7334611" lon="-16.9876477" /><trkpt lat="32.7335073" lon="-16.9878054" /><trkpt lat="32.7335374" lon="-16.9879586" /><trkpt lat="32.7335324" lon="-16.9880661" /><trkpt lat="32.7335000" lon="-16.9881696" /><trkpt lat="32.7334587" lon="-16.9882680" /><trkpt lat="32.7334243" lon="-16.9883745" /><trkpt lat="32.7334100" lon="-16.9885982" /><trkpt lat="32.7334110" lon="-16.9888989" /><trkpt lat="32.7334210" lon="-16.9890855" /><trkpt lat="32.7333941" lon="-16.9892390" /><trkpt lat="32.7333689" lon="-16.9893320" /><trkpt lat="32.7333180" lon="-16.9893996" /><trkpt lat="32.7332421" lon="-16.9894455" /><trkpt lat="32.7331636" lon="-16.9895274" /><trkpt lat="32.7331414" lon="-16.9895846" /><trkpt lat="32.7331398" lon="-16.9896336" /><trkpt lat="32.7331494" lon="-16.9896792" /><trkpt lat="32.7331743" lon="-16.9897350" /><trkpt lat="32.7332300" lon="-16.9897798" /><trkpt lat="32.7333097" lon="-16.9898292" /><trkpt lat="32.7334199" lon="-16.9898750" /><trkpt lat="32.7335038" lon="-16.9899187" /><trkpt lat="32.7335545" lon="-16.9899610" /><trkpt lat="32.7336086" lon="-16.9900276" /><trkpt lat="32.7336389" lon="-16.9901454" /><trkpt lat="32.7336676" lon="-16.9902178" /><trkpt lat="32.7337624" lon="-16.9904110" /><trkpt lat="32.7338034" lon="-16.9905035" /><trkpt lat="32.7338422" lon="-16.9906222" /><trkpt lat="32.7338717" lon="-16.9907010" /><trkpt lat="32.7340181" lon="-16.9908479" /><trkpt lat="32.7340904" lon="-16.9909616" /><trkpt lat="32.7341234" lon="-16.9910367" /><trkpt lat="32.7341453" lon="-16.9911170" /><trkpt lat="32.7341842" lon="-16.9911831" /><trkpt lat="32.7342328" lon="-16.9912181" /><trkpt lat="32.7342549" lon="-16.9912767" /><trkpt lat="32.7342715" lon="-16.9914000" /><trkpt lat="32.7343355" lon="-16.9915767" /><trkpt lat="32.7343643" lon="-16.9917765" /><trkpt lat="32.7343513" lon="-16.9919325" /><trkpt lat="32.7343690" lon="-16.9920295" /><trkpt lat="32.7343493" lon="-16.9921619" /><trkpt lat="32.7343175" lon="-16.9922070" /><trkpt lat="32.7342831" lon="-16.9923024" /><trkpt lat="32.7342785" lon="-16.9923908" /><trkpt lat="32.7343005" lon="-16.9925105" /><trkpt lat="32.7343569" lon="-16.9926060" /><trkpt lat="32.7344396" lon="-16.9926840" /><trkpt lat="32.7345271" lon="-16.9927289" /><trkpt lat="32.7346107" lon="-16.9927724" /><trkpt lat="32.7346840" lon="-16.9928078" /><trkpt lat="32.7347197" lon="-16.9928029" /><trkpt lat="32.7347401" lon="-16.9927777" /><trkpt lat="32.7347841" lon="-16.9927050" /><trkpt lat="32.7348478" lon="-16.9926191" /><trkpt lat="32.7349167" lon="-16.9925381" /><trkpt lat="32.7349508" lon="-16.9924723" /><trkpt lat="32.7349884" lon="-16.9924553" /><trkpt lat="32.7350349" lon="-16.9924677" /><trkpt lat="32.7350475" lon="-16.9924856" /><trkpt lat="32.7350583" lon="-16.9925401" /><trkpt lat="32.7350776" lon="-16.9926043" /><trkpt lat="32.7351097" lon="-16.9926370" /><trkpt lat="32.7351749" lon="-16.9926637" /><trkpt lat="32.7352234" lon="-16.9926586" /><trkpt lat="32.7352479" lon="-16.9926596" /><trkpt lat="32.7352686" lon="-16.9926732" /><trkpt lat="32.7352986" lon="-16.9927276" /><trkpt lat="32.7353653" lon="-16.9928022" /><trkpt lat="32.7353853" lon="-16.9928454" /><trkpt lat="32.7354189" lon="-16.9928886" /><trkpt lat="32.7354542" lon="-16.9929153" /><trkpt lat="32.7354860" lon="-16.9929277" /><trkpt lat="32.7355240" lon="-16.9929206" /><trkpt lat="32.7355585" lon="-16.9928912" /><trkpt lat="32.7356203" lon="-16.9928446" /><trkpt lat="32.7356736" lon="-16.9928088" /><trkpt lat="32.7357150" lon="-16.9927890" /><trkpt lat="32.7357721" lon="-16.9927806" /><trkpt lat="32.7357949" lon="-16.9927946" /><trkpt lat="32.7358115" lon="-16.9928068" /><trkpt lat="32.7358375" lon="-16.9928308" /><trkpt lat="32.7358537" lon="-16.9928700" /><trkpt lat="32.7358522" lon="-16.9929752" /><trkpt lat="32.7358660" lon="-16.9930885" /><trkpt lat="32.7358797" lon="-16.9931345" /><trkpt lat="32.7359011" lon="-16.9931805" /><trkpt lat="32.7359638" lon="-16.9932099" /><trkpt lat="32.7360245" lon="-16.9932185" /><trkpt lat="32.7361432" lon="-16.9932232" /><trkpt lat="32.7361987" lon="-16.9932314" /><trkpt lat="32.7362414" lon="-16.9932539" /><trkpt lat="32.7362601" lon="-16.9932890" /><trkpt lat="32.7362753" lon="-16.9933588" /><trkpt lat="32.7362625" lon="-16.9934693" /><trkpt lat="32.7362667" lon="-16.9935782" /><trkpt lat="32.7362847" lon="-16.9936371" /><trkpt lat="32.7363258" lon="-16.9937225" /><trkpt lat="32.7363354" lon="-16.9937687" /><trkpt lat="32.7363442" lon="-16.9938333" /><trkpt lat="32.7363652" lon="-16.9938647" /><trkpt lat="32.7363999" lon="-16.9938806" /><trkpt lat="32.7364706" lon="-16.9938802" /><trkpt lat="32.7365197" lon="-16.9938673" /><trkpt lat="32.7365665" lon="-16.9938608" /><trkpt lat="32.7365910" lon="-16.9938746" /><trkpt lat="32.7366666" lon="-16.9939630" /><trkpt lat="32.7367231" lon="-16.9940101" /><trkpt lat="32.7367583" lon="-16.9940437" /><trkpt lat="32.7367774" lon="-16.9940943" /><trkpt lat="32.7367598" lon="-16.9941579" /><trkpt lat="32.7367618" lon="-16.9942652" /><trkpt lat="32.7367988" lon="-16.9943531" /><trkpt lat="32.7368740" lon="-16.9944435" /><trkpt lat="32.7368966" lon="-16.9944817" /><trkpt lat="32.7368964" lon="-16.9945076" /><trkpt lat="32.7368577" lon="-16.9945356" /><trkpt lat="32.7368179" lon="-16.9945605" /><trkpt lat="32.7367903" lon="-16.9945886" /><trkpt lat="32.7367485" lon="-16.9946444" /><trkpt lat="32.7366980" lon="-16.9947242" /><trkpt lat="32.7366567" lon="-16.9947542" /><trkpt lat="32.7365957" lon="-16.9947624" /><trkpt lat="32.7365532" lon="-16.9947998" /><trkpt lat="32.7365187" lon="-16.9948351" /><trkpt lat="32.7364760" lon="-16.9949018" /><trkpt lat="32.7364641" lon="-16.9949509" /><trkpt lat="32.7364730" lon="-16.9950269" /><trkpt lat="32.7364951" lon="-16.9950735" /><trkpt lat="32.7365052" lon="-16.9951380" /><trkpt lat="32.7365113" lon="-16.9952167" /><trkpt lat="32.7365051" lon="-16.9953014" /><trkpt lat="32.7364759" lon="-16.9953548" /><trkpt lat="32.7364097" lon="-16.9954147" /><trkpt lat="32.7363849" lon="-16.9954654" /><trkpt lat="32.7363450" lon="-16.9955829" /><trkpt lat="32.7362806" lon="-16.9957414" /><trkpt lat="32.7362550" lon="-16.9957902" /><trkpt lat="32.7362444" lon="-16.9958641" /><trkpt lat="32.7362344" lon="-16.9958899" /><trkpt lat="32.7361675" lon="-16.9959439" /><trkpt lat="32.7361363" lon="-16.9959937" /><trkpt lat="32.7361260" lon="-16.9960654" /><trkpt lat="32.7361003" lon="-16.9961008" /><trkpt lat="32.7360648" lon="-16.9961275" /><trkpt lat="32.7360142" lon="-16.9961633" /><trkpt lat="32.7359611" lon="-16.9961888" /><trkpt lat="32.7358752" lon="-16.9962115" /><trkpt lat="32.7357651" lon="-16.9962727" /><trkpt lat="32.7357004" lon="-16.9963282" /><trkpt lat="32.7356392" lon="-16.9964636" /><trkpt lat="32.7356108" lon="-16.9965283" /><trkpt lat="32.7355939" lon="-16.9965980" /><trkpt lat="32.7356172" lon="-16.9966809" /><trkpt lat="32.7356249" lon="-16.9967329" /><trkpt lat="32.7356148" lon="-16.9967849" /><trkpt lat="32.7356108" lon="-16.9968201" /><trkpt lat="32.7355826" lon="-16.9968876" /><trkpt lat="32.7355123" lon="-16.9969187" /><trkpt lat="32.7354047" lon="-16.9969707" /><trkpt lat="32.7352780" lon="-16.9970428" /><trkpt lat="32.7351688" lon="-16.9971129" /><trkpt lat="32.7350835" lon="-16.9972378" /><trkpt lat="32.7349667" lon="-16.9973112" /><trkpt lat="32.7349116" lon="-16.9973916" /><trkpt lat="32.7349055" lon="-16.9974756" /><trkpt lat="32.7349206" lon="-16.9975645" /><trkpt lat="32.7349203" lon="-16.9976231" /><trkpt lat="32.7349099" lon="-16.9976697" /><trkpt lat="32.7348718" lon="-16.9977351" /><trkpt lat="32.7348075" lon="-16.9977884" /><trkpt lat="32.7346888" lon="-16.9978487" /><trkpt lat="32.7345956" lon="-16.9978933" /><trkpt lat="32.7345286" lon="-16.9979222" /><trkpt lat="32.7343581" lon="-16.9979684" /><trkpt lat="32.7342930" lon="-16.9980159" /><trkpt lat="32.7342278" lon="-16.9980874" /><trkpt lat="32.7341597" lon="-16.9981358" /><trkpt lat="32.7339856" lon="-16.9981721" /><trkpt lat="32.7338568" lon="-16.9982293" /><trkpt lat="32.7336922" lon="-16.9983135" /><trkpt lat="32.7335643" lon="-16.9983469" /><trkpt lat="32.7335158" lon="-16.9983695" /><trkpt lat="32.7334733" lon="-16.9984295" /><trkpt lat="32.7334651" lon="-16.9985075" /><trkpt lat="32.7334717" lon="-16.9985967" /><trkpt lat="32.7334894" lon="-16.9986954" /><trkpt lat="32.7335020" lon="-16.9988140" /><trkpt lat="32.7334986" lon="-16.9989457" /><trkpt lat="32.7334801" lon="-16.9990849" /><trkpt lat="32.7334451" lon="-16.9992048" /><trkpt lat="32.7334099" lon="-16.9992534" /><trkpt lat="32.7333585" lon="-16.9993140" /><trkpt lat="32.7333285" lon="-16.9993902" /><trkpt lat="32.7333166" lon="-16.9994832" /><trkpt lat="32.7333078" lon="-16.9996077" /><trkpt lat="32.7332819" lon="-16.9996986" /><trkpt lat="32.7332424" lon="-16.9997767" /><trkpt lat="32.7331821" lon="-16.9998634" /><trkpt lat="32.7331432" lon="-17.0000020" /><trkpt lat="32.7331470" lon="-17.0000758" /><trkpt lat="32.7331545" lon="-17.0001126" /><trkpt lat="32.7331908" lon="-17.0001522" /><trkpt lat="32.7332435" lon="-17.0001715" /><trkpt lat="32.7333279" lon="-17.0001511" /><trkpt lat="32.7333921" lon="-17.0001289" /><trkpt lat="32.7335402" lon="-17.0001042" /><trkpt lat="32.7336219" lon="-17.0000570" /><trkpt lat="32.7336653" lon="-17.0000491" /><trkpt lat="32.7337329" lon="-17.0000628" /><trkpt lat="32.7338169" lon="-17.0000460" /><trkpt lat="32.7338586" lon="-17.0000472" /><trkpt lat="32.7339023" lon="-17.0000676" /><trkpt lat="32.7339365" lon="-17.0001174" /><trkpt lat="32.7339742" lon="-17.0002240" /><trkpt lat="32.7339968" lon="-17.0003119" /><trkpt lat="32.7340170" lon="-17.0003727" /><trkpt lat="32.7340610" lon="-17.0004075" /><trkpt lat="32.7341070" lon="-17.0004139" /><trkpt lat="32.7341429" lon="-17.0003963" /><trkpt lat="32.7341882" lon="-17.0003450" /><trkpt lat="32.7342539" lon="-17.0002969" /><trkpt lat="32.7343319" lon="-17.0003008" /><trkpt lat="32.7343761" lon="-17.0002841" /><trkpt lat="32.7344327" lon="-17.0002374" /><trkpt lat="32.7344813" lon="-17.0002149" /><trkpt lat="32.7345280" lon="-17.0002430" /><trkpt lat="32.7345655" lon="-17.0002933" /><trkpt lat="32.7346321" lon="-17.0003237" /><trkpt lat="32.7347289" lon="-17.0003206" /><trkpt lat="32.7348660" lon="-17.0003186" /><trkpt lat="32.7349633" lon="-17.0003291" /><trkpt lat="32.7350290" lon="-17.0003203" /><trkpt lat="32.7350894" lon="-17.0002935" /><trkpt lat="32.7351463" lon="-17.0002281" /><trkpt lat="32.7352370" lon="-17.0001166" /><trkpt lat="32.7353238" lon="-17.0000561" /><trkpt lat="32.7354301" lon="-16.9999808" /><trkpt lat="32.7355339" lon="-16.9999213" /><trkpt lat="32.7356467" lon="-16.9998673" /><trkpt lat="32.7357458" lon="-16.9998625" /><trkpt lat="32.7357787" lon="-16.9998662" /><trkpt lat="32.7358099" lon="-16.9998688" /><trkpt lat="32.7358480" lon="-16.9998835" /><trkpt lat="32.7359478" lon="-16.9999469" /><trkpt lat="32.7360385" lon="-16.9999925" /><trkpt lat="32.7360837" lon="-17.0000164" /><trkpt lat="32.7361409" lon="-17.0000607" /><trkpt lat="32.7362016" lon="-17.0000967" /><trkpt lat="32.7362572" lon="-17.0001042" /><trkpt lat="32.7363184" lon="-17.0000888" /><trkpt lat="32.7363753" lon="-17.0000674" /><trkpt lat="32.7364638" lon="-16.9999675" /><trkpt lat="32.7365246" lon="-16.9998860" /><trkpt lat="32.7365740" lon="-16.9998085" /><trkpt lat="32.7365936" lon="-16.9997940" /><trkpt lat="32.7366252" lon="-16.9997917" /><trkpt lat="32.7366797" lon="-16.9998545" /><trkpt lat="32.7367253" lon="-16.9998787" /><trkpt lat="32.7367655" lon="-16.9998902" /><trkpt lat="32.7368205" lon="-16.9999336" /><trkpt lat="32.7368853" lon="-16.9999538" /><trkpt lat="32.7369358" lon="-17.0000246" /><trkpt lat="32.7369715" lon="-17.0001491" /><trkpt lat="32.7369954" lon="-17.0002563" /><trkpt lat="32.7370186" lon="-17.0003700" /><trkpt lat="32.7370457" lon="-17.0005121" /><trkpt lat="32.7370839" lon="-17.0006323" /><trkpt lat="32.7371338" lon="-17.0007126" /><trkpt lat="32.7371947" lon="-17.0007966" /><trkpt lat="32.7372518" lon="-17.0008719" /><trkpt lat="32.7373075" lon="-17.0009342" /><trkpt lat="32.7373366" lon="-17.0009893" /><trkpt lat="32.7373539" lon="-17.0010589" /><trkpt lat="32.7373429" lon="-17.0011280" /><trkpt lat="32.7373079" lon="-17.0012165" /><trkpt lat="32.7372486" lon="-17.0012988" /><trkpt lat="32.7372077" lon="-17.0013580" /><trkpt lat="32.7372043" lon="-17.0014059" /><trkpt lat="32.7372112" lon="-17.0014375" /><trkpt lat="32.7372212" lon="-17.0014783" /><trkpt lat="32.7372432" lon="-17.0015089" /><trkpt lat="32.7372687" lon="-17.0015280" /><trkpt lat="32.7373061" lon="-17.0015370" /><trkpt lat="32.7373420" lon="-17.0015314" /><trkpt lat="32.7373830" lon="-17.0015255" /><trkpt lat="32.7374368" lon="-17.0015441" /><trkpt lat="32.7375161" lon="-17.0016231" /><trkpt lat="32.7375913" lon="-17.0016802" /><trkpt lat="32.7377001" lon="-17.0017318" /><trkpt lat="32.7377453" lon="-17.0017462" /><trkpt lat="32.7377788" lon="-17.0018066" /><trkpt lat="32.7378217" lon="-17.0018690" /><trkpt lat="32.7378566" lon="-17.0018880" /><trkpt lat="32.7379104" lon="-17.0018876" /><trkpt lat="32.7380384" lon="-17.0018783" /><trkpt lat="32.7381733" lon="-17.0018647" /><trkpt lat="32.7382723" lon="-17.0018419" /><trkpt lat="32.7383832" lon="-17.0017808" /><trkpt lat="32.7384821" lon="-17.0017352" /><trkpt lat="32.7385760" lon="-17.0017016" /><trkpt lat="32.7386512" lon="-17.0016944" /><trkpt lat="32.7386905" lon="-17.0016750" /><trkpt lat="32.7387381" lon="-17.0016166" /><trkpt lat="32.7387805" lon="-17.0015429" /><trkpt lat="32.7388972" lon="-17.0013963" /><trkpt lat="32.7390572" lon="-17.0012796" /><trkpt lat="32.7391775" lon="-17.0012281" /><trkpt lat="32.7393243" lon="-17.0011954" /><trkpt lat="32.7394223" lon="-17.0011808" /><trkpt lat="32.7395222" lon="-17.0011021" /><trkpt lat="32.7395832" lon="-17.0010804" /><trkpt lat="32.7396279" lon="-17.0010886" /><trkpt lat="32.7396604" lon="-17.0011472" /><trkpt lat="32.7397147" lon="-17.0012073" /><trkpt lat="32.7398307" lon="-17.0012791" /><trkpt lat="32.7398980" lon="-17.0013161" /><trkpt lat="32.7399875" lon="-17.0013494" /><trkpt lat="32.7400422" lon="-17.0014037" /><trkpt lat="32.7400856" lon="-17.0014855" /><trkpt lat="32.7401259" lon="-17.0016187" /><trkpt lat="32.7401334" lon="-17.0017069" /><trkpt lat="32.7401225" lon="-17.0017527" /><trkpt lat="32.7401015" lon="-17.0017984" /><trkpt lat="32.7400914" lon="-17.0018297" /><trkpt lat="32.7401065" lon="-17.0018935" /><trkpt lat="32.7401289" lon="-17.0019522" /><trkpt lat="32.7401862" lon="-17.0020275" /><trkpt lat="32.7402610" lon="-17.0021054" /><trkpt lat="32.7402912" lon="-17.0021755" /><trkpt lat="32.7403154" lon="-17.0022947" /><trkpt lat="32.7403240" lon="-17.0024055" /><trkpt lat="32.7403739" lon="-17.0025820" /><trkpt lat="32.7403841" lon="-17.0027152" /><trkpt lat="32.7403798" lon="-17.0028666" /><trkpt lat="32.7403984" lon="-17.0030046" /><trkpt lat="32.7404261" lon="-17.0031477" /><trkpt lat="32.7404109" lon="-17.0032953" /><trkpt lat="32.7404231" lon="-17.0033849" /><trkpt lat="32.7404654" lon="-17.0034280" /><trkpt lat="32.7406060" lon="-17.0034498" /><trkpt lat="32.7406664" lon="-17.0034760" /><trkpt lat="32.7406750" lon="-17.0035582" /><trkpt lat="32.7406459" lon="-17.0036537" /><trkpt lat="32.7406498" lon="-17.0037807" /><trkpt lat="32.7406639" lon="-17.0039435" /><trkpt lat="32.7406876" lon="-17.0040211" /><trkpt lat="32.7407033" lon="-17.0040818" /><trkpt lat="32.7406772" lon="-17.0041267" /><trkpt lat="32.7406430" lon="-17.0041547" /><trkpt lat="32.7405791" lon="-17.0042296" /><trkpt lat="32.7405494" lon="-17.0043048" /><trkpt lat="32.7405461" lon="-17.0043809" /><trkpt lat="32.7405357" lon="-17.0044629" /><trkpt lat="32.7405041" lon="-17.0045282" /><trkpt lat="32.7403738" lon="-17.0046571" /><trkpt lat="32.7403165" lon="-17.0047889" /><trkpt lat="32.7403253" lon="-17.0049406" /><trkpt lat="32.7403425" lon="-17.0050431" /><trkpt lat="32.7403528" lon="-17.0051044" /><trkpt lat="32.7403817" lon="-17.0051619" /><trkpt lat="32.7404245" lon="-17.0051967" /><trkpt lat="32.7404326" lon="-17.0052242" /><trkpt lat="32.7404106" lon="-17.0052466" /><trkpt lat="32.7403754" lon="-17.0052634" /><trkpt lat="32.7403141" lon="-17.0052567" /><trkpt lat="32.7402408" lon="-17.0052249" /><trkpt lat="32.7401975" lon="-17.0051840" /><trkpt lat="32.7401854" lon="-17.0051036" /><trkpt lat="32.7401598" lon="-17.0049735" /><trkpt lat="32.7401175" lon="-17.0048918" /><trkpt lat="32.7400266" lon="-17.0048078" /><trkpt lat="32.7400050" lon="-17.0047936" /><trkpt lat="32.7399852" lon="-17.0047969" /><trkpt lat="32.7399820" lon="-17.0048252" /><trkpt lat="32.7399920" lon="-17.0048655" /><trkpt lat="32.7400262" lon="-17.0049243" /><trkpt lat="32.7400380" lon="-17.0049736" /><trkpt lat="32.7400439" lon="-17.0050470" /><trkpt lat="32.7400192" lon="-17.0051418" /><trkpt lat="32.7399615" lon="-17.0052365" /><trkpt lat="32.7399399" lon="-17.0052744" /><trkpt lat="32.7399343" lon="-17.0053053" /><trkpt lat="32.7399334" lon="-17.0053414" /><trkpt lat="32.7399441" lon="-17.0053775" /><trkpt lat="32.7399968" lon="-17.0054461" /><trkpt lat="32.7400795" lon="-17.0055133" /><trkpt lat="32.7402597" lon="-17.0056024" /><trkpt lat="32.7403246" lon="-17.0056482" /><trkpt lat="32.7403895" lon="-17.0057050" /><trkpt lat="32.7404396" lon="-17.0057640" /><trkpt lat="32.7404384" lon="-17.0058201" /><trkpt lat="32.7404115" lon="-17.0058395" /><trkpt lat="32.7403721" lon="-17.0058517" /><trkpt lat="32.7403338" lon="-17.0058546" /><trkpt lat="32.7402271" lon="-17.0058291" /><trkpt lat="32.7401072" lon="-17.0058116" /><trkpt lat="32.7399374" lon="-17.0058302" /><trkpt lat="32.7398392" lon="-17.0057927" /><trkpt lat="32.7398255" lon="-17.0058049" /><trkpt lat="32.7398259" lon="-17.0058342" /><trkpt lat="32.7398834" lon="-17.0058904" /><trkpt lat="32.7399147" lon="-17.0059445" /><trkpt lat="32.7399489" lon="-17.0060210" /><trkpt lat="32.7399625" lon="-17.0060995" /><trkpt lat="32.7399481" lon="-17.0062259" /><trkpt lat="32.7399607" lon="-17.0063179" /><trkpt lat="32.7399939" lon="-17.0064207" /><trkpt lat="32.7399901" lon="-17.0064803" /><trkpt lat="32.7399729" lon="-17.0065041" /><trkpt lat="32.7399543" lon="-17.0065322" /><trkpt lat="32.7399276" lon="-17.0065485" /><trkpt lat="32.7398924" lon="-17.0065995" /><trkpt lat="32.7398884" lon="-17.0066337" /><trkpt lat="32.7398990" lon="-17.0066485" /><trkpt lat="32.7399217" lon="-17.0066510" /><trkpt lat="32.7399718" lon="-17.0065923" /><trkpt lat="32.7400099" lon="-17.0065489" /><trkpt lat="32.7400937" lon="-17.0064492" /><trkpt lat="32.7401530" lon="-17.0064279" /><trkpt lat="32.7402414" lon="-17.0063629" /><trkpt lat="32.7403212" lon="-17.0063218" /><trkpt lat="32.7403883" lon="-17.0062715" /><trkpt lat="32.7404648" lon="-17.0061982" /><trkpt lat="32.7405152" lon="-17.0061439" /><trkpt lat="32.7405655" lon="-17.0061155" /><trkpt lat="32.7406122" lon="-17.0061051" /><trkpt lat="32.7407081" lon="-17.0060794" /><trkpt lat="32.7407979" lon="-17.0061000" /><trkpt lat="32.7409112" lon="-17.0061335" /><trkpt lat="32.7410316" lon="-17.0061609" /><trkpt lat="32.7411684" lon="-17.0062467" /><trkpt lat="32.7412302" lon="-17.0062603" /><trkpt lat="32.7412774" lon="-17.0062652" /><trkpt lat="32.7414103" lon="-17.0062533" /><trkpt lat="32.7414845" lon="-17.0062181" /><trkpt lat="32.7415513" lon="-17.0061713" /><trkpt lat="32.7415963" lon="-17.0061245" /><trkpt lat="32.7416914" lon="-17.0060506" /><trkpt lat="32.7418058" lon="-17.0060112" /><trkpt lat="32.7418695" lon="-17.0059567" /><trkpt lat="32.7419616" lon="-17.0058721" /><trkpt lat="32.7419992" lon="-17.0057913" /><trkpt lat="32.7420606" lon="-17.0057232" /><trkpt lat="32.7421349" lon="-17.0056734" /><trkpt lat="32.7422240" lon="-17.0055520" /><trkpt lat="32.7423558" lon="-17.0054581" /><trkpt lat="32.7424249" lon="-17.0054084" /><trkpt lat="32.7425167" lon="-17.0053785" /><trkpt lat="32.7425828" lon="-17.0053344" /><trkpt lat="32.7426725" lon="-17.0052283" /><trkpt lat="32.7427293" lon="-17.0051841" /><trkpt lat="32.7427960" lon="-17.0051685" /><trkpt lat="32.7428440" lon="-17.0051391" /><trkpt lat="32.7429179" lon="-17.0050650" /><trkpt lat="32.7429478" lon="-17.0050183" /><trkpt lat="32.7429829" lon="-17.0049682" /><trkpt lat="32.7430003" lon="-17.0049467" /><trkpt lat="32.7430495" lon="-17.0049338" /><trkpt lat="32.7431678" lon="-17.0049487" /><trkpt lat="32.7432961" lon="-17.0049743" /><trkpt lat="32.7433831" lon="-17.0049783" /><trkpt lat="32.7434122" lon="-17.0049657" /><trkpt lat="32.7434318" lon="-17.0049399" /><trkpt lat="32.7434379" lon="-17.0048908" /><trkpt lat="32.7434294" lon="-17.0048413" /><trkpt lat="32.7434298" lon="-17.0048127" /><trkpt lat="32.7434433" lon="-17.0047841" /><trkpt lat="32.7434724" lon="-17.0047519" /><trkpt lat="32.7434949" lon="-17.0047121" /><trkpt lat="32.7435330" lon="-17.0046328" /><trkpt lat="32.7436267" lon="-17.0044960" /><trkpt lat="32.7436812" lon="-17.0043592" /><trkpt lat="32.7437371" lon="-17.0043082" /><trkpt lat="32.7437879" lon="-17.0042887" /><trkpt lat="32.7438545" lon="-17.0042971" /><trkpt lat="32.7438900" lon="-17.0042943" /><trkpt lat="32.7439154" lon="-17.0042813" /><trkpt lat="32.7439497" lon="-17.0042379" /><trkpt lat="32.7439580" lon="-17.0041850" /><trkpt lat="32.7439960" lon="-17.0040716" /><trkpt lat="32.7440340" lon="-17.0039437" /><trkpt lat="32.7440734" lon="-17.0039108" /><trkpt lat="32.7441185" lon="-17.0038074" /><trkpt lat="32.7441295" lon="-17.0037010" /><trkpt lat="32.7442102" lon="-17.0035540" /><trkpt lat="32.7442729" lon="-17.0033976" /><trkpt lat="32.7443125" lon="-17.0032899" /><trkpt lat="32.7443056" lon="-17.0032372" /><trkpt lat="32.7442864" lon="-17.0031991" /><trkpt lat="32.7442036" lon="-17.0031132" /><trkpt lat="32.7441862" lon="-17.0030585" /><trkpt lat="32.7441894" lon="-17.0030082" /><trkpt lat="32.7442296" lon="-17.0029523" /><trkpt lat="32.7442452" lon="-17.0029068" /><trkpt lat="32.7442420" lon="-17.0028191" /><trkpt lat="32.7442098" lon="-17.0027040" /><trkpt lat="32.7442214" lon="-17.0026581" /><trkpt lat="32.7442461" lon="-17.0026369" /><trkpt lat="32.7443228" lon="-17.0026453" /><trkpt lat="32.7443677" lon="-17.0026477" /><trkpt lat="32.7444061" lon="-17.0026269" /><trkpt lat="32.7444127" lon="-17.0025907" /><trkpt lat="32.7444006" lon="-17.0025287" /><trkpt lat="32.7443641" lon="-17.0024407" /><trkpt lat="32.7443231" lon="-17.0023436" /><trkpt lat="32.7443060" lon="-17.0022399" /><trkpt lat="32.7442974" lon="-17.0021901" /><trkpt lat="32.7443080" lon="-17.0021313" /><trkpt lat="32.7443598" lon="-17.0020337" /><trkpt lat="32.7444187" lon="-17.0019605" /><trkpt lat="32.7444258" lon="-17.0019097" /><trkpt lat="32.7444265" lon="-17.0018409" /><trkpt lat="32.7444467" lon="-17.0017051" /><trkpt lat="32.7444536" lon="-17.0016305" /><trkpt lat="32.7444568" lon="-17.0015844" /><trkpt lat="32.7445245" lon="-17.0015188" /><trkpt lat="32.7445691" lon="-17.0014498" /><trkpt lat="32.7445897" lon="-17.0013874" /><trkpt lat="32.7445935" lon="-17.0013122" /><trkpt lat="32.7446082" lon="-17.0012836" /><trkpt lat="32.7446531" lon="-17.0012390" /><trkpt lat="32.7446784" lon="-17.0011968" /><trkpt lat="32.7446936" lon="-17.0011358" /><trkpt lat="32.7446874" lon="-17.0010151" /><trkpt lat="32.7446649" lon="-17.0009016" /><trkpt lat="32.7446532" lon="-17.0007424" /><trkpt lat="32.7446238" lon="-17.0006509" /><trkpt lat="32.7445430" lon="-17.0005034" /><trkpt lat="32.7445260" lon="-17.0004295" /><trkpt lat="32.7445050" lon="-17.0003172" /><trkpt lat="32.7444899" lon="-17.0002426" /><trkpt lat="32.7444644" lon="-17.0001965" /><trkpt lat="32.7444410" lon="-17.0001065" /><trkpt lat="32.7444560" lon="-17.0000336" /><trkpt lat="32.7444948" lon="-16.9999470" /><trkpt lat="32.7445170" lon="-16.9998303" /><trkpt lat="32.7445101" lon="-16.9997550" /><trkpt lat="32.7445369" lon="-16.9997357" /><trkpt lat="32.7445796" lon="-16.9997440" /><trkpt lat="32.7446505" lon="-16.9997411" /><trkpt lat="32.7446807" lon="-16.9997306" /><trkpt lat="32.7447081" lon="-16.9996931" /><trkpt lat="32.7447153" lon="-16.9996195" /><trkpt lat="32.7447088" lon="-16.9994136" /><trkpt lat="32.7447464" lon="-16.9993182" /><trkpt lat="32.7448014" lon="-16.9992415" /><trkpt lat="32.7448231" lon="-16.9991901" /><trkpt lat="32.7448202" lon="-16.9991104" /><trkpt lat="32.7447824" lon="-16.9990765" /><trkpt lat="32.7447368" lon="-16.9990675" /><trkpt lat="32.7447335" lon="-16.9990414" /><trkpt lat="32.7447621" lon="-16.9989921" /><trkpt lat="32.7448049" lon="-16.9989534" /><trkpt lat="32.7448351" lon="-16.9988624" /><trkpt lat="32.7448407" lon="-16.9987791" /><trkpt lat="32.7448447" lon="-16.9987168" /><trkpt lat="32.7448475" lon="-16.9986769" /><trkpt lat="32.7448703" lon="-16.9986159" /><trkpt lat="32.7449237" lon="-16.9985603" /><trkpt lat="32.7449634" lon="-16.9984929" /><trkpt lat="32.7449810" lon="-16.9984276" /><trkpt lat="32.7449838" lon="-16.9983653" /><trkpt lat="32.7450112" lon="-16.9982826" /><trkpt lat="32.7450452" lon="-16.9982231" /><trkpt lat="32.7451215" lon="-16.9982135" /><trkpt lat="32.7452258" lon="-16.9982771" /><trkpt lat="32.7452899" lon="-16.9983464" /><trkpt lat="32.7452960" lon="-16.9985322" /><trkpt lat="32.7453473" lon="-16.9987191" /><trkpt lat="32.7453918" lon="-16.9988354" /><trkpt lat="32.7454175" lon="-16.9989779" /><trkpt lat="32.7454205" lon="-16.9991283" /><trkpt lat="32.7454358" lon="-16.9991984" /><trkpt lat="32.7454742" lon="-16.9992512" /><trkpt lat="32.7455350" lon="-16.9993208" /><trkpt lat="32.7455657" lon="-16.9993914" /><trkpt lat="32.7456030" lon="-16.9994626" /><trkpt lat="32.7456974" lon="-16.9995323" /><trkpt lat="32.7457438" lon="-16.9995506" /><trkpt lat="32.7458026" lon="-16.9995309" /><trkpt lat="32.7458673" lon="-16.9995216" /><trkpt lat="32.7459143" lon="-16.9995682" /><trkpt lat="32.7459454" lon="-16.9996752" /><trkpt lat="32.7459376" lon="-16.9997987" /><trkpt lat="32.7459124" lon="-16.9999106" /><trkpt lat="32.7458997" lon="-17.0000583" /><trkpt lat="32.7458671" lon="-17.0002140" /><trkpt lat="32.7459013" lon="-17.0003339" /><trkpt lat="32.7459608" lon="-17.0003717" /><trkpt lat="32.7460370" lon="-17.0003922" /><trkpt lat="32.7461305" lon="-17.0004323" /><trkpt lat="32.7462181" lon="-17.0004498" /><trkpt lat="32.7462329" lon="-17.0004476" /><trkpt lat="32.7462957" lon="-17.0004405" /><trkpt lat="32.7463838" lon="-17.0004291" /><trkpt lat="32.7464150" lon="-17.0004305" /><trkpt lat="32.7464303" lon="-17.0004492" /><trkpt lat="32.7464277" lon="-17.0004813" /><trkpt lat="32.7464122" lon="-17.0005537" /><trkpt lat="32.7463326" lon="-17.0007726" /><trkpt lat="32.7462906" lon="-17.0008516" /><trkpt lat="32.7462464" lon="-17.0009601" /><trkpt lat="32.7462297" lon="-17.0010222" /><trkpt lat="32.7462542" lon="-17.0010688" /><trkpt lat="32.7463335" lon="-17.0011100" /><trkpt lat="32.7463899" lon="-17.0011114" /><trkpt lat="32.7465979" lon="-17.0010448" /><trkpt lat="32.7467541" lon="-17.0009630" /><trkpt lat="32.7468792" lon="-17.0008463" /><trkpt lat="32.7470050" lon="-17.0007631" /><trkpt lat="32.7471395" lon="-17.0007408" /><trkpt lat="32.7472325" lon="-17.0007405" /><trkpt lat="32.7473035" lon="-17.0007745" /><trkpt lat="32.7473413" lon="-17.0008507" /><trkpt lat="32.7473436" lon="-17.0009177" /><trkpt lat="32.7473224" lon="-17.0009906" /><trkpt lat="32.7472700" lon="-17.0011419" /><trkpt lat="32.7472219" lon="-17.0012799" /><trkpt lat="32.7471474" lon="-17.0014210" /><trkpt lat="32.7471194" lon="-17.0014864" /><trkpt lat="32.7471008" lon="-17.0015690" /><trkpt lat="32.7470704" lon="-17.0016236" /><trkpt lat="32.7469966" lon="-17.0016955" /><trkpt lat="32.7468874" lon="-17.0017983" /><trkpt lat="32.7468586" lon="-17.0018434" /><trkpt lat="32.7468627" lon="-17.0019090" /><trkpt lat="32.7469107" lon="-17.0019784" /><trkpt lat="32.7469355" lon="-17.0020688" /><trkpt lat="32.7469129" lon="-17.0021555" /><trkpt lat="32.7468940" lon="-17.0022399" /><trkpt lat="32.7469310" lon="-17.0023187" /><trkpt lat="32.7470042" lon="-17.0023568" /><trkpt lat="32.7470962" lon="-17.0023805" /><trkpt lat="32.7471671" lon="-17.0023821" /><trkpt lat="32.7472072" lon="-17.0023782" /><trkpt lat="32.7472283" lon="-17.0023998" /><trkpt lat="32.7472288" lon="-17.0024345" /><trkpt lat="32.7471992" lon="-17.0025209" /><trkpt lat="32.7471810" lon="-17.0026055" /><trkpt lat="32.7471649" lon="-17.0027086" /><trkpt lat="32.7471489" lon="-17.0027954" /><trkpt lat="32.7471532" lon="-17.0029413" /><trkpt lat="32.7471788" lon="-17.0031095" /><trkpt lat="32.7471678" lon="-17.0031865" /><trkpt lat="32.7471454" lon="-17.0032352" /><trkpt lat="32.7471134" lon="-17.0032816" /><trkpt lat="32.7470683" lon="-17.0033180" /><trkpt lat="32.7470123" lon="-17.0033855" /><trkpt lat="32.7469803" lon="-17.0034598" /><trkpt lat="32.7469771" lon="-17.0035533" /><trkpt lat="32.7470011" lon="-17.0036699" /><trkpt lat="32.7470003" lon="-17.0037441" /><trkpt lat="32.7469814" lon="-17.0038251" /><trkpt lat="32.7469810" lon="-17.0039075" /><trkpt lat="32.7469901" lon="-17.0040008" /><trkpt lat="32.7470105" lon="-17.0040771" /><trkpt lat="32.7470305" lon="-17.0041518" /><trkpt lat="32.7470635" lon="-17.0043240" /><trkpt lat="32.7470975" lon="-17.0045376" /><trkpt lat="32.7471005" lon="-17.0046314" /><trkpt lat="32.7471106" lon="-17.0047280" /><trkpt lat="32.7471381" lon="-17.0048179" /><trkpt lat="32.7471553" lon="-17.0048635" /><trkpt lat="32.7471761" lon="-17.0048879" /><trkpt lat="32.7472189" lon="-17.0048963" /><trkpt lat="32.7472679" lon="-17.0049103" /><trkpt lat="32.7473224" lon="-17.0049279" /><trkpt lat="32.7473611" lon="-17.0049481" /><trkpt lat="32.7474021" lon="-17.0049923" /><trkpt lat="32.7474221" lon="-17.0050580" /><trkpt lat="32.7474294" lon="-17.0051336" /><trkpt lat="32.7474417" lon="-17.0051753" /><trkpt lat="32.7474838" lon="-17.0052112" /><trkpt lat="32.7475746" lon="-17.0052206" /><trkpt lat="32.7476775" lon="-17.0052428" /><trkpt lat="32.7477963" lon="-17.0052283" /><trkpt lat="32.7478695" lon="-17.0052567" /><trkpt lat="32.7479772" lon="-17.0052729" /><trkpt lat="32.7480413" lon="-17.0052713" /><trkpt lat="32.7481582" lon="-17.0051867" /><trkpt lat="32.7482651" lon="-17.0051258" /><trkpt lat="32.7482998" lon="-17.0050958" /><trkpt lat="32.7483428" lon="-17.0050955" /><trkpt lat="32.7483715" lon="-17.0051268" /><trkpt lat="32.7483804" lon="-17.0051837" /><trkpt lat="32.7483810" lon="-17.0052539" /><trkpt lat="32.7483543" lon="-17.0053103" /><trkpt lat="32.7482843" lon="-17.0053973" /><trkpt lat="32.7482237" lon="-17.0055212" /><trkpt lat="32.7481604" lon="-17.0055960" /><trkpt lat="32.7480952" lon="-17.0056751" /><trkpt lat="32.7480330" lon="-17.0057889" /><trkpt lat="32.7479724" lon="-17.0058455" /><trkpt lat="32.7478966" lon="-17.0058875" /><trkpt lat="32.7478119" lon="-17.0059622" /><trkpt lat="32.7477250" lon="-17.0059868" /><trkpt lat="32.7475862" lon="-17.0060398" /><trkpt lat="32.7474514" lon="-17.0061348" /><trkpt lat="32.7473134" lon="-17.0062298" /><trkpt lat="32.7472444" lon="-17.0062979" /><trkpt lat="32.7471788" lon="-17.0063518" /><trkpt lat="32.7471563" lon="-17.0064011" /><trkpt lat="32.7471346" lon="-17.0065276" /><trkpt lat="32.7471473" lon="-17.0065980" /><trkpt lat="32.7471833" lon="-17.0066827" /><trkpt lat="32.7472010" lon="-17.0067754" /><trkpt lat="32.7472141" lon="-17.0068922" /><trkpt lat="32.7472084" lon="-17.0069571" /><trkpt lat="32.7472252" lon="-17.0070516" /><trkpt lat="32.7472679" lon="-17.0071572" /><trkpt lat="32.7472970" lon="-17.0072188" /><trkpt lat="32.7473544" lon="-17.0072805" /><trkpt lat="32.7475089" lon="-17.0073018" /><trkpt lat="32.7475834" lon="-17.0073585" /><trkpt lat="32.7476397" lon="-17.0073796" /><trkpt lat="32.7476966" lon="-17.0074071" /><trkpt lat="32.7477552" lon="-17.0074365" /><trkpt lat="32.7478475" lon="-17.0074502" /><trkpt lat="32.7478918" lon="-17.0074604" /><trkpt lat="32.7479452" lon="-17.0074874" /><trkpt lat="32.7479757" lon="-17.0075080" /><trkpt lat="32.7479979" lon="-17.0075561" /><trkpt lat="32.7480282" lon="-17.0076342" /><trkpt lat="32.7480401" lon="-17.0076889" /><trkpt lat="32.7480404" lon="-17.0077317" /><trkpt lat="32.7480124" lon="-17.0077942" /><trkpt lat="32.7479640" lon="-17.0078601" /><trkpt lat="32.7479283" lon="-17.0079832" /><trkpt lat="32.7479184" lon="-17.0080819" /><trkpt lat="32.7479035" lon="-17.0081788" /><trkpt lat="32.7478866" lon="-17.0082453" /><trkpt lat="32.7478787" lon="-17.0082919" /><trkpt lat="32.7478908" lon="-17.0083307" /><trkpt lat="32.7479628" lon="-17.0083620" /><trkpt lat="32.7480715" lon="-17.0083874" /><trkpt lat="32.7481182" lon="-17.0084104" /><trkpt lat="32.7481649" lon="-17.0084532" /><trkpt lat="32.7482150" lon="-17.0085242" /><trkpt lat="32.7482721" lon="-17.0085786" /><trkpt lat="32.7483342" lon="-17.0085851" /><trkpt lat="32.7483613" lon="-17.0085739" /><trkpt lat="32.7484157" lon="-17.0085683" /><trkpt lat="32.7484946" lon="-17.0085059" /><trkpt lat="32.7485203" lon="-17.0084612" /><trkpt lat="32.7485351" lon="-17.0084697" /><trkpt lat="32.7485749" lon="-17.0085662" /><trkpt lat="32.7485789" lon="-17.0086348" /><trkpt lat="32.7485605" lon="-17.0087650" /><trkpt lat="32.7485465" lon="-17.0088624" /><trkpt lat="32.7485173" lon="-17.0089976" /><trkpt lat="32.7485045" lon="-17.0090506" /><trkpt lat="32.7485224" lon="-17.0090828" /><trkpt lat="32.7485788" lon="-17.0091421" /><trkpt lat="32.7485563" lon="-17.0091963" /><trkpt lat="32.7485254" lon="-17.0092257" /><trkpt lat="32.7485140" lon="-17.0092620" /><trkpt lat="32.7485072" lon="-17.0093412" /><trkpt lat="32.7484674" lon="-17.0093906" /><trkpt lat="32.7483919" lon="-17.0094607" /><trkpt lat="32.7483701" lon="-17.0095522" /><trkpt lat="32.7483737" lon="-17.0096111" /><trkpt lat="32.7484223" lon="-17.0096730" /><trkpt lat="32.7485073" lon="-17.0097505" /><trkpt lat="32.7485820" lon="-17.0098285" /><trkpt lat="32.7486157" lon="-17.0099112" /><trkpt lat="32.7486275" lon="-17.0100020" /><trkpt lat="32.7485857" lon="-17.0100366" /><trkpt lat="32.7484903" lon="-17.0100458" /><trkpt lat="32.7484139" lon="-17.0100810" /><trkpt lat="32.7483570" lon="-17.0101276" /><trkpt lat="32.7483181" lon="-17.0101698" /><trkpt lat="32.7482975" lon="-17.0102278" /><trkpt lat="32.7483173" lon="-17.0102982" /><trkpt lat="32.7483847" lon="-17.0103607" /><trkpt lat="32.7484313" lon="-17.0104061" /><trkpt lat="32.7484447" lon="-17.0104594" /><trkpt lat="32.7484402" lon="-17.0105078" /><trkpt lat="32.7483761" lon="-17.0105889" /><trkpt lat="32.7483209" lon="-17.0106786" /><trkpt lat="32.7483055" lon="-17.0107274" /><trkpt lat="32.7482835" lon="-17.0107950" /><trkpt lat="32.7482858" lon="-17.0108674" /><trkpt lat="32.7483238" lon="-17.0109281" /><trkpt lat="32.7483633" lon="-17.0109938" /><trkpt lat="32.7484207" lon="-17.0110389" /><trkpt lat="32.7484510" lon="-17.0110977" /><trkpt lat="32.7484327" lon="-17.0111490" /><trkpt lat="32.7483949" lon="-17.0112046" /><trkpt lat="32.7482914" lon="-17.0112954" /><trkpt lat="32.7481338" lon="-17.0114178" /><trkpt lat="32.7479992" lon="-17.0115532" /><trkpt lat="32.7479206" lon="-17.0116278" /><trkpt lat="32.7478485" lon="-17.0117262" /><trkpt lat="32.7477985" lon="-17.0118161" /><trkpt lat="32.7478236" lon="-17.0119431" /><trkpt lat="32.7478675" lon="-17.0120600" /><trkpt lat="32.7479098" lon="-17.0121462" /><trkpt lat="32.7479911" lon="-17.0122495" /><trkpt lat="32.7481328" lon="-17.0123159" /><trkpt lat="32.7482485" lon="-17.0124666" /><trkpt lat="32.7482881" lon="-17.0126005" /><trkpt lat="32.7483543" lon="-17.0126520" /><trkpt lat="32.7484125" lon="-17.0126765" /><trkpt lat="32.7485098" lon="-17.0127200" /><trkpt lat="32.7485099" lon="-17.0127561" /><trkpt lat="32.7484350" lon="-17.0128324" /><trkpt lat="32.7483993" lon="-17.0128371" /><trkpt lat="32.7483603" lon="-17.0128813" /><trkpt lat="32.7482828" lon="-17.0129333" /><trkpt lat="32.7482269" lon="-17.0129877" /><trkpt lat="32.7481589" lon="-17.0130137" /><trkpt lat="32.7480838" lon="-17.0130524" /><trkpt lat="32.7480358" lon="-17.0131166" /><trkpt lat="32.7480259" lon="-17.0132228" /><trkpt lat="32.7479861" lon="-17.0132914" /><trkpt lat="32.7479091" lon="-17.0133572" /><trkpt lat="32.7478830" lon="-17.0133869" /><trkpt lat="32.7478936" lon="-17.0135252" /><trkpt lat="32.7479064" lon="-17.0135562" /><trkpt lat="32.7479274" lon="-17.0135998" /><trkpt lat="32.7479568" lon="-17.0136541" /><trkpt lat="32.7479648" lon="-17.0137571" /><trkpt lat="32.7479217" lon="-17.0138245" /><trkpt lat="32.7479178" lon="-17.0138515" /><trkpt lat="32.7479305" lon="-17.0138925" /><trkpt lat="32.7478859" lon="-17.0140176" /><trkpt lat="32.7478693" lon="-17.0141317" /><trkpt lat="32.7478712" lon="-17.0142331" /><trkpt lat="32.7478044" lon="-17.0143274" /><trkpt lat="32.7477286" lon="-17.0144414" /><trkpt lat="32.7476294" lon="-17.0145066" /><trkpt lat="32.7475716" lon="-17.0145614" /><trkpt lat="32.7475670" lon="-17.0146416" /><trkpt lat="32.7475536" lon="-17.0147604" /><trkpt lat="32.7475278" lon="-17.0148481" /><trkpt lat="32.7475144" lon="-17.0149862" /><trkpt lat="32.7475202" lon="-17.0151066" /><trkpt lat="32.7475131" lon="-17.0151806" /><trkpt lat="32.7474923" lon="-17.0152365" /><trkpt lat="32.7474294" lon="-17.0152892" /><trkpt lat="32.7473673" lon="-17.0153855" /><trkpt lat="32.7472896" lon="-17.0155332" /><trkpt lat="32.7472539" lon="-17.0155997" /><trkpt lat="32.7471927" lon="-17.0156499" /><trkpt lat="32.7470368" lon="-17.0157363" /><trkpt lat="32.7469992" lon="-17.0157820" /><trkpt lat="32.7469873" lon="-17.0158259" /><trkpt lat="32.7470079" lon="-17.0158770" /><trkpt lat="32.7470677" lon="-17.0159305" /><trkpt lat="32.7471344" lon="-17.0159642" /><trkpt lat="32.7472117" lon="-17.0159857" /><trkpt lat="32.7473508" lon="-17.0159850" /><trkpt lat="32.7474779" lon="-17.0159741" /><trkpt lat="32.7475335" lon="-17.0159831" /><trkpt lat="32.7475791" lon="-17.0160070" /><trkpt lat="32.7476858" lon="-17.0160802" /><trkpt lat="32.7477151" lon="-17.0161003" /><trkpt lat="32.7477770" lon="-17.0161460" /><trkpt lat="32.7478893" lon="-17.0162290" /><trkpt lat="32.7479525" lon="-17.0162477" /><trkpt lat="32.7480504" lon="-17.0162270" /><trkpt lat="32.7480859" lon="-17.0162764" /><trkpt lat="32.7481208" lon="-17.0163021" /><trkpt lat="32.7481362" lon="-17.0163134" /><trkpt lat="32.7482130" lon="-17.0163327" /><trkpt lat="32.7482684" lon="-17.0163164" /><trkpt lat="32.7482785" lon="-17.0163134" /><trkpt lat="32.7483333" lon="-17.0163303" /><trkpt lat="32.7484285" lon="-17.0164062" /><trkpt lat="32.7485325" lon="-17.0165410" /><trkpt lat="32.7486342" lon="-17.0166386" /><trkpt lat="32.7486984" lon="-17.0167051" /><trkpt lat="32.7487074" lon="-17.0168245" /><trkpt lat="32.7487255" lon="-17.0169613" /><trkpt lat="32.7487649" lon="-17.0170780" /><trkpt lat="32.7488134" lon="-17.0171544" /><trkpt lat="32.7488525" lon="-17.0172127" /><trkpt lat="32.7488870" lon="-17.0172967" /><trkpt lat="32.7489096" lon="-17.0174000" /><trkpt lat="32.7489553" lon="-17.0176094" /><trkpt lat="32.7490010" lon="-17.0178188" /><trkpt lat="32.7490538" lon="-17.0179020" /><trkpt lat="32.7491177" lon="-17.0179284" /><trkpt lat="32.7491752" lon="-17.0179168" /><trkpt lat="32.7492706" lon="-17.0178507" /><trkpt lat="32.7493415" lon="-17.0177749" /><trkpt lat="32.7494421" lon="-17.0177217" /><trkpt lat="32.7495639" lon="-17.0176847" /><trkpt lat="32.7496676" lon="-17.0177001" /><trkpt lat="32.7497712" lon="-17.0177217" /><trkpt lat="32.7499111" lon="-17.0178511" /><trkpt lat="32.7501418" lon="-17.0179374" /><trkpt lat="32.7502918" lon="-17.0179430" /><trkpt lat="32.7504021" lon="-17.0179216" /><trkpt lat="32.7504890" lon="-17.0178727" /><trkpt lat="32.7505372" lon="-17.0178749" /><trkpt lat="32.7505637" lon="-17.0179013" /><trkpt lat="32.7506055" lon="-17.0179308" /><trkpt lat="32.7506679" lon="-17.0179338" /><trkpt lat="32.7507739" lon="-17.0179023" /><trkpt lat="32.7508466" lon="-17.0178596" /><trkpt lat="32.7509098" lon="-17.0178200" /><trkpt lat="32.7510372" lon="-17.0177326" /><trkpt lat="32.7510936" lon="-17.0176635" /><trkpt lat="32.7511828" lon="-17.0175860" /><trkpt lat="32.7512270" lon="-17.0174750" /><trkpt lat="32.7512947" lon="-17.0174649" /><trkpt lat="32.7513454" lon="-17.0175035" /><trkpt lat="32.7513825" lon="-17.0175347" /><trkpt lat="32.7513770" lon="-17.0176470" /><trkpt lat="32.7513984" lon="-17.0177454" /><trkpt lat="32.7515200" lon="-17.0178491" /><trkpt lat="32.7516149" lon="-17.0179981" /><trkpt lat="32.7516411" lon="-17.0180651" /><trkpt lat="32.7516616" lon="-17.0181667" /><trkpt lat="32.7516925" lon="-17.0182444" /><trkpt lat="32.7517749" lon="-17.0183617" /><trkpt lat="32.7518300" lon="-17.0185568" /><trkpt lat="32.7519397" lon="-17.0187325" /><trkpt lat="32.7519796" lon="-17.0187760" /><trkpt lat="32.7520249" lon="-17.0187909" /><trkpt lat="32.7520621" lon="-17.0187825" /><trkpt lat="32.7522149" lon="-17.0187004" /><trkpt lat="32.7523098" lon="-17.0186932" /><trkpt lat="32.7524202" lon="-17.0187244" /><trkpt lat="32.7525067" lon="-17.0187564" /><trkpt lat="32.7525417" lon="-17.0187963" /><trkpt lat="32.7525567" lon="-17.0188445" /><trkpt lat="32.7525601" lon="-17.0188868" /><trkpt lat="32.7525724" lon="-17.0190003" /><trkpt lat="32.7526461" lon="-17.0190439" /><trkpt lat="32.7527771" lon="-17.0190342" /><trkpt lat="32.7529118" lon="-17.0190527" /><trkpt lat="32.7529705" lon="-17.0191074" /><trkpt lat="32.7530258" lon="-17.0191328" /><trkpt lat="32.7530776" lon="-17.0193608" /><trkpt lat="32.7530543" lon="-17.0194717" /><trkpt lat="32.7531191" lon="-17.0196196" /><trkpt lat="32.7532485" lon="-17.0196640" /><trkpt lat="32.7532998" lon="-17.0197890" /><trkpt lat="32.7534051" lon="-17.0200847" /><trkpt lat="32.7534654" lon="-17.0205676" /><trkpt lat="32.7534557" lon="-17.0207413" /><trkpt lat="32.7534378" lon="-17.0208035" /><trkpt lat="32.7534116" lon="-17.0208501" /><trkpt lat="32.7533807" lon="-17.0208638" /><trkpt lat="32.7533588" lon="-17.0208791" /><trkpt lat="32.7533352" lon="-17.0209166" /><trkpt lat="32.7533318" lon="-17.0210123" /><trkpt lat="32.7533296" lon="-17.0210731" /></trkseg></trk></gpx>