<?xml version="1.0"?>
<gpx xmlns="http://www.topografix.com/GPX/1/1" xmlns:xsi="http://www.w3.org/2001/XMLSchema-instance" version="1.1" creator="AllTrails.com" xsi:schemaLocation="http://www.topografix.com/GPX/1/1 http://www.topografix.com/GPX/1/1/gpx.xsd">
  <metadata>
    <name><![CDATA[PR13-Fanal]]></name>
    <desc><![CDATA[]]></desc>
    <link href="http://www.alltrails.com">
      <text>AllTrails, LLC</text>
    </link>
    <bounds minlat="32.76709" minlon="-17.14185" maxlat="32.81043" maxlon="-17.10771"/>
  </metadata>
  <trk>
    <name><![CDATA[PR13-Fanal]]></name>
    <src>AllTrails</src>
    <trkseg>
      <trkpt lat="32.76715" lon="-17.10771">
        <ele>1428.49</ele>
      </trkpt>
      <trkpt lat="32.76716" lon="-17.10771">
        <ele>1428.45</ele>
      </trkpt>
      <trkpt lat="32.76715" lon="-17.10788">
        <ele>1425.14</ele>
      </trkpt>
      <trkpt lat="32.76715" lon="-17.10804">
        <ele>1421.4</ele>
      </trkpt>
      <trkpt lat="32.76709" lon="-17.10832">
        <ele>1421.27</ele>
      </trkpt>
      <trkpt lat="32.76709" lon="-17.10859">
        <ele>1418.46</ele>
      </trkpt>
      <trkpt lat="32.76724" lon="-17.10894">
        <ele>1407.25</ele>
      </trkpt>
      <trkpt lat="32.76738" lon="-17.1091">
        <ele>1404.53</ele>
      </trkpt>
      <trkpt lat="32.76746" lon="-17.11002">
        <ele>1400.37</ele>
      </trkpt>
      <trkpt lat="32.76767" lon="-17.11043">
        <ele>1397.11</ele>
      </trkpt>
      <trkpt lat="32.76777" lon="-17.11083">
        <ele>1393.19</ele>
      </trkpt>
      <trkpt lat="32.7678" lon="-17.11111">
        <ele>1391.49</ele>
      </trkpt>
      <trkpt lat="32.76772" lon="-17.11159">
        <ele>1385.76</ele>
      </trkpt>
      <trkpt lat="32.768" lon="-17.11202">
        <ele>1381.99</ele>
      </trkpt>
      <trkpt lat="32.76811" lon="-17.11296">
        <ele>1367.29</ele>
      </trkpt>
      <trkpt lat="32.768" lon="-17.11348">
        <ele>1364.01</ele>
      </trkpt>
      <trkpt lat="32.76784" lon="-17.11369">
        <ele>1365.0</ele>
      </trkpt>
      <trkpt lat="32.76772" lon="-17.11401">
        <ele>1362.91</ele>
      </trkpt>
      <trkpt lat="32.76779" lon="-17.11428">
        <ele>1362.92</ele>
      </trkpt>
      <trkpt lat="32.76817" lon="-17.11493">
        <ele>1357.45</ele>
      </trkpt>
      <trkpt lat="32.76836" lon="-17.11492">
        <ele>1360.38</ele>
      </trkpt>
      <trkpt lat="32.76873" lon="-17.11528">
        <ele>1361.4</ele>
      </trkpt>
      <trkpt lat="32.76881" lon="-17.11548">
        <ele>1359.01</ele>
      </trkpt>
      <trkpt lat="32.76881" lon="-17.11573">
        <ele>1357.74</ele>
      </trkpt>
      <trkpt lat="32.76886" lon="-17.11599">
        <ele>1356.46</ele>
      </trkpt>
      <trkpt lat="32.76885" lon="-17.1163">
        <ele>1350.89</ele>
      </trkpt>
      <trkpt lat="32.76875" lon="-17.11668">
        <ele>1343.64</ele>
      </trkpt>
      <trkpt lat="32.76856" lon="-17.11679">
        <ele>1337.48</ele>
      </trkpt>
      <trkpt lat="32.76842" lon="-17.11695">
        <ele>1329.52</ele>
      </trkpt>
      <trkpt lat="32.76847" lon="-17.11707">
        <ele>1324.44</ele>
      </trkpt>
      <trkpt lat="32.76878" lon="-17.11698">
        <ele>1334.69</ele>
      </trkpt>
      <trkpt lat="32.76926" lon="-17.11707">
        <ele>1334.16</ele>
      </trkpt>
      <trkpt lat="32.76926" lon="-17.11707">
        <ele>1334.16</ele>
      </trkpt>
      <trkpt lat="32.76926" lon="-17.11707">
        <ele>1334.16</ele>
      </trkpt>
      <trkpt lat="32.76943" lon="-17.1171">
        <ele>1332.83</ele>
      </trkpt>
      <trkpt lat="32.76965" lon="-17.11723">
        <ele>1332.92</ele>
      </trkpt>
      <trkpt lat="32.76995" lon="-17.11777">
        <ele>1329.23</ele>
      </trkpt>
      <trkpt lat="32.77006" lon="-17.11814">
        <ele>1324.05</ele>
      </trkpt>
      <trkpt lat="32.77025" lon="-17.11823">
        <ele>1326.6</ele>
      </trkpt>
      <trkpt lat="32.77047" lon="-17.11812">
        <ele>1328.09</ele>
      </trkpt>
      <trkpt lat="32.77095" lon="-17.11833">
        <ele>1319.96</ele>
      </trkpt>
      <trkpt lat="32.77135" lon="-17.11833">
        <ele>1315.31</ele>
      </trkpt>
      <trkpt lat="32.77142" lon="-17.1183">
        <ele>1314.57</ele>
      </trkpt>
      <trkpt lat="32.77154" lon="-17.11843">
        <ele>1313.41</ele>
      </trkpt>
      <trkpt lat="32.77168" lon="-17.11892">
        <ele>1321.97</ele>
      </trkpt>
      <trkpt lat="32.77185" lon="-17.11901">
        <ele>1319.07</ele>
      </trkpt>
      <trkpt lat="32.77216" lon="-17.1191">
        <ele>1322.49</ele>
      </trkpt>
      <trkpt lat="32.77274" lon="-17.1191">
        <ele>1310.0</ele>
      </trkpt>
      <trkpt lat="32.77283" lon="-17.11915">
        <ele>1308.07</ele>
      </trkpt>
      <trkpt lat="32.77301" lon="-17.11945">
        <ele>1303.76</ele>
      </trkpt>
      <trkpt lat="32.77309" lon="-17.1201">
        <ele>1330.15</ele>
      </trkpt>
      <trkpt lat="32.77319" lon="-17.1202">
        <ele>1328.37</ele>
      </trkpt>
      <trkpt lat="32.77313" lon="-17.12035">
        <ele>1334.95</ele>
      </trkpt>
      <trkpt lat="32.7732" lon="-17.12056">
        <ele>1335.45</ele>
      </trkpt>
      <trkpt lat="32.77335" lon="-17.12066">
        <ele>1331.87</ele>
      </trkpt>
      <trkpt lat="32.7736" lon="-17.12102">
        <ele>1321.85</ele>
      </trkpt>
      <trkpt lat="32.77372" lon="-17.12145">
        <ele>1319.63</ele>
      </trkpt>
      <trkpt lat="32.77398" lon="-17.12173">
        <ele>1307.1</ele>
      </trkpt>
      <trkpt lat="32.77403" lon="-17.12198">
        <ele>1312.45</ele>
      </trkpt>
      <trkpt lat="32.77403" lon="-17.12198">
        <ele>1312.45</ele>
      </trkpt>
      <trkpt lat="32.77403" lon="-17.12198">
        <ele>1312.45</ele>
      </trkpt>
      <trkpt lat="32.77425" lon="-17.1221">
        <ele>1309.14</ele>
      </trkpt>
      <trkpt lat="32.77448" lon="-17.12251">
        <ele>1310.1</ele>
      </trkpt>
      <trkpt lat="32.77435" lon="-17.12291">
        <ele>1318.25</ele>
      </trkpt>
      <trkpt lat="32.77446" lon="-17.12303">
        <ele>1314.57</ele>
      </trkpt>
      <trkpt lat="32.7745" lon="-17.12325">
        <ele>1311.78</ele>
      </trkpt>
      <trkpt lat="32.77464" lon="-17.12345">
        <ele>1302.29</ele>
      </trkpt>
      <trkpt lat="32.77448" lon="-17.12348">
        <ele>1306.53</ele>
      </trkpt>
      <trkpt lat="32.77413" lon="-17.12346">
        <ele>1319.19</ele>
      </trkpt>
      <trkpt lat="32.77389" lon="-17.12333">
        <ele>1325.01</ele>
      </trkpt>
      <trkpt lat="32.77336" lon="-17.12317">
        <ele>1314.72</ele>
      </trkpt>
      <trkpt lat="32.77319" lon="-17.12291">
        <ele>1313.0</ele>
      </trkpt>
      <trkpt lat="32.77301" lon="-17.12273">
        <ele>1313.85</ele>
      </trkpt>
      <trkpt lat="32.77275" lon="-17.12267">
        <ele>1311.47</ele>
      </trkpt>
      <trkpt lat="32.77273" lon="-17.12268">
        <ele>1311.15</ele>
      </trkpt>
      <trkpt lat="32.7721" lon="-17.1231">
        <ele>1302.12</ele>
      </trkpt>
      <trkpt lat="32.77203" lon="-17.12329">
        <ele>1298.52</ele>
      </trkpt>
      <trkpt lat="32.77191" lon="-17.12338">
        <ele>1294.04</ele>
      </trkpt>
      <trkpt lat="32.7719" lon="-17.12355">
        <ele>1288.31</ele>
      </trkpt>
      <trkpt lat="32.77198" lon="-17.12381">
        <ele>1278.41</ele>
      </trkpt>
      <trkpt lat="32.77236" lon="-17.12464">
        <ele>1270.97</ele>
      </trkpt>
      <trkpt lat="32.77244" lon="-17.12496">
        <ele>1266.42</ele>
      </trkpt>
      <trkpt lat="32.77247" lon="-17.12508">
        <ele>1264.65</ele>
      </trkpt>
      <trkpt lat="32.77247" lon="-17.12508">
        <ele>1264.65</ele>
      </trkpt>
      <trkpt lat="32.77247" lon="-17.12508">
        <ele>1264.65</ele>
      </trkpt>
      <trkpt lat="32.77251" lon="-17.12523">
        <ele>1263.56</ele>
      </trkpt>
      <trkpt lat="32.77258" lon="-17.12562">
        <ele>1261.56</ele>
      </trkpt>
      <trkpt lat="32.77284" lon="-17.1262">
        <ele>1265.13</ele>
      </trkpt>
      <trkpt lat="32.77288" lon="-17.12667">
        <ele>1270.35</ele>
      </trkpt>
      <trkpt lat="32.77307" lon="-17.12746">
        <ele>1298.69</ele>
      </trkpt>
      <trkpt lat="32.77337" lon="-17.12884">
        <ele>1308.16</ele>
      </trkpt>
      <trkpt lat="32.77344" lon="-17.12931">
        <ele>1303.17</ele>
      </trkpt>
      <trkpt lat="32.77346" lon="-17.12958">
        <ele>1298.15</ele>
      </trkpt>
      <trkpt lat="32.7734" lon="-17.12975">
        <ele>1294.28</ele>
      </trkpt>
      <trkpt lat="32.77318" lon="-17.13011">
        <ele>1273.16</ele>
      </trkpt>
      <trkpt lat="32.77308" lon="-17.13028">
        <ele>1263.3</ele>
      </trkpt>
      <trkpt lat="32.77307" lon="-17.13039">
        <ele>1261.57</ele>
      </trkpt>
      <trkpt lat="32.77315" lon="-17.13047">
        <ele>1265.02</ele>
      </trkpt>
      <trkpt lat="32.7732" lon="-17.13064">
        <ele>1266.97</ele>
      </trkpt>
      <trkpt lat="32.7732" lon="-17.13081">
        <ele>1267.31</ele>
      </trkpt>
      <trkpt lat="32.77314" lon="-17.13106">
        <ele>1262.48</ele>
      </trkpt>
      <trkpt lat="32.77325" lon="-17.13142">
        <ele>1261.13</ele>
      </trkpt>
      <trkpt lat="32.77325" lon="-17.13162">
        <ele>1260.05</ele>
      </trkpt>
      <trkpt lat="32.77328" lon="-17.13193">
        <ele>1254.54</ele>
      </trkpt>
      <trkpt lat="32.7734" lon="-17.13214">
        <ele>1249.06</ele>
      </trkpt>
      <trkpt lat="32.77351" lon="-17.13237">
        <ele>1247.41</ele>
      </trkpt>
      <trkpt lat="32.77362" lon="-17.13244">
        <ele>1251.76</ele>
      </trkpt>
      <trkpt lat="32.77371" lon="-17.13259">
        <ele>1248.67</ele>
      </trkpt>
      <trkpt lat="32.77377" lon="-17.13261">
        <ele>1250.1</ele>
      </trkpt>
      <trkpt lat="32.77422" lon="-17.13251">
        <ele>1265.43</ele>
      </trkpt>
      <trkpt lat="32.77428" lon="-17.13252">
        <ele>1264.94</ele>
      </trkpt>
      <trkpt lat="32.77438" lon="-17.13271">
        <ele>1264.4</ele>
      </trkpt>
      <trkpt lat="32.77486" lon="-17.13327">
        <ele>1250.79</ele>
      </trkpt>
      <trkpt lat="32.7752" lon="-17.13344">
        <ele>1230.01</ele>
      </trkpt>
      <trkpt lat="32.77554" lon="-17.1335">
        <ele>1217.0</ele>
      </trkpt>
      <trkpt lat="32.77581" lon="-17.13352">
        <ele>1217.28</ele>
      </trkpt>
      <trkpt lat="32.77634" lon="-17.13338">
        <ele>1243.97</ele>
      </trkpt>
      <trkpt lat="32.77637" lon="-17.13333">
        <ele>1246.98</ele>
      </trkpt>
      <trkpt lat="32.77639" lon="-17.13302">
        <ele>1257.51</ele>
      </trkpt>
      <trkpt lat="32.77644" lon="-17.13292">
        <ele>1259.04</ele>
      </trkpt>
      <trkpt lat="32.77658" lon="-17.13283">
        <ele>1260.81</ele>
      </trkpt>
      <trkpt lat="32.77658" lon="-17.13283">
        <ele>1260.81</ele>
      </trkpt>
      <trkpt lat="32.77658" lon="-17.13284">
        <ele>1260.64</ele>
      </trkpt>
      <trkpt lat="32.77684" lon="-17.13268">
        <ele>1263.82</ele>
      </trkpt>
      <trkpt lat="32.77711" lon="-17.13268">
        <ele>1262.08</ele>
      </trkpt>
      <trkpt lat="32.77765" lon="-17.13274">
        <ele>1265.77</ele>
      </trkpt>
      <trkpt lat="32.77817" lon="-17.13258">
        <ele>1267.05</ele>
      </trkpt>
      <trkpt lat="32.77884" lon="-17.13267">
        <ele>1269.8</ele>
      </trkpt>
      <trkpt lat="32.77895" lon="-17.13272">
        <ele>1270.87</ele>
      </trkpt>
      <trkpt lat="32.77901" lon="-17.13299">
        <ele>1262.39</ele>
      </trkpt>
      <trkpt lat="32.77912" lon="-17.13314">
        <ele>1258.71</ele>
      </trkpt>
      <trkpt lat="32.77931" lon="-17.13321">
        <ele>1261.81</ele>
      </trkpt>
      <trkpt lat="32.77945" lon="-17.13352">
        <ele>1261.66</ele>
      </trkpt>
      <trkpt lat="32.77941" lon="-17.13358">
        <ele>1259.29</ele>
      </trkpt>
      <trkpt lat="32.77942" lon="-17.13377">
        <ele>1252.58</ele>
      </trkpt>
      <trkpt lat="32.77949" lon="-17.13447">
        <ele>1222.92</ele>
      </trkpt>
      <trkpt lat="32.7796" lon="-17.13471">
        <ele>1219.39</ele>
      </trkpt>
      <trkpt lat="32.77968" lon="-17.13501">
        <ele>1213.24</ele>
      </trkpt>
      <trkpt lat="32.77969" lon="-17.13519">
        <ele>1207.99</ele>
      </trkpt>
      <trkpt lat="32.77969" lon="-17.13533">
        <ele>1204.31</ele>
      </trkpt>
      <trkpt lat="32.77972" lon="-17.13539">
        <ele>1204.87</ele>
      </trkpt>
      <trkpt lat="32.77987" lon="-17.13531">
        <ele>1215.24</ele>
      </trkpt>
      <trkpt lat="32.77997" lon="-17.13522">
        <ele>1223.52</ele>
      </trkpt>
      <trkpt lat="32.78045" lon="-17.13495">
        <ele>1239.35</ele>
      </trkpt>
      <trkpt lat="32.78063" lon="-17.13481">
        <ele>1235.46</ele>
      </trkpt>
      <trkpt lat="32.7808" lon="-17.13472">
        <ele>1226.01</ele>
      </trkpt>
      <trkpt lat="32.7809" lon="-17.13464">
        <ele>1219.77</ele>
      </trkpt>
      <trkpt lat="32.78107" lon="-17.13461">
        <ele>1211.65</ele>
      </trkpt>
      <trkpt lat="32.78122" lon="-17.13433">
        <ele>1207.03</ele>
      </trkpt>
      <trkpt lat="32.78145" lon="-17.13376">
        <ele>1208.66</ele>
      </trkpt>
      <trkpt lat="32.78165" lon="-17.13335">
        <ele>1203.59</ele>
      </trkpt>
      <trkpt lat="32.78169" lon="-17.13327">
        <ele>1203.6</ele>
      </trkpt>
      <trkpt lat="32.78174" lon="-17.13317">
        <ele>1204.45</ele>
      </trkpt>
      <trkpt lat="32.78181" lon="-17.13314">
        <ele>1204.08</ele>
      </trkpt>
      <trkpt lat="32.78185" lon="-17.13311">
        <ele>1204.11</ele>
      </trkpt>
      <trkpt lat="32.78206" lon="-17.13307">
        <ele>1204.18</ele>
      </trkpt>
      <trkpt lat="32.78221" lon="-17.13316">
        <ele>1203.44</ele>
      </trkpt>
      <trkpt lat="32.78234" lon="-17.13327">
        <ele>1203.28</ele>
      </trkpt>
      <trkpt lat="32.78243" lon="-17.13335">
        <ele>1203.2</ele>
      </trkpt>
      <trkpt lat="32.78251" lon="-17.13345">
        <ele>1203.84</ele>
      </trkpt>
      <trkpt lat="32.78259" lon="-17.13358">
        <ele>1204.88</ele>
      </trkpt>
      <trkpt lat="32.78259" lon="-17.13365">
        <ele>1204.81</ele>
      </trkpt>
      <trkpt lat="32.7825" lon="-17.13372">
        <ele>1203.78</ele>
      </trkpt>
      <trkpt lat="32.78238" lon="-17.13379">
        <ele>1202.59</ele>
      </trkpt>
      <trkpt lat="32.7823" lon="-17.13396">
        <ele>1201.18</ele>
      </trkpt>
      <trkpt lat="32.78225" lon="-17.13428">
        <ele>1198.69</ele>
      </trkpt>
      <trkpt lat="32.78225" lon="-17.13428">
        <ele>1198.69</ele>
      </trkpt>
      <trkpt lat="32.78225" lon="-17.13428">
        <ele>1198.69</ele>
      </trkpt>
      <trkpt lat="32.78226" lon="-17.13448">
        <ele>1195.72</ele>
      </trkpt>
      <trkpt lat="32.78244" lon="-17.13458">
        <ele>1199.74</ele>
      </trkpt>
      <trkpt lat="32.78246" lon="-17.13482">
        <ele>1197.93</ele>
      </trkpt>
      <trkpt lat="32.78251" lon="-17.13492">
        <ele>1197.51</ele>
      </trkpt>
      <trkpt lat="32.78269" lon="-17.13496">
        <ele>1200.55</ele>
      </trkpt>
      <trkpt lat="32.78272" lon="-17.13506">
        <ele>1199.12</ele>
      </trkpt>
      <trkpt lat="32.78275" lon="-17.13522">
        <ele>1195.91</ele>
      </trkpt>
      <trkpt lat="32.78288" lon="-17.13536">
        <ele>1198.98</ele>
      </trkpt>
      <trkpt lat="32.78298" lon="-17.13544">
        <ele>1200.79</ele>
      </trkpt>
      <trkpt lat="32.78307" lon="-17.13548">
        <ele>1202.18</ele>
      </trkpt>
      <trkpt lat="32.78313" lon="-17.13543">
        <ele>1205.89</ele>
      </trkpt>
      <trkpt lat="32.78317" lon="-17.13543">
        <ele>1206.73</ele>
      </trkpt>
      <trkpt lat="32.78322" lon="-17.13545">
        <ele>1207.07</ele>
      </trkpt>
      <trkpt lat="32.78339" lon="-17.13552">
        <ele>1209.63</ele>
      </trkpt>
      <trkpt lat="32.78366" lon="-17.13568">
        <ele>1210.91</ele>
      </trkpt>
      <trkpt lat="32.7838" lon="-17.13581">
        <ele>1210.13</ele>
      </trkpt>
      <trkpt lat="32.7839" lon="-17.13593">
        <ele>1206.54</ele>
      </trkpt>
      <trkpt lat="32.78393" lon="-17.13604">
        <ele>1200.19</ele>
      </trkpt>
      <trkpt lat="32.78396" lon="-17.13611">
        <ele>1196.92</ele>
      </trkpt>
      <trkpt lat="32.78404" lon="-17.13615">
        <ele>1199.01</ele>
      </trkpt>
      <trkpt lat="32.78417" lon="-17.13617">
        <ele>1204.04</ele>
      </trkpt>
      <trkpt lat="32.78439" lon="-17.1362">
        <ele>1206.26</ele>
      </trkpt>
      <trkpt lat="32.78452" lon="-17.13613">
        <ele>1213.64</ele>
      </trkpt>
      <trkpt lat="32.78467" lon="-17.13612">
        <ele>1215.04</ele>
      </trkpt>
      <trkpt lat="32.78495" lon="-17.13586">
        <ele>1217.14</ele>
      </trkpt>
      <trkpt lat="32.78511" lon="-17.13578">
        <ele>1214.7</ele>
      </trkpt>
      <trkpt lat="32.78535" lon="-17.13561">
        <ele>1212.83</ele>
      </trkpt>
      <trkpt lat="32.78558" lon="-17.13559">
        <ele>1209.72</ele>
      </trkpt>
      <trkpt lat="32.78601" lon="-17.13554">
        <ele>1201.86</ele>
      </trkpt>
      <trkpt lat="32.78624" lon="-17.13559">
        <ele>1193.65</ele>
      </trkpt>
      <trkpt lat="32.78643" lon="-17.13567">
        <ele>1188.58</ele>
      </trkpt>
      <trkpt lat="32.78651" lon="-17.13567">
        <ele>1188.8</ele>
      </trkpt>
      <trkpt lat="32.78662" lon="-17.13562">
        <ele>1191.53</ele>
      </trkpt>
      <trkpt lat="32.78669" lon="-17.13558">
        <ele>1194.52</ele>
      </trkpt>
      <trkpt lat="32.78701" lon="-17.13523">
        <ele>1222.68</ele>
      </trkpt>
      <trkpt lat="32.78716" lon="-17.13502">
        <ele>1220.78</ele>
      </trkpt>
      <trkpt lat="32.7876" lon="-17.13439">
        <ele>1215.9</ele>
      </trkpt>
      <trkpt lat="32.78778" lon="-17.13427">
        <ele>1215.12</ele>
      </trkpt>
      <trkpt lat="32.78785" lon="-17.13416">
        <ele>1214.26</ele>
      </trkpt>
      <trkpt lat="32.7878" lon="-17.13397">
        <ele>1214.08</ele>
      </trkpt>
      <trkpt lat="32.78802" lon="-17.13374">
        <ele>1215.01</ele>
      </trkpt>
      <trkpt lat="32.78824" lon="-17.13346">
        <ele>1215.43</ele>
      </trkpt>
      <trkpt lat="32.78846" lon="-17.13325">
        <ele>1214.77</ele>
      </trkpt>
      <trkpt lat="32.7886" lon="-17.13312">
        <ele>1213.92</ele>
      </trkpt>
      <trkpt lat="32.7886" lon="-17.13312">
        <ele>1213.92</ele>
      </trkpt>
      <trkpt lat="32.7886" lon="-17.13312">
        <ele>1213.92</ele>
      </trkpt>
      <trkpt lat="32.78875" lon="-17.13299">
        <ele>1214.35</ele>
      </trkpt>
      <trkpt lat="32.78899" lon="-17.13271">
        <ele>1208.68</ele>
      </trkpt>
      <trkpt lat="32.7892" lon="-17.13252">
        <ele>1207.26</ele>
      </trkpt>
      <trkpt lat="32.78933" lon="-17.13243">
        <ele>1205.11</ele>
      </trkpt>
      <trkpt lat="32.78948" lon="-17.13234">
        <ele>1205.91</ele>
      </trkpt>
      <trkpt lat="32.78959" lon="-17.13223">
        <ele>1209.19</ele>
      </trkpt>
      <trkpt lat="32.78977" lon="-17.13195">
        <ele>1210.43</ele>
      </trkpt>
      <trkpt lat="32.78983" lon="-17.1318">
        <ele>1212.03</ele>
      </trkpt>
      <trkpt lat="32.78989" lon="-17.13157">
        <ele>1215.13</ele>
      </trkpt>
      <trkpt lat="32.79001" lon="-17.13126">
        <ele>1216.32</ele>
      </trkpt>
      <trkpt lat="32.79006" lon="-17.13109">
        <ele>1216.59</ele>
      </trkpt>
      <trkpt lat="32.79016" lon="-17.13045">
        <ele>1231.89</ele>
      </trkpt>
      <trkpt lat="32.79022" lon="-17.13034">
        <ele>1235.05</ele>
      </trkpt>
      <trkpt lat="32.79039" lon="-17.13011">
        <ele>1240.21</ele>
      </trkpt>
      <trkpt lat="32.79055" lon="-17.12994">
        <ele>1241.68</ele>
      </trkpt>
      <trkpt lat="32.79083" lon="-17.12953">
        <ele>1245.43</ele>
      </trkpt>
      <trkpt lat="32.79092" lon="-17.12943">
        <ele>1248.87</ele>
      </trkpt>
      <trkpt lat="32.79142" lon="-17.12904">
        <ele>1248.89</ele>
      </trkpt>
      <trkpt lat="32.79166" lon="-17.12896">
        <ele>1245.13</ele>
      </trkpt>
      <trkpt lat="32.7918" lon="-17.12886">
        <ele>1243.14</ele>
      </trkpt>
      <trkpt lat="32.79195" lon="-17.12895">
        <ele>1246.76</ele>
      </trkpt>
      <trkpt lat="32.79202" lon="-17.12892">
        <ele>1244.7</ele>
      </trkpt>
      <trkpt lat="32.79207" lon="-17.12879">
        <ele>1240.14</ele>
      </trkpt>
      <trkpt lat="32.79215" lon="-17.12872">
        <ele>1238.32</ele>
      </trkpt>
      <trkpt lat="32.79213" lon="-17.12856">
        <ele>1235.23</ele>
      </trkpt>
      <trkpt lat="32.79213" lon="-17.12856">
        <ele>1235.23</ele>
      </trkpt>
      <trkpt lat="32.79213" lon="-17.12856">
        <ele>1235.23</ele>
      </trkpt>
      <trkpt lat="32.79215" lon="-17.12872">
        <ele>1238.32</ele>
      </trkpt>
      <trkpt lat="32.79207" lon="-17.12879">
        <ele>1240.14</ele>
      </trkpt>
      <trkpt lat="32.79202" lon="-17.12892">
        <ele>1244.7</ele>
      </trkpt>
      <trkpt lat="32.79195" lon="-17.12895">
        <ele>1246.76</ele>
      </trkpt>
      <trkpt lat="32.7918" lon="-17.12886">
        <ele>1243.14</ele>
      </trkpt>
      <trkpt lat="32.79173" lon="-17.12875">
        <ele>1237.57</ele>
      </trkpt>
      <trkpt lat="32.79173" lon="-17.12855">
        <ele>1230.78</ele>
      </trkpt>
      <trkpt lat="32.79163" lon="-17.12845">
        <ele>1228.86</ele>
      </trkpt>
      <trkpt lat="32.79145" lon="-17.1284">
        <ele>1227.9</ele>
      </trkpt>
      <trkpt lat="32.79135" lon="-17.12837">
        <ele>1228.32</ele>
      </trkpt>
      <trkpt lat="32.7913" lon="-17.12835">
        <ele>1229.97</ele>
      </trkpt>
      <trkpt lat="32.79118" lon="-17.12822">
        <ele>1233.39</ele>
      </trkpt>
      <trkpt lat="32.79107" lon="-17.12806">
        <ele>1235.25</ele>
      </trkpt>
      <trkpt lat="32.79107" lon="-17.12787">
        <ele>1231.87</ele>
      </trkpt>
      <trkpt lat="32.79106" lon="-17.12777">
        <ele>1230.46</ele>
      </trkpt>
      <trkpt lat="32.79106" lon="-17.12777">
        <ele>1230.46</ele>
      </trkpt>
      <trkpt lat="32.79106" lon="-17.12777">
        <ele>1230.46</ele>
      </trkpt>
      <trkpt lat="32.7913" lon="-17.12773">
        <ele>1214.88</ele>
      </trkpt>
      <trkpt lat="32.79183" lon="-17.1277">
        <ele>1197.0</ele>
      </trkpt>
      <trkpt lat="32.79197" lon="-17.12774">
        <ele>1197.21</ele>
      </trkpt>
      <trkpt lat="32.7921" lon="-17.12781">
        <ele>1195.08</ele>
      </trkpt>
      <trkpt lat="32.79221" lon="-17.12789">
        <ele>1197.71</ele>
      </trkpt>
      <trkpt lat="32.79233" lon="-17.12806">
        <ele>1205.74</ele>
      </trkpt>
      <trkpt lat="32.79252" lon="-17.12824">
        <ele>1204.2</ele>
      </trkpt>
      <trkpt lat="32.79264" lon="-17.12831">
        <ele>1201.63</ele>
      </trkpt>
      <trkpt lat="32.79281" lon="-17.12835">
        <ele>1195.84</ele>
      </trkpt>
      <trkpt lat="32.79297" lon="-17.12847">
        <ele>1207.74</ele>
      </trkpt>
      <trkpt lat="32.7932" lon="-17.12886">
        <ele>1220.57</ele>
      </trkpt>
      <trkpt lat="32.79325" lon="-17.12896">
        <ele>1221.66</ele>
      </trkpt>
      <trkpt lat="32.79331" lon="-17.12904">
        <ele>1221.16</ele>
      </trkpt>
      <trkpt lat="32.79345" lon="-17.12913">
        <ele>1218.75</ele>
      </trkpt>
      <trkpt lat="32.79361" lon="-17.12928">
        <ele>1219.12</ele>
      </trkpt>
      <trkpt lat="32.79375" lon="-17.12934">
        <ele>1208.8</ele>
      </trkpt>
      <trkpt lat="32.79405" lon="-17.12954">
        <ele>1194.3</ele>
      </trkpt>
      <trkpt lat="32.79416" lon="-17.1298">
        <ele>1196.84</ele>
      </trkpt>
      <trkpt lat="32.79422" lon="-17.12987">
        <ele>1193.52</ele>
      </trkpt>
      <trkpt lat="32.79431" lon="-17.12994">
        <ele>1185.07</ele>
      </trkpt>
      <trkpt lat="32.79454" lon="-17.13006">
        <ele>1174.79</ele>
      </trkpt>
      <trkpt lat="32.7949" lon="-17.13014">
        <ele>1172.21</ele>
      </trkpt>
      <trkpt lat="32.79534" lon="-17.13022">
        <ele>1178.44</ele>
      </trkpt>
      <trkpt lat="32.79553" lon="-17.13021">
        <ele>1180.73</ele>
      </trkpt>
      <trkpt lat="32.79572" lon="-17.13023">
        <ele>1176.74</ele>
      </trkpt>
      <trkpt lat="32.79588" lon="-17.13029">
        <ele>1175.23</ele>
      </trkpt>
      <trkpt lat="32.79602" lon="-17.1304">
        <ele>1181.21</ele>
      </trkpt>
      <trkpt lat="32.79615" lon="-17.13055">
        <ele>1193.14</ele>
      </trkpt>
      <trkpt lat="32.79621" lon="-17.13058">
        <ele>1197.41</ele>
      </trkpt>
      <trkpt lat="32.79633" lon="-17.13059">
        <ele>1202.03</ele>
      </trkpt>
      <trkpt lat="32.7964" lon="-17.13059">
        <ele>1204.02</ele>
      </trkpt>
      <trkpt lat="32.79649" lon="-17.13054">
        <ele>1202.73</ele>
      </trkpt>
      <trkpt lat="32.79649" lon="-17.13054">
        <ele>1202.73</ele>
      </trkpt>
      <trkpt lat="32.79649" lon="-17.13054">
        <ele>1202.73</ele>
      </trkpt>
      <trkpt lat="32.79677" lon="-17.13038">
        <ele>1194.87</ele>
      </trkpt>
      <trkpt lat="32.79682" lon="-17.13034">
        <ele>1193.43</ele>
      </trkpt>
      <trkpt lat="32.79695" lon="-17.1302">
        <ele>1189.02</ele>
      </trkpt>
      <trkpt lat="32.7971" lon="-17.13007">
        <ele>1184.47</ele>
      </trkpt>
      <trkpt lat="32.79716" lon="-17.13001">
        <ele>1184.54</ele>
      </trkpt>
      <trkpt lat="32.7974" lon="-17.12964">
        <ele>1181.0</ele>
      </trkpt>
      <trkpt lat="32.79746" lon="-17.12958">
        <ele>1182.02</ele>
      </trkpt>
      <trkpt lat="32.79748" lon="-17.12961">
        <ele>1181.99</ele>
      </trkpt>
      <trkpt lat="32.79751" lon="-17.12965">
        <ele>1181.71</ele>
      </trkpt>
      <trkpt lat="32.79756" lon="-17.12967">
        <ele>1181.13</ele>
      </trkpt>
      <trkpt lat="32.79761" lon="-17.12967">
        <ele>1180.77</ele>
      </trkpt>
      <trkpt lat="32.79772" lon="-17.12971">
        <ele>1179.55</ele>
      </trkpt>
      <trkpt lat="32.79783" lon="-17.12976">
        <ele>1179.76</ele>
      </trkpt>
      <trkpt lat="32.79804" lon="-17.12991">
        <ele>1180.26</ele>
      </trkpt>
      <trkpt lat="32.79812" lon="-17.12998">
        <ele>1180.95</ele>
      </trkpt>
      <trkpt lat="32.79815" lon="-17.13002">
        <ele>1181.45</ele>
      </trkpt>
      <trkpt lat="32.79818" lon="-17.13005">
        <ele>1182.19</ele>
      </trkpt>
      <trkpt lat="32.79824" lon="-17.13008">
        <ele>1183.36</ele>
      </trkpt>
      <trkpt lat="32.7983" lon="-17.13011">
        <ele>1184.26</ele>
      </trkpt>
      <trkpt lat="32.79842" lon="-17.13015">
        <ele>1185.03</ele>
      </trkpt>
      <trkpt lat="32.79868" lon="-17.13018">
        <ele>1186.77</ele>
      </trkpt>
      <trkpt lat="32.79877" lon="-17.13021">
        <ele>1187.1</ele>
      </trkpt>
      <trkpt lat="32.79891" lon="-17.13028">
        <ele>1187.28</ele>
      </trkpt>
      <trkpt lat="32.79911" lon="-17.13034">
        <ele>1190.05</ele>
      </trkpt>
      <trkpt lat="32.79913" lon="-17.13035">
        <ele>1190.37</ele>
      </trkpt>
      <trkpt lat="32.79937" lon="-17.13036">
        <ele>1189.75</ele>
      </trkpt>
      <trkpt lat="32.79937" lon="-17.13036">
        <ele>1189.75</ele>
      </trkpt>
      <trkpt lat="32.79937" lon="-17.13036">
        <ele>1189.75</ele>
      </trkpt>
      <trkpt lat="32.7995" lon="-17.13033">
        <ele>1188.95</ele>
      </trkpt>
      <trkpt lat="32.80009" lon="-17.13003">
        <ele>1190.83</ele>
      </trkpt>
      <trkpt lat="32.80044" lon="-17.12988">
        <ele>1186.88</ele>
      </trkpt>
      <trkpt lat="32.80066" lon="-17.12979">
        <ele>1188.03</ele>
      </trkpt>
      <trkpt lat="32.80076" lon="-17.12977">
        <ele>1186.15</ele>
      </trkpt>
      <trkpt lat="32.80087" lon="-17.12979">
        <ele>1184.3</ele>
      </trkpt>
      <trkpt lat="32.80127" lon="-17.13002">
        <ele>1183.09</ele>
      </trkpt>
      <trkpt lat="32.80141" lon="-17.13006">
        <ele>1183.43</ele>
      </trkpt>
      <trkpt lat="32.80174" lon="-17.13005">
        <ele>1178.93</ele>
      </trkpt>
      <trkpt lat="32.80186" lon="-17.13008">
        <ele>1177.02</ele>
      </trkpt>
      <trkpt lat="32.802" lon="-17.13015">
        <ele>1175.39</ele>
      </trkpt>
      <trkpt lat="32.80223" lon="-17.13023">
        <ele>1174.59</ele>
      </trkpt>
      <trkpt lat="32.80244" lon="-17.13025">
        <ele>1174.34</ele>
      </trkpt>
      <trkpt lat="32.80249" lon="-17.13027">
        <ele>1174.79</ele>
      </trkpt>
      <trkpt lat="32.8026" lon="-17.1303">
        <ele>1174.66</ele>
      </trkpt>
      <trkpt lat="32.80416" lon="-17.13138">
        <ele>1182.38</ele>
      </trkpt>
      <trkpt lat="32.80427" lon="-17.13148">
        <ele>1181.19</ele>
      </trkpt>
      <trkpt lat="32.80441" lon="-17.13174">
        <ele>1185.48</ele>
      </trkpt>
      <trkpt lat="32.80453" lon="-17.13175">
        <ele>1183.43</ele>
      </trkpt>
      <trkpt lat="32.80496" lon="-17.13178">
        <ele>1175.94</ele>
      </trkpt>
      <trkpt lat="32.8053" lon="-17.1317">
        <ele>1163.22</ele>
      </trkpt>
      <trkpt lat="32.80537" lon="-17.13164">
        <ele>1163.16</ele>
      </trkpt>
      <trkpt lat="32.80552" lon="-17.13152">
        <ele>1162.94</ele>
      </trkpt>
      <trkpt lat="32.80568" lon="-17.13143">
        <ele>1163.54</ele>
      </trkpt>
      <trkpt lat="32.80568" lon="-17.13143">
        <ele>1163.54</ele>
      </trkpt>
      <trkpt lat="32.80568" lon="-17.13144">
        <ele>1163.75</ele>
      </trkpt>
      <trkpt lat="32.80572" lon="-17.13142">
        <ele>1164.12</ele>
      </trkpt>
      <trkpt lat="32.80599" lon="-17.13135">
        <ele>1163.3</ele>
      </trkpt>
      <trkpt lat="32.80627" lon="-17.13119">
        <ele>1160.57</ele>
      </trkpt>
      <trkpt lat="32.80651" lon="-17.13088">
        <ele>1168.01</ele>
      </trkpt>
      <trkpt lat="32.80673" lon="-17.13044">
        <ele>1174.54</ele>
      </trkpt>
      <trkpt lat="32.80697" lon="-17.13009">
        <ele>1174.12</ele>
      </trkpt>
      <trkpt lat="32.80728" lon="-17.12987">
        <ele>1178.95</ele>
      </trkpt>
      <trkpt lat="32.80768" lon="-17.12978">
        <ele>1177.39</ele>
      </trkpt>
      <trkpt lat="32.80794" lon="-17.1296">
        <ele>1174.6</ele>
      </trkpt>
      <trkpt lat="32.8083" lon="-17.12931">
        <ele>1175.63</ele>
      </trkpt>
      <trkpt lat="32.80858" lon="-17.12893">
        <ele>1167.74</ele>
      </trkpt>
      <trkpt lat="32.80877" lon="-17.12827">
        <ele>1162.63</ele>
      </trkpt>
      <trkpt lat="32.80888" lon="-17.12778">
        <ele>1158.16</ele>
      </trkpt>
      <trkpt lat="32.80896" lon="-17.12734">
        <ele>1149.91</ele>
      </trkpt>
      <trkpt lat="32.80897" lon="-17.12684">
        <ele>1146.22</ele>
      </trkpt>
      <trkpt lat="32.80892" lon="-17.12628">
        <ele>1138.33</ele>
      </trkpt>
      <trkpt lat="32.80882" lon="-17.12584">
        <ele>1131.39</ele>
      </trkpt>
      <trkpt lat="32.80887" lon="-17.12563">
        <ele>1134.49</ele>
      </trkpt>
      <trkpt lat="32.80893" lon="-17.12545">
        <ele>1127.49</ele>
      </trkpt>
      <trkpt lat="32.809" lon="-17.12544">
        <ele>1123.91</ele>
      </trkpt>
      <trkpt lat="32.809" lon="-17.12544">
        <ele>1123.91</ele>
      </trkpt>
      <trkpt lat="32.809" lon="-17.12544">
        <ele>1123.91</ele>
      </trkpt>
      <trkpt lat="32.80893" lon="-17.12545">
        <ele>1127.49</ele>
      </trkpt>
      <trkpt lat="32.80887" lon="-17.12563">
        <ele>1134.49</ele>
      </trkpt>
      <trkpt lat="32.80882" lon="-17.12584">
        <ele>1131.39</ele>
      </trkpt>
      <trkpt lat="32.80892" lon="-17.12628">
        <ele>1138.33</ele>
      </trkpt>
      <trkpt lat="32.80897" lon="-17.12684">
        <ele>1146.22</ele>
      </trkpt>
      <trkpt lat="32.80896" lon="-17.12734">
        <ele>1149.91</ele>
      </trkpt>
      <trkpt lat="32.80888" lon="-17.12778">
        <ele>1158.16</ele>
      </trkpt>
      <trkpt lat="32.80877" lon="-17.12827">
        <ele>1162.63</ele>
      </trkpt>
      <trkpt lat="32.80882" lon="-17.12836">
        <ele>1161.99</ele>
      </trkpt>
      <trkpt lat="32.80883" lon="-17.12865">
        <ele>1157.6</ele>
      </trkpt>
      <trkpt lat="32.80888" lon="-17.12902">
        <ele>1160.63</ele>
      </trkpt>
      <trkpt lat="32.8089" lon="-17.1293">
        <ele>1164.71</ele>
      </trkpt>
      <trkpt lat="32.80903" lon="-17.12945">
        <ele>1164.12</ele>
      </trkpt>
      <trkpt lat="32.809" lon="-17.12965">
        <ele>1171.02</ele>
      </trkpt>
      <trkpt lat="32.80905" lon="-17.12985">
        <ele>1172.31</ele>
      </trkpt>
      <trkpt lat="32.80918" lon="-17.13001">
        <ele>1169.81</ele>
      </trkpt>
      <trkpt lat="32.8093" lon="-17.13017">
        <ele>1167.07</ele>
      </trkpt>
      <trkpt lat="32.8093" lon="-17.13017">
        <ele>1167.07</ele>
      </trkpt>
      <trkpt lat="32.8093" lon="-17.13017">
        <ele>1167.07</ele>
      </trkpt>
      <trkpt lat="32.80932" lon="-17.1302">
        <ele>1166.57</ele>
      </trkpt>
      <trkpt lat="32.80948" lon="-17.13033">
        <ele>1164.44</ele>
      </trkpt>
      <trkpt lat="32.80954" lon="-17.13038">
        <ele>1163.9</ele>
      </trkpt>
      <trkpt lat="32.80987" lon="-17.13051">
        <ele>1162.06</ele>
      </trkpt>
      <trkpt lat="32.80996" lon="-17.13063">
        <ele>1163.53</ele>
      </trkpt>
      <trkpt lat="32.80993" lon="-17.13068">
        <ele>1164.46</ele>
      </trkpt>
      <trkpt lat="32.80981" lon="-17.13076">
        <ele>1165.41</ele>
      </trkpt>
      <trkpt lat="32.80975" lon="-17.13084">
        <ele>1166.26</ele>
      </trkpt>
      <trkpt lat="32.80958" lon="-17.13113">
        <ele>1167.87</ele>
      </trkpt>
      <trkpt lat="32.80958" lon="-17.13134">
        <ele>1172.09</ele>
      </trkpt>
      <trkpt lat="32.80971" lon="-17.13159">
        <ele>1175.33</ele>
      </trkpt>
      <trkpt lat="32.80975" lon="-17.13159">
        <ele>1174.41</ele>
      </trkpt>
      <trkpt lat="32.80978" lon="-17.13168">
        <ele>1175.55</ele>
      </trkpt>
      <trkpt lat="32.80978" lon="-17.13174">
        <ele>1176.5</ele>
      </trkpt>
      <trkpt lat="32.80983" lon="-17.13181">
        <ele>1176.36</ele>
      </trkpt>
      <trkpt lat="32.80999" lon="-17.13194">
        <ele>1175.12</ele>
      </trkpt>
      <trkpt lat="32.81007" lon="-17.13209">
        <ele>1177.64</ele>
      </trkpt>
      <trkpt lat="32.81004" lon="-17.13215">
        <ele>1179.47</ele>
      </trkpt>
      <trkpt lat="32.81002" lon="-17.13238">
        <ele>1185.91</ele>
      </trkpt>
      <trkpt lat="32.80997" lon="-17.13251">
        <ele>1191.15</ele>
      </trkpt>
      <trkpt lat="32.81" lon="-17.1329">
        <ele>1196.76</ele>
      </trkpt>
      <trkpt lat="32.81003" lon="-17.13297">
        <ele>1195.93</ele>
      </trkpt>
      <trkpt lat="32.80999" lon="-17.13306">
        <ele>1199.62</ele>
      </trkpt>
      <trkpt lat="32.81007" lon="-17.13345">
        <ele>1197.83</ele>
      </trkpt>
      <trkpt lat="32.81004" lon="-17.13361">
        <ele>1198.29</ele>
      </trkpt>
      <trkpt lat="32.81007" lon="-17.13374">
        <ele>1204.17</ele>
      </trkpt>
      <trkpt lat="32.81018" lon="-17.13388">
        <ele>1206.46</ele>
      </trkpt>
      <trkpt lat="32.81025" lon="-17.13412">
        <ele>1209.56</ele>
      </trkpt>
      <trkpt lat="32.81022" lon="-17.13427">
        <ele>1210.55</ele>
      </trkpt>
      <trkpt lat="32.81032" lon="-17.13437">
        <ele>1206.08</ele>
      </trkpt>
      <trkpt lat="32.81028" lon="-17.13442">
        <ele>1207.18</ele>
      </trkpt>
      <trkpt lat="32.81034" lon="-17.13472">
        <ele>1200.67</ele>
      </trkpt>
      <trkpt lat="32.81031" lon="-17.1348">
        <ele>1198.88</ele>
      </trkpt>
      <trkpt lat="32.81031" lon="-17.135">
        <ele>1190.19</ele>
      </trkpt>
      <trkpt lat="32.81026" lon="-17.13525">
        <ele>1185.9</ele>
      </trkpt>
      <trkpt lat="32.81017" lon="-17.1354">
        <ele>1185.59</ele>
      </trkpt>
      <trkpt lat="32.81013" lon="-17.13551">
        <ele>1185.7</ele>
      </trkpt>
      <trkpt lat="32.81013" lon="-17.13551">
        <ele>1185.7</ele>
      </trkpt>
      <trkpt lat="32.81013" lon="-17.13551">
        <ele>1185.7</ele>
      </trkpt>
      <trkpt lat="32.81008" lon="-17.13567">
        <ele>1181.64</ele>
      </trkpt>
      <trkpt lat="32.81" lon="-17.13574">
        <ele>1182.7</ele>
      </trkpt>
      <trkpt lat="32.80993" lon="-17.13585">
        <ele>1181.9</ele>
      </trkpt>
      <trkpt lat="32.8099" lon="-17.13597">
        <ele>1182.12</ele>
      </trkpt>
      <trkpt lat="32.80994" lon="-17.13624">
        <ele>1181.02</ele>
      </trkpt>
      <trkpt lat="32.80999" lon="-17.13626">
        <ele>1179.88</ele>
      </trkpt>
      <trkpt lat="32.80999" lon="-17.13637">
        <ele>1181.05</ele>
      </trkpt>
      <trkpt lat="32.81005" lon="-17.1365">
        <ele>1178.92</ele>
      </trkpt>
      <trkpt lat="32.8101" lon="-17.13663">
        <ele>1178.23</ele>
      </trkpt>
      <trkpt lat="32.81013" lon="-17.13685">
        <ele>1180.49</ele>
      </trkpt>
      <trkpt lat="32.81013" lon="-17.13714">
        <ele>1179.58</ele>
      </trkpt>
      <trkpt lat="32.81015" lon="-17.13728">
        <ele>1177.82</ele>
      </trkpt>
      <trkpt lat="32.81011" lon="-17.13748">
        <ele>1176.01</ele>
      </trkpt>
      <trkpt lat="32.81011" lon="-17.13761">
        <ele>1176.21</ele>
      </trkpt>
      <trkpt lat="32.81014" lon="-17.13786">
        <ele>1177.08</ele>
      </trkpt>
      <trkpt lat="32.81019" lon="-17.13829">
        <ele>1177.64</ele>
      </trkpt>
      <trkpt lat="32.81036" lon="-17.13887">
        <ele>1166.6</ele>
      </trkpt>
      <trkpt lat="32.81036" lon="-17.13887">
        <ele>1166.6</ele>
      </trkpt>
      <trkpt lat="32.81036" lon="-17.13887">
        <ele>1166.6</ele>
      </trkpt>
      <trkpt lat="32.81037" lon="-17.13893">
        <ele>1166.63</ele>
      </trkpt>
      <trkpt lat="32.81033" lon="-17.13944">
        <ele>1168.98</ele>
      </trkpt>
      <trkpt lat="32.81032" lon="-17.13955">
        <ele>1167.86</ele>
      </trkpt>
      <trkpt lat="32.81043" lon="-17.14004">
        <ele>1164.42</ele>
      </trkpt>
      <trkpt lat="32.81032" lon="-17.14043">
        <ele>1159.88</ele>
      </trkpt>
      <trkpt lat="32.81" lon="-17.14064">
        <ele>1153.35</ele>
      </trkpt>
      <trkpt lat="32.80983" lon="-17.14086">
        <ele>1152.51</ele>
      </trkpt>
      <trkpt lat="32.80961" lon="-17.14104">
        <ele>1156.0</ele>
      </trkpt>
      <trkpt lat="32.80945" lon="-17.14117">
        <ele>1159.33</ele>
      </trkpt>
      <trkpt lat="32.80928" lon="-17.14131">
        <ele>1153.28</ele>
      </trkpt>
      <trkpt lat="32.80918" lon="-17.14137">
        <ele>1150.54</ele>
      </trkpt>
      <trkpt lat="32.80894" lon="-17.14152">
        <ele>1145.01</ele>
      </trkpt>
      <trkpt lat="32.80862" lon="-17.14177">
        <ele>1140.15</ele>
      </trkpt>
      <trkpt lat="32.80855" lon="-17.14185">
        <ele>1136.65</ele>
      </trkpt>
    </trkseg>
  </trk>
</gpx>
