<?xml version="1.0"?>
<gpx xmlns="http://www.topografix.com/GPX/1/1" xmlns:xsi="http://www.w3.org/2001/XMLSchema-instance" version="1.1" creator="AllTrails.com" xsi:schemaLocation="http://www.topografix.com/GPX/1/1 http://www.topografix.com/GPX/1/1/gpx.xsd">
  <metadata>
    <name><![CDATA[PR14-Levada dos Cedros]]></name>
    <desc><![CDATA[]]></desc>
    <link href="http://www.alltrails.com">
      <text>AllTrails, LLC</text>
    </link>
    <bounds minlat="32.79941" minlon="-17.16193" maxlat="32.82592" maxlon="-17.1406975"/>
  </metadata>
  <trk>
    <name><![CDATA[PR14-Levada dos Cedros]]></name>
    <src>AllTrails</src>
    <trkseg>
      <trkpt lat="32.80616" lon="-17.1407">
        <ele>1138.97</ele>
      </trkpt>
      <trkpt lat="32.80616" lon="-17.14076">
        <ele>1135.44</ele>
      </trkpt>
      <trkpt lat="32.80623" lon="-17.14075">
        <ele>1134.92</ele>
      </trkpt>
      <trkpt lat="32.80623" lon="-17.14082">
        <ele>1130.67</ele>
      </trkpt>
      <trkpt lat="32.80619" lon="-17.14089">
        <ele>1128.89</ele>
      </trkpt>
      <trkpt lat="32.80613" lon="-17.14098">
        <ele>1126.6</ele>
      </trkpt>
      <trkpt lat="32.80599" lon="-17.14119">
        <ele>1117.37</ele>
      </trkpt>
      <trkpt lat="32.80597" lon="-17.14126">
        <ele>1116.68</ele>
      </trkpt>
      <trkpt lat="32.80597" lon="-17.14144">
        <ele>1116.39</ele>
      </trkpt>
      <trkpt lat="32.80595" lon="-17.1417">
        <ele>1115.87</ele>
      </trkpt>
      <trkpt lat="32.80599" lon="-17.14177">
        <ele>1114.92</ele>
      </trkpt>
      <trkpt lat="32.80603" lon="-17.14195">
        <ele>1112.8</ele>
      </trkpt>
      <trkpt lat="32.80602" lon="-17.14207">
        <ele>1111.32</ele>
      </trkpt>
      <trkpt lat="32.80598" lon="-17.14214">
        <ele>1110.93</ele>
      </trkpt>
      <trkpt lat="32.806" lon="-17.14228">
        <ele>1108.89</ele>
      </trkpt>
      <trkpt lat="32.80591" lon="-17.14249">
        <ele>1107.31</ele>
      </trkpt>
      <trkpt lat="32.80567" lon="-17.14286">
        <ele>1110.66</ele>
      </trkpt>
      <trkpt lat="32.80542" lon="-17.14304">
        <ele>1115.4</ele>
      </trkpt>
      <trkpt lat="32.80522" lon="-17.14311">
        <ele>1114.05</ele>
      </trkpt>
      <trkpt lat="32.80499" lon="-17.14314">
        <ele>1105.89</ele>
      </trkpt>
      <trkpt lat="32.80469" lon="-17.143">
        <ele>1093.95</ele>
      </trkpt>
      <trkpt lat="32.80441" lon="-17.14272">
        <ele>1090.22</ele>
      </trkpt>
      <trkpt lat="32.80433" lon="-17.14238">
        <ele>1093.05</ele>
      </trkpt>
      <trkpt lat="32.80424" lon="-17.14212">
        <ele>1095.99</ele>
      </trkpt>
      <trkpt lat="32.80416" lon="-17.14201">
        <ele>1096.69</ele>
      </trkpt>
      <trkpt lat="32.80406" lon="-17.14193">
        <ele>1096.49</ele>
      </trkpt>
      <trkpt lat="32.80392" lon="-17.14192">
        <ele>1094.48</ele>
      </trkpt>
      <trkpt lat="32.80381" lon="-17.14199">
        <ele>1089.68</ele>
      </trkpt>
      <trkpt lat="32.80377" lon="-17.14209">
        <ele>1085.44</ele>
      </trkpt>
      <trkpt lat="32.8035" lon="-17.14214">
        <ele>1074.26</ele>
      </trkpt>
      <trkpt lat="32.80333" lon="-17.14213">
        <ele>1068.52</ele>
      </trkpt>
      <trkpt lat="32.80307" lon="-17.14208">
        <ele>1059.67</ele>
      </trkpt>
      <trkpt lat="32.8028" lon="-17.14208">
        <ele>1056.27</ele>
      </trkpt>
      <trkpt lat="32.80269" lon="-17.14201">
        <ele>1054.29</ele>
      </trkpt>
      <trkpt lat="32.8024" lon="-17.14207">
        <ele>1043.63</ele>
      </trkpt>
      <trkpt lat="32.80223" lon="-17.14201">
        <ele>1041.63</ele>
      </trkpt>
      <trkpt lat="32.80209" lon="-17.14204">
        <ele>1039.9</ele>
      </trkpt>
      <trkpt lat="32.802" lon="-17.1421">
        <ele>1037.49</ele>
      </trkpt>
      <trkpt lat="32.80187" lon="-17.14223">
        <ele>1033.29</ele>
      </trkpt>
      <trkpt lat="32.80181" lon="-17.14254">
        <ele>1022.85</ele>
      </trkpt>
      <trkpt lat="32.80174" lon="-17.14265">
        <ele>1018.08</ele>
      </trkpt>
      <trkpt lat="32.80174" lon="-17.14265">
        <ele>1018.08</ele>
      </trkpt>
      <trkpt lat="32.80174" lon="-17.14265">
        <ele>1018.08</ele>
      </trkpt>
      <trkpt lat="32.80172" lon="-17.14284">
        <ele>1012.22</ele>
      </trkpt>
      <trkpt lat="32.80173" lon="-17.14295">
        <ele>1010.5</ele>
      </trkpt>
      <trkpt lat="32.80163" lon="-17.1431">
        <ele>1005.51</ele>
      </trkpt>
      <trkpt lat="32.80167" lon="-17.14319">
        <ele>1003.66</ele>
      </trkpt>
      <trkpt lat="32.80165" lon="-17.14323">
        <ele>1002.46</ele>
      </trkpt>
      <trkpt lat="32.80163" lon="-17.1433">
        <ele>1000.56</ele>
      </trkpt>
      <trkpt lat="32.80161" lon="-17.14334">
        <ele>999.41</ele>
      </trkpt>
      <trkpt lat="32.80147" lon="-17.14357">
        <ele>991.41</ele>
      </trkpt>
      <trkpt lat="32.80115" lon="-17.14401">
        <ele>973.66</ele>
      </trkpt>
      <trkpt lat="32.8011" lon="-17.14416">
        <ele>967.22</ele>
      </trkpt>
      <trkpt lat="32.80101" lon="-17.14436">
        <ele>958.03</ele>
      </trkpt>
      <trkpt lat="32.80092" lon="-17.14449">
        <ele>951.86</ele>
      </trkpt>
      <trkpt lat="32.80057" lon="-17.14461">
        <ele>937.68</ele>
      </trkpt>
      <trkpt lat="32.80004" lon="-17.14492">
        <ele>899.56</ele>
      </trkpt>
      <trkpt lat="32.79994" lon="-17.14494">
        <ele>893.39</ele>
      </trkpt>
      <trkpt lat="32.79984" lon="-17.1448">
        <ele>895.61</ele>
      </trkpt>
      <trkpt lat="32.79978" lon="-17.14473">
        <ele>896.15</ele>
      </trkpt>
      <trkpt lat="32.79972" lon="-17.1447">
        <ele>895.06</ele>
      </trkpt>
      <trkpt lat="32.79968" lon="-17.14471">
        <ele>895.02</ele>
      </trkpt>
      <trkpt lat="32.79966" lon="-17.14465">
        <ele>897.99</ele>
      </trkpt>
      <trkpt lat="32.79963" lon="-17.14456">
        <ele>902.39</ele>
      </trkpt>
      <trkpt lat="32.79961" lon="-17.14447">
        <ele>906.65</ele>
      </trkpt>
      <trkpt lat="32.79957" lon="-17.14441">
        <ele>908.77</ele>
      </trkpt>
      <trkpt lat="32.79954" lon="-17.14436">
        <ele>909.94</ele>
      </trkpt>
      <trkpt lat="32.79949" lon="-17.14427">
        <ele>911.91</ele>
      </trkpt>
      <trkpt lat="32.79946" lon="-17.14423">
        <ele>912.79</ele>
      </trkpt>
      <trkpt lat="32.79943" lon="-17.14419">
        <ele>913.99</ele>
      </trkpt>
      <trkpt lat="32.79941" lon="-17.14416">
        <ele>915.12</ele>
      </trkpt>
      <trkpt lat="32.79941" lon="-17.14416">
        <ele>915.12</ele>
      </trkpt>
      <trkpt lat="32.79941" lon="-17.14416">
        <ele>915.12</ele>
      </trkpt>
      <trkpt lat="32.79943" lon="-17.14419">
        <ele>913.99</ele>
      </trkpt>
      <trkpt lat="32.79946" lon="-17.14423">
        <ele>912.79</ele>
      </trkpt>
      <trkpt lat="32.79949" lon="-17.14427">
        <ele>911.91</ele>
      </trkpt>
      <trkpt lat="32.79954" lon="-17.14436">
        <ele>909.94</ele>
      </trkpt>
      <trkpt lat="32.79957" lon="-17.14441">
        <ele>908.77</ele>
      </trkpt>
      <trkpt lat="32.79961" lon="-17.14447">
        <ele>906.65</ele>
      </trkpt>
      <trkpt lat="32.79963" lon="-17.14456">
        <ele>902.39</ele>
      </trkpt>
      <trkpt lat="32.79966" lon="-17.14465">
        <ele>897.99</ele>
      </trkpt>
      <trkpt lat="32.79968" lon="-17.14471">
        <ele>895.02</ele>
      </trkpt>
      <trkpt lat="32.79968" lon="-17.14472">
        <ele>894.56</ele>
      </trkpt>
      <trkpt lat="32.79967" lon="-17.14472">
        <ele>894.67</ele>
      </trkpt>
      <trkpt lat="32.79977" lon="-17.145">
        <ele>883.89</ele>
      </trkpt>
      <trkpt lat="32.79965" lon="-17.14553">
        <ele>869.41</ele>
      </trkpt>
      <trkpt lat="32.79982" lon="-17.14577">
        <ele>864.65</ele>
      </trkpt>
      <trkpt lat="32.79986" lon="-17.14587">
        <ele>862.56</ele>
      </trkpt>
      <trkpt lat="32.7998" lon="-17.1461">
        <ele>856.12</ele>
      </trkpt>
      <trkpt lat="32.79993" lon="-17.14622">
        <ele>856.26</ele>
      </trkpt>
      <trkpt lat="32.80037" lon="-17.14631">
        <ele>874.84</ele>
      </trkpt>
      <trkpt lat="32.80043" lon="-17.14621">
        <ele>878.28</ele>
      </trkpt>
      <trkpt lat="32.80072" lon="-17.14627">
        <ele>885.61</ele>
      </trkpt>
      <trkpt lat="32.80108" lon="-17.14628">
        <ele>888.44</ele>
      </trkpt>
      <trkpt lat="32.80148" lon="-17.14609">
        <ele>891.98</ele>
      </trkpt>
      <trkpt lat="32.80171" lon="-17.14615">
        <ele>889.2</ele>
      </trkpt>
      <trkpt lat="32.80202" lon="-17.14604">
        <ele>891.61</ele>
      </trkpt>
      <trkpt lat="32.80208" lon="-17.14613">
        <ele>889.21</ele>
      </trkpt>
      <trkpt lat="32.80213" lon="-17.14628">
        <ele>886.49</ele>
      </trkpt>
      <trkpt lat="32.80248" lon="-17.14647">
        <ele>880.24</ele>
      </trkpt>
      <trkpt lat="32.80263" lon="-17.14654">
        <ele>879.18</ele>
      </trkpt>
      <trkpt lat="32.8028" lon="-17.14668">
        <ele>876.62</ele>
      </trkpt>
      <trkpt lat="32.803" lon="-17.14667">
        <ele>883.98</ele>
      </trkpt>
      <trkpt lat="32.8034" lon="-17.1467">
        <ele>903.05</ele>
      </trkpt>
      <trkpt lat="32.80358" lon="-17.14647">
        <ele>919.54</ele>
      </trkpt>
      <trkpt lat="32.80361" lon="-17.14667">
        <ele>917.87</ele>
      </trkpt>
      <trkpt lat="32.80363" lon="-17.14678">
        <ele>916.74</ele>
      </trkpt>
      <trkpt lat="32.80376" lon="-17.14681">
        <ele>918.89</ele>
      </trkpt>
      <trkpt lat="32.8038" lon="-17.14691">
        <ele>918.49</ele>
      </trkpt>
      <trkpt lat="32.80368" lon="-17.14722">
        <ele>913.0</ele>
      </trkpt>
      <trkpt lat="32.8037" lon="-17.1476">
        <ele>899.21</ele>
      </trkpt>
      <trkpt lat="32.80373" lon="-17.14795">
        <ele>882.92</ele>
      </trkpt>
      <trkpt lat="32.80388" lon="-17.14796">
        <ele>886.3</ele>
      </trkpt>
      <trkpt lat="32.80409" lon="-17.14804">
        <ele>902.9</ele>
      </trkpt>
      <trkpt lat="32.80426" lon="-17.14821">
        <ele>901.8</ele>
      </trkpt>
      <trkpt lat="32.80449" lon="-17.14876">
        <ele>885.49</ele>
      </trkpt>
      <trkpt lat="32.80457" lon="-17.14882">
        <ele>881.32</ele>
      </trkpt>
      <trkpt lat="32.80465" lon="-17.14864">
        <ele>885.78</ele>
      </trkpt>
      <trkpt lat="32.80474" lon="-17.1486">
        <ele>886.1</ele>
      </trkpt>
      <trkpt lat="32.80497" lon="-17.14849">
        <ele>895.07</ele>
      </trkpt>
      <trkpt lat="32.8052" lon="-17.14855">
        <ele>891.44</ele>
      </trkpt>
      <trkpt lat="32.80527" lon="-17.14855">
        <ele>891.03</ele>
      </trkpt>
      <trkpt lat="32.8053" lon="-17.14851">
        <ele>891.4</ele>
      </trkpt>
      <trkpt lat="32.80534" lon="-17.14838">
        <ele>894.02</ele>
      </trkpt>
      <trkpt lat="32.80534" lon="-17.14819">
        <ele>902.35</ele>
      </trkpt>
      <trkpt lat="32.80548" lon="-17.14803">
        <ele>900.75</ele>
      </trkpt>
      <trkpt lat="32.80554" lon="-17.14803">
        <ele>896.92</ele>
      </trkpt>
      <trkpt lat="32.80582" lon="-17.14777">
        <ele>890.84</ele>
      </trkpt>
      <trkpt lat="32.80583" lon="-17.14765">
        <ele>899.34</ele>
      </trkpt>
      <trkpt lat="32.8059" lon="-17.14756">
        <ele>899.91</ele>
      </trkpt>
      <trkpt lat="32.80591" lon="-17.14741">
        <ele>908.2</ele>
      </trkpt>
      <trkpt lat="32.80605" lon="-17.14708">
        <ele>924.59</ele>
      </trkpt>
      <trkpt lat="32.80608" lon="-17.14674">
        <ele>940.64</ele>
      </trkpt>
      <trkpt lat="32.8064" lon="-17.14675">
        <ele>943.7</ele>
      </trkpt>
      <trkpt lat="32.80656" lon="-17.14694">
        <ele>940.57</ele>
      </trkpt>
      <trkpt lat="32.80673" lon="-17.14723">
        <ele>934.48</ele>
      </trkpt>
      <trkpt lat="32.8068" lon="-17.14754">
        <ele>919.13</ele>
      </trkpt>
      <trkpt lat="32.80691" lon="-17.14772">
        <ele>915.27</ele>
      </trkpt>
      <trkpt lat="32.80691" lon="-17.14772">
        <ele>915.27</ele>
      </trkpt>
      <trkpt lat="32.80691" lon="-17.14772">
        <ele>915.27</ele>
      </trkpt>
      <trkpt lat="32.80698" lon="-17.14791">
        <ele>904.82</ele>
      </trkpt>
      <trkpt lat="32.80701" lon="-17.14804">
        <ele>895.89</ele>
      </trkpt>
      <trkpt lat="32.8071" lon="-17.14813">
        <ele>901.9</ele>
      </trkpt>
      <trkpt lat="32.80746" lon="-17.14833">
        <ele>916.68</ele>
      </trkpt>
      <trkpt lat="32.80741" lon="-17.14842">
        <ele>906.91</ele>
      </trkpt>
      <trkpt lat="32.80752" lon="-17.14852">
        <ele>903.76</ele>
      </trkpt>
      <trkpt lat="32.80775" lon="-17.1485">
        <ele>915.58</ele>
      </trkpt>
      <trkpt lat="32.80775" lon="-17.1486">
        <ele>907.59</ele>
      </trkpt>
      <trkpt lat="32.80767" lon="-17.1488">
        <ele>892.04</ele>
      </trkpt>
      <trkpt lat="32.80769" lon="-17.14907">
        <ele>878.17</ele>
      </trkpt>
      <trkpt lat="32.80781" lon="-17.14933">
        <ele>872.42</ele>
      </trkpt>
      <trkpt lat="32.80776" lon="-17.14953">
        <ele>863.69</ele>
      </trkpt>
      <trkpt lat="32.80799" lon="-17.14962">
        <ele>871.93</ele>
      </trkpt>
      <trkpt lat="32.80811" lon="-17.14972">
        <ele>876.18</ele>
      </trkpt>
      <trkpt lat="32.80819" lon="-17.14977">
        <ele>880.76</ele>
      </trkpt>
      <trkpt lat="32.80812" lon="-17.14997">
        <ele>877.67</ele>
      </trkpt>
      <trkpt lat="32.80822" lon="-17.1501">
        <ele>881.94</ele>
      </trkpt>
      <trkpt lat="32.80821" lon="-17.15025">
        <ele>881.07</ele>
      </trkpt>
      <trkpt lat="32.80833" lon="-17.1504">
        <ele>887.47</ele>
      </trkpt>
      <trkpt lat="32.8083" lon="-17.1505">
        <ele>884.63</ele>
      </trkpt>
      <trkpt lat="32.80799" lon="-17.15077">
        <ele>866.91</ele>
      </trkpt>
      <trkpt lat="32.80772" lon="-17.1511">
        <ele>852.84</ele>
      </trkpt>
      <trkpt lat="32.80779" lon="-17.15137">
        <ele>856.98</ele>
      </trkpt>
      <trkpt lat="32.80781" lon="-17.15158">
        <ele>859.7</ele>
      </trkpt>
      <trkpt lat="32.80785" lon="-17.15185">
        <ele>866.27</ele>
      </trkpt>
      <trkpt lat="32.80783" lon="-17.1521">
        <ele>869.85</ele>
      </trkpt>
      <trkpt lat="32.80768" lon="-17.15249">
        <ele>865.41</ele>
      </trkpt>
      <trkpt lat="32.80755" lon="-17.15287">
        <ele>856.81</ele>
      </trkpt>
      <trkpt lat="32.80762" lon="-17.15308">
        <ele>862.3</ele>
      </trkpt>
      <trkpt lat="32.80775" lon="-17.15338">
        <ele>862.8</ele>
      </trkpt>
      <trkpt lat="32.80784" lon="-17.15357">
        <ele>853.76</ele>
      </trkpt>
      <trkpt lat="32.80795" lon="-17.15371">
        <ele>856.91</ele>
      </trkpt>
      <trkpt lat="32.80824" lon="-17.15387">
        <ele>870.75</ele>
      </trkpt>
      <trkpt lat="32.80826" lon="-17.1539">
        <ele>871.34</ele>
      </trkpt>
      <trkpt lat="32.80831" lon="-17.15421">
        <ele>878.27</ele>
      </trkpt>
      <trkpt lat="32.80824" lon="-17.15436">
        <ele>872.86</ele>
      </trkpt>
      <trkpt lat="32.80826" lon="-17.15456">
        <ele>868.55</ele>
      </trkpt>
      <trkpt lat="32.80823" lon="-17.15468">
        <ele>860.0</ele>
      </trkpt>
      <trkpt lat="32.80832" lon="-17.15478">
        <ele>860.85</ele>
      </trkpt>
      <trkpt lat="32.80837" lon="-17.15498">
        <ele>860.85</ele>
      </trkpt>
      <trkpt lat="32.80863" lon="-17.15511">
        <ele>887.8</ele>
      </trkpt>
      <trkpt lat="32.80872" lon="-17.15538">
        <ele>880.74</ele>
      </trkpt>
      <trkpt lat="32.80877" lon="-17.15589">
        <ele>847.46</ele>
      </trkpt>
      <trkpt lat="32.80891" lon="-17.15597">
        <ele>843.45</ele>
      </trkpt>
      <trkpt lat="32.80922" lon="-17.15595">
        <ele>849.85</ele>
      </trkpt>
      <trkpt lat="32.80933" lon="-17.15588">
        <ele>857.05</ele>
      </trkpt>
      <trkpt lat="32.8094" lon="-17.15579">
        <ele>863.82</ele>
      </trkpt>
      <trkpt lat="32.80961" lon="-17.15583">
        <ele>863.93</ele>
      </trkpt>
      <trkpt lat="32.80971" lon="-17.1559">
        <ele>861.92</ele>
      </trkpt>
      <trkpt lat="32.80983" lon="-17.15604">
        <ele>856.36</ele>
      </trkpt>
      <trkpt lat="32.81005" lon="-17.1561">
        <ele>854.78</ele>
      </trkpt>
      <trkpt lat="32.81016" lon="-17.15615">
        <ele>853.69</ele>
      </trkpt>
      <trkpt lat="32.81041" lon="-17.15613">
        <ele>853.1</ele>
      </trkpt>
      <trkpt lat="32.81048" lon="-17.15601">
        <ele>854.21</ele>
      </trkpt>
      <trkpt lat="32.81049" lon="-17.15567">
        <ele>860.06</ele>
      </trkpt>
      <trkpt lat="32.81037" lon="-17.15512">
        <ele>877.4</ele>
      </trkpt>
      <trkpt lat="32.81038" lon="-17.15473">
        <ele>882.33</ele>
      </trkpt>
      <trkpt lat="32.81045" lon="-17.15458">
        <ele>883.7</ele>
      </trkpt>
      <trkpt lat="32.81051" lon="-17.15433">
        <ele>887.8</ele>
      </trkpt>
      <trkpt lat="32.81032" lon="-17.154">
        <ele>892.6</ele>
      </trkpt>
      <trkpt lat="32.81035" lon="-17.15382">
        <ele>896.96</ele>
      </trkpt>
      <trkpt lat="32.81038" lon="-17.15383">
        <ele>895.79</ele>
      </trkpt>
      <trkpt lat="32.81054" lon="-17.15408">
        <ele>890.66</ele>
      </trkpt>
      <trkpt lat="32.81064" lon="-17.15407">
        <ele>891.17</ele>
      </trkpt>
      <trkpt lat="32.81083" lon="-17.15391">
        <ele>892.89</ele>
      </trkpt>
      <trkpt lat="32.81086" lon="-17.15383">
        <ele>893.22</ele>
      </trkpt>
      <trkpt lat="32.81091" lon="-17.15372">
        <ele>894.39</ele>
      </trkpt>
      <trkpt lat="32.81103" lon="-17.15349">
        <ele>901.7</ele>
      </trkpt>
      <trkpt lat="32.81105" lon="-17.15366">
        <ele>899.02</ele>
      </trkpt>
      <trkpt lat="32.811" lon="-17.15377">
        <ele>896.17</ele>
      </trkpt>
      <trkpt lat="32.81108" lon="-17.15416">
        <ele>889.49</ele>
      </trkpt>
      <trkpt lat="32.81106" lon="-17.15439">
        <ele>885.45</ele>
      </trkpt>
      <trkpt lat="32.81123" lon="-17.15456">
        <ele>881.84</ele>
      </trkpt>
      <trkpt lat="32.81133" lon="-17.15471">
        <ele>878.27</ele>
      </trkpt>
      <trkpt lat="32.81143" lon="-17.15493">
        <ele>869.13</ele>
      </trkpt>
      <trkpt lat="32.81154" lon="-17.15503">
        <ele>866.32</ele>
      </trkpt>
      <trkpt lat="32.81165" lon="-17.15498">
        <ele>868.41</ele>
      </trkpt>
      <trkpt lat="32.81174" lon="-17.15507">
        <ele>865.19</ele>
      </trkpt>
      <trkpt lat="32.81181" lon="-17.15517">
        <ele>861.56</ele>
      </trkpt>
      <trkpt lat="32.81196" lon="-17.15529">
        <ele>856.52</ele>
      </trkpt>
      <trkpt lat="32.81205" lon="-17.15527">
        <ele>856.09</ele>
      </trkpt>
      <trkpt lat="32.81208" lon="-17.15514">
        <ele>859.75</ele>
      </trkpt>
      <trkpt lat="32.81212" lon="-17.15503">
        <ele>862.8</ele>
      </trkpt>
      <trkpt lat="32.81216" lon="-17.15493">
        <ele>865.97</ele>
      </trkpt>
      <trkpt lat="32.8121" lon="-17.1547">
        <ele>874.61</ele>
      </trkpt>
      <trkpt lat="32.81217" lon="-17.15451">
        <ele>880.73</ele>
      </trkpt>
      <trkpt lat="32.81218" lon="-17.15439">
        <ele>884.76</ele>
      </trkpt>
      <trkpt lat="32.81221" lon="-17.1542">
        <ele>890.92</ele>
      </trkpt>
      <trkpt lat="32.81224" lon="-17.15403">
        <ele>896.11</ele>
      </trkpt>
      <trkpt lat="32.81226" lon="-17.15381">
        <ele>902.63</ele>
      </trkpt>
      <trkpt lat="32.81228" lon="-17.15377">
        <ele>903.47</ele>
      </trkpt>
      <trkpt lat="32.8123" lon="-17.15369">
        <ele>905.53</ele>
      </trkpt>
      <trkpt lat="32.81235" lon="-17.15368">
        <ele>905.06</ele>
      </trkpt>
      <trkpt lat="32.81235" lon="-17.15376">
        <ele>902.63</ele>
      </trkpt>
      <trkpt lat="32.81236" lon="-17.15376">
        <ele>902.46</ele>
      </trkpt>
      <trkpt lat="32.81241" lon="-17.15373">
        <ele>902.58</ele>
      </trkpt>
      <trkpt lat="32.81242" lon="-17.15374">
        <ele>902.11</ele>
      </trkpt>
      <trkpt lat="32.81245" lon="-17.15384">
        <ele>898.45</ele>
      </trkpt>
      <trkpt lat="32.81245" lon="-17.15397">
        <ele>894.27</ele>
      </trkpt>
      <trkpt lat="32.8125" lon="-17.15412">
        <ele>888.51</ele>
      </trkpt>
      <trkpt lat="32.81252" lon="-17.1544">
        <ele>882.06</ele>
      </trkpt>
      <trkpt lat="32.8126" lon="-17.1545">
        <ele>878.94</ele>
      </trkpt>
      <trkpt lat="32.8127" lon="-17.15466">
        <ele>871.51</ele>
      </trkpt>
      <trkpt lat="32.81281" lon="-17.15487">
        <ele>865.48</ele>
      </trkpt>
      <trkpt lat="32.81281" lon="-17.15504">
        <ele>860.73</ele>
      </trkpt>
      <trkpt lat="32.81283" lon="-17.15512">
        <ele>859.88</ele>
      </trkpt>
      <trkpt lat="32.81282" lon="-17.15525">
        <ele>856.45</ele>
      </trkpt>
      <trkpt lat="32.81284" lon="-17.15535">
        <ele>855.04</ele>
      </trkpt>
      <trkpt lat="32.81283" lon="-17.15545">
        <ele>852.27</ele>
      </trkpt>
      <trkpt lat="32.81293" lon="-17.15561">
        <ele>854.33</ele>
      </trkpt>
      <trkpt lat="32.81308" lon="-17.15567">
        <ele>860.8</ele>
      </trkpt>
      <trkpt lat="32.81317" lon="-17.15552">
        <ele>867.36</ele>
      </trkpt>
      <trkpt lat="32.81332" lon="-17.15564">
        <ele>870.08</ele>
      </trkpt>
      <trkpt lat="32.81351" lon="-17.15607">
        <ele>867.38</ele>
      </trkpt>
      <trkpt lat="32.81361" lon="-17.15618">
        <ele>867.98</ele>
      </trkpt>
      <trkpt lat="32.81377" lon="-17.15635">
        <ele>869.49</ele>
      </trkpt>
      <trkpt lat="32.81385" lon="-17.1564">
        <ele>871.12</ele>
      </trkpt>
      <trkpt lat="32.81405" lon="-17.15658">
        <ele>872.86</ele>
      </trkpt>
      <trkpt lat="32.81417" lon="-17.15671">
        <ele>871.56</ele>
      </trkpt>
      <trkpt lat="32.81439" lon="-17.157">
        <ele>864.66</ele>
      </trkpt>
      <trkpt lat="32.81446" lon="-17.15707">
        <ele>861.23</ele>
      </trkpt>
      <trkpt lat="32.81462" lon="-17.15724">
        <ele>849.99</ele>
      </trkpt>
      <trkpt lat="32.81473" lon="-17.15732">
        <ele>847.32</ele>
      </trkpt>
      <trkpt lat="32.81487" lon="-17.15721">
        <ele>853.84</ele>
      </trkpt>
      <trkpt lat="32.81502" lon="-17.15709">
        <ele>861.89</ele>
      </trkpt>
      <trkpt lat="32.81511" lon="-17.15709">
        <ele>862.71</ele>
      </trkpt>
      <trkpt lat="32.81565" lon="-17.15724">
        <ele>871.44</ele>
      </trkpt>
      <trkpt lat="32.8157" lon="-17.15728">
        <ele>871.2</ele>
      </trkpt>
      <trkpt lat="32.81575" lon="-17.15739">
        <ele>867.6</ele>
      </trkpt>
      <trkpt lat="32.81588" lon="-17.15754">
        <ele>867.08</ele>
      </trkpt>
      <trkpt lat="32.81594" lon="-17.15763">
        <ele>865.76</ele>
      </trkpt>
      <trkpt lat="32.816" lon="-17.1577">
        <ele>865.04</ele>
      </trkpt>
      <trkpt lat="32.8161" lon="-17.1577">
        <ele>870.94</ele>
      </trkpt>
      <trkpt lat="32.81623" lon="-17.15778">
        <ele>872.32</ele>
      </trkpt>
      <trkpt lat="32.81625" lon="-17.15785">
        <ele>870.12</ele>
      </trkpt>
      <trkpt lat="32.81642" lon="-17.158">
        <ele>870.74</ele>
      </trkpt>
      <trkpt lat="32.81647" lon="-17.15808">
        <ele>868.43</ele>
      </trkpt>
      <trkpt lat="32.81648" lon="-17.15815">
        <ele>866.11</ele>
      </trkpt>
      <trkpt lat="32.81666" lon="-17.15833">
        <ele>863.96</ele>
      </trkpt>
      <trkpt lat="32.81674" lon="-17.15867">
        <ele>856.34</ele>
      </trkpt>
      <trkpt lat="32.81684" lon="-17.15884">
        <ele>849.53</ele>
      </trkpt>
      <trkpt lat="32.81745" lon="-17.15868">
        <ele>880.21</ele>
      </trkpt>
      <trkpt lat="32.81756" lon="-17.15875">
        <ele>880.15</ele>
      </trkpt>
      <trkpt lat="32.81756" lon="-17.15875">
        <ele>880.15</ele>
      </trkpt>
      <trkpt lat="32.81756" lon="-17.15875">
        <ele>880.15</ele>
      </trkpt>
      <trkpt lat="32.81789" lon="-17.15897">
        <ele>876.8</ele>
      </trkpt>
      <trkpt lat="32.81791" lon="-17.15902">
        <ele>875.61</ele>
      </trkpt>
      <trkpt lat="32.81794" lon="-17.15904">
        <ele>875.61</ele>
      </trkpt>
      <trkpt lat="32.81795" lon="-17.15916">
        <ele>871.94</ele>
      </trkpt>
      <trkpt lat="32.81793" lon="-17.15926">
        <ele>868.94</ele>
      </trkpt>
      <trkpt lat="32.81802" lon="-17.15939">
        <ele>867.6</ele>
      </trkpt>
      <trkpt lat="32.818" lon="-17.15958">
        <ele>863.65</ele>
      </trkpt>
      <trkpt lat="32.818" lon="-17.15985">
        <ele>860.39</ele>
      </trkpt>
      <trkpt lat="32.81803" lon="-17.16003">
        <ele>860.39</ele>
      </trkpt>
      <trkpt lat="32.81804" lon="-17.16009">
        <ele>859.47</ele>
      </trkpt>
      <trkpt lat="32.81815" lon="-17.16041">
        <ele>855.14</ele>
      </trkpt>
      <trkpt lat="32.8183" lon="-17.16056">
        <ele>860.36</ele>
      </trkpt>
      <trkpt lat="32.81852" lon="-17.16071">
        <ele>852.11</ele>
      </trkpt>
      <trkpt lat="32.8186" lon="-17.16081">
        <ele>844.77</ele>
      </trkpt>
      <trkpt lat="32.81867" lon="-17.16085">
        <ele>847.74</ele>
      </trkpt>
      <trkpt lat="32.81885" lon="-17.16097">
        <ele>854.78</ele>
      </trkpt>
      <trkpt lat="32.81896" lon="-17.16095">
        <ele>861.8</ele>
      </trkpt>
      <trkpt lat="32.81913" lon="-17.16116">
        <ele>861.9</ele>
      </trkpt>
      <trkpt lat="32.8192" lon="-17.16133">
        <ele>861.92</ele>
      </trkpt>
      <trkpt lat="32.81951" lon="-17.16178">
        <ele>852.36</ele>
      </trkpt>
      <trkpt lat="32.81955" lon="-17.16184">
        <ele>850.06</ele>
      </trkpt>
      <trkpt lat="32.81965" lon="-17.16193">
        <ele>847.75</ele>
      </trkpt>
      <trkpt lat="32.81972" lon="-17.16187">
        <ele>853.22</ele>
      </trkpt>
      <trkpt lat="32.81984" lon="-17.16179">
        <ele>856.91</ele>
      </trkpt>
      <trkpt lat="32.81993" lon="-17.16179">
        <ele>856.15</ele>
      </trkpt>
      <trkpt lat="32.8201" lon="-17.16166">
        <ele>864.32</ele>
      </trkpt>
      <trkpt lat="32.82029" lon="-17.16162">
        <ele>867.51</ele>
      </trkpt>
      <trkpt lat="32.82047" lon="-17.16158">
        <ele>869.96</ele>
      </trkpt>
      <trkpt lat="32.82084" lon="-17.16171">
        <ele>866.08</ele>
      </trkpt>
      <trkpt lat="32.82094" lon="-17.16178">
        <ele>862.02</ele>
      </trkpt>
      <trkpt lat="32.82109" lon="-17.16184">
        <ele>858.99</ele>
      </trkpt>
      <trkpt lat="32.82127" lon="-17.16189">
        <ele>857.44</ele>
      </trkpt>
      <trkpt lat="32.82142" lon="-17.16191">
        <ele>857.27</ele>
      </trkpt>
      <trkpt lat="32.82166" lon="-17.16191">
        <ele>856.62</ele>
      </trkpt>
      <trkpt lat="32.82171" lon="-17.16188">
        <ele>858.6</ele>
      </trkpt>
      <trkpt lat="32.8219" lon="-17.16192">
        <ele>854.24</ele>
      </trkpt>
      <trkpt lat="32.82197" lon="-17.16193">
        <ele>852.39</ele>
      </trkpt>
      <trkpt lat="32.82213" lon="-17.16192">
        <ele>848.42</ele>
      </trkpt>
      <trkpt lat="32.82228" lon="-17.1618">
        <ele>852.52</ele>
      </trkpt>
      <trkpt lat="32.82261" lon="-17.16165">
        <ele>854.66</ele>
      </trkpt>
      <trkpt lat="32.82292" lon="-17.16166">
        <ele>848.7</ele>
      </trkpt>
      <trkpt lat="32.82305" lon="-17.16162">
        <ele>846.99</ele>
      </trkpt>
      <trkpt lat="32.82309" lon="-17.16157">
        <ele>848.2</ele>
      </trkpt>
      <trkpt lat="32.82309" lon="-17.16157">
        <ele>848.2</ele>
      </trkpt>
      <trkpt lat="32.82309" lon="-17.16157">
        <ele>848.2</ele>
      </trkpt>
      <trkpt lat="32.82319" lon="-17.16145">
        <ele>850.51</ele>
      </trkpt>
      <trkpt lat="32.82332" lon="-17.16129">
        <ele>853.22</ele>
      </trkpt>
      <trkpt lat="32.82347" lon="-17.16109">
        <ele>855.76</ele>
      </trkpt>
      <trkpt lat="32.82387" lon="-17.1609">
        <ele>849.87</ele>
      </trkpt>
      <trkpt lat="32.82393" lon="-17.16083">
        <ele>850.01</ele>
      </trkpt>
      <trkpt lat="32.82405" lon="-17.16062">
        <ele>848.37</ele>
      </trkpt>
      <trkpt lat="32.82417" lon="-17.16032">
        <ele>847.11</ele>
      </trkpt>
      <trkpt lat="32.8242" lon="-17.16022">
        <ele>848.42</ele>
      </trkpt>
      <trkpt lat="32.82435" lon="-17.15998">
        <ele>850.74</ele>
      </trkpt>
      <trkpt lat="32.82451" lon="-17.15965">
        <ele>843.46</ele>
      </trkpt>
      <trkpt lat="32.82456" lon="-17.15946">
        <ele>840.82</ele>
      </trkpt>
      <trkpt lat="32.82457" lon="-17.15921">
        <ele>846.47</ele>
      </trkpt>
      <trkpt lat="32.8245" lon="-17.15889">
        <ele>847.01</ele>
      </trkpt>
      <trkpt lat="32.82451" lon="-17.15882">
        <ele>847.12</ele>
      </trkpt>
      <trkpt lat="32.82465" lon="-17.15884">
        <ele>842.3</ele>
      </trkpt>
      <trkpt lat="32.82482" lon="-17.15885">
        <ele>836.83</ele>
      </trkpt>
      <trkpt lat="32.82494" lon="-17.15877">
        <ele>834.53</ele>
      </trkpt>
      <trkpt lat="32.82506" lon="-17.15871">
        <ele>832.96</ele>
      </trkpt>
      <trkpt lat="32.82508" lon="-17.15866">
        <ele>833.16</ele>
      </trkpt>
      <trkpt lat="32.8251" lon="-17.15861">
        <ele>833.21</ele>
      </trkpt>
      <trkpt lat="32.82504" lon="-17.15842">
        <ele>836.64</ele>
      </trkpt>
      <trkpt lat="32.82506" lon="-17.15826">
        <ele>838.26</ele>
      </trkpt>
      <trkpt lat="32.82515" lon="-17.158">
        <ele>839.97</ele>
      </trkpt>
      <trkpt lat="32.82518" lon="-17.15796">
        <ele>840.19</ele>
      </trkpt>
      <trkpt lat="32.82522" lon="-17.15794">
        <ele>839.36</ele>
      </trkpt>
      <trkpt lat="32.82531" lon="-17.15798">
        <ele>835.8</ele>
      </trkpt>
      <trkpt lat="32.82539" lon="-17.15799">
        <ele>835.67</ele>
      </trkpt>
      <trkpt lat="32.82555" lon="-17.15796">
        <ele>837.08</ele>
      </trkpt>
      <trkpt lat="32.82561" lon="-17.15793">
        <ele>838.21</ele>
      </trkpt>
      <trkpt lat="32.82589" lon="-17.15793">
        <ele>838.92</ele>
      </trkpt>
      <trkpt lat="32.82592" lon="-17.15793">
        <ele>838.98</ele>
      </trkpt>
    </trkseg>
  </trk>
</gpx>
