<?xml version="1.0"?>
<gpx xmlns="http://www.topografix.com/GPX/1/1" xmlns:xsi="http://www.w3.org/2001/XMLSchema-instance" version="1.1" creator="AllTrails.com" xsi:schemaLocation="http://www.topografix.com/GPX/1/1 http://www.topografix.com/GPX/1/1/gpx.xsd">
  <metadata>
    <name><![CDATA[PR 18 Levada do Rei]]></name>
    <desc><![CDATA[]]></desc>
    <link href="http://www.alltrails.com">
      <text>AllTrails, LLC</text>
    </link>
    <bounds minlat="32.79577" minlon="-16.93958" maxlat="32.81695" maxlon="-16.92413"/>
  </metadata>
  <trk>
    <name><![CDATA[PR 18 Levada do Rei]]></name>
    <src>AllTrails</src>
    <trkseg>
      <trkpt lat="32.81695" lon="-16.92462">
        <ele>527.42</ele>
      </trkpt>
      <trkpt lat="32.81694" lon="-16.92462">
        <ele>527.29</ele>
      </trkpt>
      <trkpt lat="32.81688" lon="-16.92465">
        <ele>526.16</ele>
      </trkpt>
      <trkpt lat="32.81684" lon="-16.92468">
        <ele>525.33</ele>
      </trkpt>
      <trkpt lat="32.81652" lon="-16.92505">
        <ele>527.82</ele>
      </trkpt>
      <trkpt lat="32.81636" lon="-16.92521">
        <ele>530.75</ele>
      </trkpt>
      <trkpt lat="32.81621" lon="-16.92533">
        <ele>532.51</ele>
      </trkpt>
      <trkpt lat="32.81604" lon="-16.92541">
        <ele>533.85</ele>
      </trkpt>
      <trkpt lat="32.81592" lon="-16.92538">
        <ele>535.23</ele>
      </trkpt>
      <trkpt lat="32.81584" lon="-16.92541">
        <ele>536.39</ele>
      </trkpt>
      <trkpt lat="32.8158" lon="-16.92542">
        <ele>537.54</ele>
      </trkpt>
      <trkpt lat="32.81574" lon="-16.9254">
        <ele>539.24</ele>
      </trkpt>
      <trkpt lat="32.81571" lon="-16.9254">
        <ele>540.13</ele>
      </trkpt>
      <trkpt lat="32.81569" lon="-16.92542">
        <ele>540.92</ele>
      </trkpt>
      <trkpt lat="32.8157" lon="-16.92546">
        <ele>540.96</ele>
      </trkpt>
      <trkpt lat="32.81574" lon="-16.92549">
        <ele>539.89</ele>
      </trkpt>
      <trkpt lat="32.81582" lon="-16.92556">
        <ele>537.6</ele>
      </trkpt>
      <trkpt lat="32.8159" lon="-16.9256">
        <ele>537.36</ele>
      </trkpt>
      <trkpt lat="32.81591" lon="-16.92562">
        <ele>537.73</ele>
      </trkpt>
      <trkpt lat="32.81592" lon="-16.92564">
        <ele>538.1</ele>
      </trkpt>
      <trkpt lat="32.81589" lon="-16.92578">
        <ele>541.88</ele>
      </trkpt>
      <trkpt lat="32.81587" lon="-16.92581">
        <ele>542.9</ele>
      </trkpt>
      <trkpt lat="32.81584" lon="-16.92583">
        <ele>543.82</ele>
      </trkpt>
      <trkpt lat="32.81573" lon="-16.92583">
        <ele>549.47</ele>
      </trkpt>
      <trkpt lat="32.81573" lon="-16.92583">
        <ele>549.47</ele>
      </trkpt>
      <trkpt lat="32.81573" lon="-16.92583">
        <ele>549.47</ele>
      </trkpt>
      <trkpt lat="32.81558" lon="-16.92582">
        <ele>557.13</ele>
      </trkpt>
      <trkpt lat="32.81531" lon="-16.92583">
        <ele>563.39</ele>
      </trkpt>
      <trkpt lat="32.81524" lon="-16.92584">
        <ele>564.69</ele>
      </trkpt>
      <trkpt lat="32.81521" lon="-16.92582">
        <ele>565.17</ele>
      </trkpt>
      <trkpt lat="32.81518" lon="-16.9258">
        <ele>565.64</ele>
      </trkpt>
      <trkpt lat="32.8151" lon="-16.92571">
        <ele>566.76</ele>
      </trkpt>
      <trkpt lat="32.8151" lon="-16.92571">
        <ele>566.76</ele>
      </trkpt>
      <trkpt lat="32.8151" lon="-16.92571">
        <ele>566.76</ele>
      </trkpt>
      <trkpt lat="32.81491" lon="-16.92556">
        <ele>567.38</ele>
      </trkpt>
      <trkpt lat="32.81478" lon="-16.92556">
        <ele>566.46</ele>
      </trkpt>
      <trkpt lat="32.81468" lon="-16.92552">
        <ele>564.48</ele>
      </trkpt>
      <trkpt lat="32.8146" lon="-16.92544">
        <ele>561.81</ele>
      </trkpt>
      <trkpt lat="32.81455" lon="-16.92531">
        <ele>559.77</ele>
      </trkpt>
      <trkpt lat="32.81447" lon="-16.92521">
        <ele>557.39</ele>
      </trkpt>
      <trkpt lat="32.81447" lon="-16.92511">
        <ele>555.95</ele>
      </trkpt>
      <trkpt lat="32.81453" lon="-16.92493">
        <ele>553.82</ele>
      </trkpt>
      <trkpt lat="32.81458" lon="-16.9248">
        <ele>551.65</ele>
      </trkpt>
      <trkpt lat="32.81458" lon="-16.92465">
        <ele>549.72</ele>
      </trkpt>
      <trkpt lat="32.81462" lon="-16.92445">
        <ele>549.28</ele>
      </trkpt>
      <trkpt lat="32.81462" lon="-16.92422">
        <ele>546.84</ele>
      </trkpt>
      <trkpt lat="32.81457" lon="-16.92415">
        <ele>545.75</ele>
      </trkpt>
      <trkpt lat="32.81449" lon="-16.92413">
        <ele>544.86</ele>
      </trkpt>
      <trkpt lat="32.81443" lon="-16.92416">
        <ele>544.33</ele>
      </trkpt>
      <trkpt lat="32.81438" lon="-16.92426">
        <ele>543.53</ele>
      </trkpt>
      <trkpt lat="32.81434" lon="-16.92445">
        <ele>544.24</ele>
      </trkpt>
      <trkpt lat="32.81432" lon="-16.92466">
        <ele>543.6</ele>
      </trkpt>
      <trkpt lat="32.81415" lon="-16.92485">
        <ele>538.16</ele>
      </trkpt>
      <trkpt lat="32.81411" lon="-16.92491">
        <ele>537.25</ele>
      </trkpt>
      <trkpt lat="32.81412" lon="-16.92513">
        <ele>540.29</ele>
      </trkpt>
      <trkpt lat="32.81414" lon="-16.9253">
        <ele>543.44</ele>
      </trkpt>
      <trkpt lat="32.81413" lon="-16.9255">
        <ele>544.33</ele>
      </trkpt>
      <trkpt lat="32.81416" lon="-16.92574">
        <ele>544.57</ele>
      </trkpt>
      <trkpt lat="32.81425" lon="-16.92583">
        <ele>548.23</ele>
      </trkpt>
      <trkpt lat="32.81432" lon="-16.92601">
        <ele>550.32</ele>
      </trkpt>
      <trkpt lat="32.81436" lon="-16.92615">
        <ele>551.33</ele>
      </trkpt>
      <trkpt lat="32.81435" lon="-16.92628">
        <ele>552.23</ele>
      </trkpt>
      <trkpt lat="32.8144" lon="-16.92645">
        <ele>555.64</ele>
      </trkpt>
      <trkpt lat="32.81441" lon="-16.92662">
        <ele>558.44</ele>
      </trkpt>
      <trkpt lat="32.81441" lon="-16.92662">
        <ele>558.44</ele>
      </trkpt>
      <trkpt lat="32.81441" lon="-16.92662">
        <ele>558.44</ele>
      </trkpt>
      <trkpt lat="32.81442" lon="-16.92666">
        <ele>559.29</ele>
      </trkpt>
      <trkpt lat="32.81453" lon="-16.92698">
        <ele>565.2</ele>
      </trkpt>
      <trkpt lat="32.81456" lon="-16.9271">
        <ele>565.35</ele>
      </trkpt>
      <trkpt lat="32.81453" lon="-16.92732">
        <ele>561.68</ele>
      </trkpt>
      <trkpt lat="32.81447" lon="-16.92739">
        <ele>557.17</ele>
      </trkpt>
      <trkpt lat="32.8143" lon="-16.92752">
        <ele>554.09</ele>
      </trkpt>
      <trkpt lat="32.81425" lon="-16.92767">
        <ele>558.11</ele>
      </trkpt>
      <trkpt lat="32.81414" lon="-16.92782">
        <ele>560.93</ele>
      </trkpt>
      <trkpt lat="32.81414" lon="-16.92783">
        <ele>561.22</ele>
      </trkpt>
      <trkpt lat="32.8142" lon="-16.92795">
        <ele>565.92</ele>
      </trkpt>
      <trkpt lat="32.81432" lon="-16.92806">
        <ele>574.12</ele>
      </trkpt>
      <trkpt lat="32.81435" lon="-16.9282">
        <ele>576.65</ele>
      </trkpt>
      <trkpt lat="32.81434" lon="-16.92835">
        <ele>577.84</ele>
      </trkpt>
      <trkpt lat="32.81428" lon="-16.9285">
        <ele>578.18</ele>
      </trkpt>
      <trkpt lat="32.81419" lon="-16.92856">
        <ele>576.7</ele>
      </trkpt>
      <trkpt lat="32.8141" lon="-16.92855">
        <ele>575.23</ele>
      </trkpt>
      <trkpt lat="32.81404" lon="-16.92844">
        <ele>572.83</ele>
      </trkpt>
      <trkpt lat="32.8139" lon="-16.92842">
        <ele>571.34</ele>
      </trkpt>
      <trkpt lat="32.8138" lon="-16.92841">
        <ele>570.82</ele>
      </trkpt>
      <trkpt lat="32.81374" lon="-16.92828">
        <ele>568.28</ele>
      </trkpt>
      <trkpt lat="32.81371" lon="-16.92817">
        <ele>566.91</ele>
      </trkpt>
      <trkpt lat="32.81358" lon="-16.92799">
        <ele>565.24</ele>
      </trkpt>
      <trkpt lat="32.8135" lon="-16.92792">
        <ele>565.78</ele>
      </trkpt>
      <trkpt lat="32.81349" lon="-16.92781">
        <ele>563.3</ele>
      </trkpt>
      <trkpt lat="32.81351" lon="-16.92762">
        <ele>556.64</ele>
      </trkpt>
      <trkpt lat="32.81347" lon="-16.92745">
        <ele>550.15</ele>
      </trkpt>
      <trkpt lat="32.81341" lon="-16.92734">
        <ele>545.05</ele>
      </trkpt>
      <trkpt lat="32.81333" lon="-16.92733">
        <ele>544.73</ele>
      </trkpt>
      <trkpt lat="32.81318" lon="-16.92744">
        <ele>551.97</ele>
      </trkpt>
      <trkpt lat="32.81311" lon="-16.92745">
        <ele>553.49</ele>
      </trkpt>
      <trkpt lat="32.81306" lon="-16.92739">
        <ele>552.35</ele>
      </trkpt>
      <trkpt lat="32.81305" lon="-16.92726">
        <ele>548.2</ele>
      </trkpt>
      <trkpt lat="32.81305" lon="-16.92726">
        <ele>548.2</ele>
      </trkpt>
      <trkpt lat="32.81305" lon="-16.92726">
        <ele>548.2</ele>
      </trkpt>
      <trkpt lat="32.81304" lon="-16.92723">
        <ele>547.2</ele>
      </trkpt>
      <trkpt lat="32.81306" lon="-16.92713">
        <ele>542.94</ele>
      </trkpt>
      <trkpt lat="32.81305" lon="-16.92706">
        <ele>540.01</ele>
      </trkpt>
      <trkpt lat="32.81299" lon="-16.92705">
        <ele>539.76</ele>
      </trkpt>
      <trkpt lat="32.81294" lon="-16.92703">
        <ele>539.14</ele>
      </trkpt>
      <trkpt lat="32.81292" lon="-16.92704">
        <ele>539.6</ele>
      </trkpt>
      <trkpt lat="32.81285" lon="-16.92713">
        <ele>543.01</ele>
      </trkpt>
      <trkpt lat="32.81269" lon="-16.92751">
        <ele>553.92</ele>
      </trkpt>
      <trkpt lat="32.81256" lon="-16.92764">
        <ele>553.7</ele>
      </trkpt>
      <trkpt lat="32.81247" lon="-16.92775">
        <ele>553.78</ele>
      </trkpt>
      <trkpt lat="32.81241" lon="-16.92793">
        <ele>554.76</ele>
      </trkpt>
      <trkpt lat="32.81242" lon="-16.92811">
        <ele>556.26</ele>
      </trkpt>
      <trkpt lat="32.8124" lon="-16.92824">
        <ele>557.67</ele>
      </trkpt>
      <trkpt lat="32.81236" lon="-16.92833">
        <ele>558.44</ele>
      </trkpt>
      <trkpt lat="32.8123" lon="-16.92843">
        <ele>557.39</ele>
      </trkpt>
      <trkpt lat="32.81221" lon="-16.9286">
        <ele>555.0</ele>
      </trkpt>
      <trkpt lat="32.81217" lon="-16.92871">
        <ele>550.13</ele>
      </trkpt>
      <trkpt lat="32.81212" lon="-16.92885">
        <ele>544.04</ele>
      </trkpt>
      <trkpt lat="32.81208" lon="-16.92902">
        <ele>546.17</ele>
      </trkpt>
      <trkpt lat="32.81204" lon="-16.92911">
        <ele>547.98</ele>
      </trkpt>
      <trkpt lat="32.81199" lon="-16.92918">
        <ele>548.69</ele>
      </trkpt>
      <trkpt lat="32.81194" lon="-16.92932">
        <ele>551.24</ele>
      </trkpt>
      <trkpt lat="32.81193" lon="-16.92944">
        <ele>555.11</ele>
      </trkpt>
      <trkpt lat="32.8119" lon="-16.92949">
        <ele>553.95</ele>
      </trkpt>
      <trkpt lat="32.81183" lon="-16.9295">
        <ele>550.51</ele>
      </trkpt>
      <trkpt lat="32.81176" lon="-16.92946">
        <ele>546.8</ele>
      </trkpt>
      <trkpt lat="32.81164" lon="-16.92956">
        <ele>540.08</ele>
      </trkpt>
      <trkpt lat="32.81148" lon="-16.92983">
        <ele>532.4</ele>
      </trkpt>
      <trkpt lat="32.81142" lon="-16.93005">
        <ele>537.71</ele>
      </trkpt>
      <trkpt lat="32.81141" lon="-16.93011">
        <ele>540.85</ele>
      </trkpt>
      <trkpt lat="32.81141" lon="-16.93011">
        <ele>540.85</ele>
      </trkpt>
      <trkpt lat="32.81141" lon="-16.93011">
        <ele>540.85</ele>
      </trkpt>
      <trkpt lat="32.81134" lon="-16.93033">
        <ele>546.51</ele>
      </trkpt>
      <trkpt lat="32.81122" lon="-16.93055">
        <ele>540.02</ele>
      </trkpt>
      <trkpt lat="32.81119" lon="-16.93069">
        <ele>550.73</ele>
      </trkpt>
      <trkpt lat="32.81101" lon="-16.93109">
        <ele>567.12</ele>
      </trkpt>
      <trkpt lat="32.81092" lon="-16.93123">
        <ele>562.73</ele>
      </trkpt>
      <trkpt lat="32.81085" lon="-16.93132">
        <ele>561.14</ele>
      </trkpt>
      <trkpt lat="32.8108" lon="-16.93146">
        <ele>567.55</ele>
      </trkpt>
      <trkpt lat="32.81073" lon="-16.9316">
        <ele>568.3</ele>
      </trkpt>
      <trkpt lat="32.81056" lon="-16.93181">
        <ele>559.59</ele>
      </trkpt>
      <trkpt lat="32.81044" lon="-16.93189">
        <ele>557.32</ele>
      </trkpt>
      <trkpt lat="32.81036" lon="-16.93196">
        <ele>558.9</ele>
      </trkpt>
      <trkpt lat="32.81017" lon="-16.93207">
        <ele>551.23</ele>
      </trkpt>
      <trkpt lat="32.80998" lon="-16.93222">
        <ele>550.97</ele>
      </trkpt>
      <trkpt lat="32.80972" lon="-16.93227">
        <ele>531.84</ele>
      </trkpt>
      <trkpt lat="32.80972" lon="-16.93227">
        <ele>531.84</ele>
      </trkpt>
      <trkpt lat="32.80972" lon="-16.93227">
        <ele>531.84</ele>
      </trkpt>
      <trkpt lat="32.80957" lon="-16.9324">
        <ele>532.14</ele>
      </trkpt>
      <trkpt lat="32.80948" lon="-16.93261">
        <ele>536.12</ele>
      </trkpt>
      <trkpt lat="32.80942" lon="-16.93289">
        <ele>546.61</ele>
      </trkpt>
      <trkpt lat="32.80939" lon="-16.93314">
        <ele>556.24</ele>
      </trkpt>
      <trkpt lat="32.80925" lon="-16.93334">
        <ele>547.24</ele>
      </trkpt>
      <trkpt lat="32.80924" lon="-16.9336">
        <ele>547.79</ele>
      </trkpt>
      <trkpt lat="32.80931" lon="-16.93399">
        <ele>557.88</ele>
      </trkpt>
      <trkpt lat="32.80928" lon="-16.93419">
        <ele>557.65</ele>
      </trkpt>
      <trkpt lat="32.80924" lon="-16.93429">
        <ele>556.56</ele>
      </trkpt>
      <trkpt lat="32.80913" lon="-16.93438">
        <ele>549.42</ele>
      </trkpt>
      <trkpt lat="32.8091" lon="-16.93465">
        <ele>552.96</ele>
      </trkpt>
      <trkpt lat="32.80908" lon="-16.93492">
        <ele>552.81</ele>
      </trkpt>
      <trkpt lat="32.80901" lon="-16.93529">
        <ele>560.76</ele>
      </trkpt>
      <trkpt lat="32.80888" lon="-16.93552">
        <ele>566.5</ele>
      </trkpt>
      <trkpt lat="32.80871" lon="-16.93563">
        <ele>559.76</ele>
      </trkpt>
      <trkpt lat="32.80853" lon="-16.93584">
        <ele>551.0</ele>
      </trkpt>
      <trkpt lat="32.80849" lon="-16.93596">
        <ele>547.73</ele>
      </trkpt>
      <trkpt lat="32.80856" lon="-16.93612">
        <ele>553.38</ele>
      </trkpt>
      <trkpt lat="32.80857" lon="-16.9362">
        <ele>550.63</ele>
      </trkpt>
      <trkpt lat="32.8086" lon="-16.93633">
        <ele>546.96</ele>
      </trkpt>
      <trkpt lat="32.80864" lon="-16.93661">
        <ele>542.8</ele>
      </trkpt>
      <trkpt lat="32.80865" lon="-16.93673">
        <ele>542.72</ele>
      </trkpt>
      <trkpt lat="32.80863" lon="-16.93687">
        <ele>541.05</ele>
      </trkpt>
      <trkpt lat="32.80854" lon="-16.93699">
        <ele>540.2</ele>
      </trkpt>
      <trkpt lat="32.80838" lon="-16.93706">
        <ele>536.58</ele>
      </trkpt>
      <trkpt lat="32.8083" lon="-16.93722">
        <ele>535.94</ele>
      </trkpt>
      <trkpt lat="32.80828" lon="-16.93732">
        <ele>542.94</ele>
      </trkpt>
      <trkpt lat="32.80827" lon="-16.93748">
        <ele>552.88</ele>
      </trkpt>
      <trkpt lat="32.80818" lon="-16.93764">
        <ele>553.31</ele>
      </trkpt>
      <trkpt lat="32.8081" lon="-16.93774">
        <ele>553.26</ele>
      </trkpt>
      <trkpt lat="32.80802" lon="-16.93788">
        <ele>554.44</ele>
      </trkpt>
      <trkpt lat="32.80794" lon="-16.93795">
        <ele>554.49</ele>
      </trkpt>
      <trkpt lat="32.80787" lon="-16.93805">
        <ele>554.6</ele>
      </trkpt>
      <trkpt lat="32.80779" lon="-16.93814">
        <ele>557.56</ele>
      </trkpt>
      <trkpt lat="32.80765" lon="-16.93822">
        <ele>561.07</ele>
      </trkpt>
      <trkpt lat="32.80754" lon="-16.9384">
        <ele>562.86</ele>
      </trkpt>
      <trkpt lat="32.80749" lon="-16.93852">
        <ele>565.44</ele>
      </trkpt>
      <trkpt lat="32.80744" lon="-16.93864">
        <ele>567.98</ele>
      </trkpt>
      <trkpt lat="32.80738" lon="-16.93874">
        <ele>567.8</ele>
      </trkpt>
      <trkpt lat="32.80724" lon="-16.93891">
        <ele>567.24</ele>
      </trkpt>
      <trkpt lat="32.80698" lon="-16.93916">
        <ele>572.5</ele>
      </trkpt>
      <trkpt lat="32.80689" lon="-16.93926">
        <ele>578.63</ele>
      </trkpt>
      <trkpt lat="32.80689" lon="-16.93926">
        <ele>578.63</ele>
      </trkpt>
      <trkpt lat="32.80689" lon="-16.93926">
        <ele>578.63</ele>
      </trkpt>
      <trkpt lat="32.80684" lon="-16.93932">
        <ele>581.34</ele>
      </trkpt>
      <trkpt lat="32.80679" lon="-16.93944">
        <ele>582.03</ele>
      </trkpt>
      <trkpt lat="32.80674" lon="-16.93955">
        <ele>582.74</ele>
      </trkpt>
      <trkpt lat="32.8067" lon="-16.93958">
        <ele>583.23</ele>
      </trkpt>
      <trkpt lat="32.8066" lon="-16.93957">
        <ele>588.23</ele>
      </trkpt>
      <trkpt lat="32.80656" lon="-16.9394">
        <ele>592.1</ele>
      </trkpt>
      <trkpt lat="32.80654" lon="-16.93935">
        <ele>594.99</ele>
      </trkpt>
      <trkpt lat="32.80656" lon="-16.93923">
        <ele>596.95</ele>
      </trkpt>
      <trkpt lat="32.80664" lon="-16.93904">
        <ele>593.42</ele>
      </trkpt>
      <trkpt lat="32.80686" lon="-16.93844">
        <ele>591.6</ele>
      </trkpt>
      <trkpt lat="32.8069" lon="-16.93828">
        <ele>593.61</ele>
      </trkpt>
      <trkpt lat="32.80696" lon="-16.93806">
        <ele>593.7</ele>
      </trkpt>
      <trkpt lat="32.80705" lon="-16.93794">
        <ele>586.62</ele>
      </trkpt>
      <trkpt lat="32.80708" lon="-16.93782">
        <ele>583.5</ele>
      </trkpt>
      <trkpt lat="32.80705" lon="-16.93764">
        <ele>580.91</ele>
      </trkpt>
      <trkpt lat="32.80687" lon="-16.93724">
        <ele>585.26</ele>
      </trkpt>
      <trkpt lat="32.80672" lon="-16.93695">
        <ele>578.52</ele>
      </trkpt>
      <trkpt lat="32.80664" lon="-16.93686">
        <ele>580.44</ele>
      </trkpt>
      <trkpt lat="32.80653" lon="-16.93685">
        <ele>585.86</ele>
      </trkpt>
      <trkpt lat="32.80647" lon="-16.93682">
        <ele>588.32</ele>
      </trkpt>
      <trkpt lat="32.80638" lon="-16.93668">
        <ele>589.92</ele>
      </trkpt>
      <trkpt lat="32.80624" lon="-16.93645">
        <ele>590.92</ele>
      </trkpt>
      <trkpt lat="32.80623" lon="-16.93628">
        <ele>585.78</ele>
      </trkpt>
      <trkpt lat="32.8062" lon="-16.93616">
        <ele>583.86</ele>
      </trkpt>
      <trkpt lat="32.80611" lon="-16.93596">
        <ele>584.88</ele>
      </trkpt>
      <trkpt lat="32.80601" lon="-16.93582">
        <ele>587.76</ele>
      </trkpt>
      <trkpt lat="32.80598" lon="-16.9357">
        <ele>589.76</ele>
      </trkpt>
      <trkpt lat="32.80601" lon="-16.93551">
        <ele>588.91</ele>
      </trkpt>
      <trkpt lat="32.80605" lon="-16.93535">
        <ele>588.86</ele>
      </trkpt>
      <trkpt lat="32.80618" lon="-16.93517">
        <ele>581.97</ele>
      </trkpt>
      <trkpt lat="32.80629" lon="-16.93503">
        <ele>574.8</ele>
      </trkpt>
      <trkpt lat="32.80642" lon="-16.93484">
        <ele>567.71</ele>
      </trkpt>
      <trkpt lat="32.80642" lon="-16.93484">
        <ele>567.71</ele>
      </trkpt>
      <trkpt lat="32.80642" lon="-16.93484">
        <ele>567.71</ele>
      </trkpt>
      <trkpt lat="32.80644" lon="-16.93481">
        <ele>566.44</ele>
      </trkpt>
      <trkpt lat="32.80657" lon="-16.9345">
        <ele>551.45</ele>
      </trkpt>
      <trkpt lat="32.8066" lon="-16.93431">
        <ele>546.33</ele>
      </trkpt>
      <trkpt lat="32.80657" lon="-16.93423">
        <ele>546.02</ele>
      </trkpt>
      <trkpt lat="32.80644" lon="-16.93418">
        <ele>548.95</ele>
      </trkpt>
      <trkpt lat="32.80634" lon="-16.93412">
        <ele>549.81</ele>
      </trkpt>
      <trkpt lat="32.80627" lon="-16.93407">
        <ele>549.55</ele>
      </trkpt>
      <trkpt lat="32.80619" lon="-16.934">
        <ele>547.21</ele>
      </trkpt>
      <trkpt lat="32.80615" lon="-16.93391">
        <ele>541.22</ele>
      </trkpt>
      <trkpt lat="32.8061" lon="-16.93377">
        <ele>529.65</ele>
      </trkpt>
      <trkpt lat="32.806" lon="-16.9337">
        <ele>522.74</ele>
      </trkpt>
      <trkpt lat="32.80588" lon="-16.93373">
        <ele>524.49</ele>
      </trkpt>
      <trkpt lat="32.80568" lon="-16.93386">
        <ele>537.08</ele>
      </trkpt>
      <trkpt lat="32.80547" lon="-16.93415">
        <ele>564.47</ele>
      </trkpt>
      <trkpt lat="32.80526" lon="-16.93439">
        <ele>575.41</ele>
      </trkpt>
      <trkpt lat="32.80505" lon="-16.93458">
        <ele>584.77</ele>
      </trkpt>
      <trkpt lat="32.80496" lon="-16.93466">
        <ele>588.37</ele>
      </trkpt>
      <trkpt lat="32.80491" lon="-16.93471">
        <ele>590.44</ele>
      </trkpt>
      <trkpt lat="32.80482" lon="-16.93489">
        <ele>596.23</ele>
      </trkpt>
      <trkpt lat="32.80478" lon="-16.93493">
        <ele>595.98</ele>
      </trkpt>
      <trkpt lat="32.80476" lon="-16.93493">
        <ele>595.12</ele>
      </trkpt>
      <trkpt lat="32.80472" lon="-16.93492">
        <ele>593.31</ele>
      </trkpt>
      <trkpt lat="32.80472" lon="-16.93483">
        <ele>591.35</ele>
      </trkpt>
      <trkpt lat="32.8047" lon="-16.93462">
        <ele>585.43</ele>
      </trkpt>
      <trkpt lat="32.8046" lon="-16.93437">
        <ele>575.0</ele>
      </trkpt>
      <trkpt lat="32.80461" lon="-16.9342">
        <ele>563.95</ele>
      </trkpt>
      <trkpt lat="32.80464" lon="-16.93407">
        <ele>552.45</ele>
      </trkpt>
      <trkpt lat="32.80464" lon="-16.93401">
        <ele>546.45</ele>
      </trkpt>
      <trkpt lat="32.80462" lon="-16.93395">
        <ele>539.89</ele>
      </trkpt>
      <trkpt lat="32.80456" lon="-16.93393">
        <ele>536.11</ele>
      </trkpt>
      <trkpt lat="32.8045" lon="-16.93395">
        <ele>536.58</ele>
      </trkpt>
      <trkpt lat="32.80433" lon="-16.93396">
        <ele>535.58</ele>
      </trkpt>
      <trkpt lat="32.8042" lon="-16.93407">
        <ele>548.25</ele>
      </trkpt>
      <trkpt lat="32.80408" lon="-16.93414">
        <ele>555.95</ele>
      </trkpt>
      <trkpt lat="32.80389" lon="-16.93418">
        <ele>557.68</ele>
      </trkpt>
      <trkpt lat="32.80362" lon="-16.93423">
        <ele>556.41</ele>
      </trkpt>
      <trkpt lat="32.80321" lon="-16.93409">
        <ele>555.32</ele>
      </trkpt>
      <trkpt lat="32.80282" lon="-16.93395">
        <ele>539.07</ele>
      </trkpt>
      <trkpt lat="32.80269" lon="-16.93391">
        <ele>531.2</ele>
      </trkpt>
      <trkpt lat="32.80263" lon="-16.93392">
        <ele>531.16</ele>
      </trkpt>
      <trkpt lat="32.80259" lon="-16.93392">
        <ele>530.27</ele>
      </trkpt>
      <trkpt lat="32.80256" lon="-16.93396">
        <ele>534.11</ele>
      </trkpt>
      <trkpt lat="32.80239" lon="-16.93411">
        <ele>545.4</ele>
      </trkpt>
      <trkpt lat="32.80229" lon="-16.9342">
        <ele>549.47</ele>
      </trkpt>
      <trkpt lat="32.80214" lon="-16.93434">
        <ele>545.3</ele>
      </trkpt>
      <trkpt lat="32.802" lon="-16.9345">
        <ele>546.32</ele>
      </trkpt>
      <trkpt lat="32.80196" lon="-16.93481">
        <ele>563.62</ele>
      </trkpt>
      <trkpt lat="32.80189" lon="-16.93497">
        <ele>568.07</ele>
      </trkpt>
      <trkpt lat="32.80182" lon="-16.93506">
        <ele>566.06</ele>
      </trkpt>
      <trkpt lat="32.80172" lon="-16.93512">
        <ele>559.76</ele>
      </trkpt>
      <trkpt lat="32.80161" lon="-16.9351">
        <ele>548.24</ele>
      </trkpt>
      <trkpt lat="32.8015" lon="-16.93514">
        <ele>541.7</ele>
      </trkpt>
      <trkpt lat="32.80143" lon="-16.93526">
        <ele>547.86</ele>
      </trkpt>
      <trkpt lat="32.80137" lon="-16.93546">
        <ele>561.29</ele>
      </trkpt>
      <trkpt lat="32.80122" lon="-16.93573">
        <ele>573.4</ele>
      </trkpt>
      <trkpt lat="32.80115" lon="-16.93572">
        <ele>568.11</ele>
      </trkpt>
      <trkpt lat="32.80097" lon="-16.93559">
        <ele>541.2</ele>
      </trkpt>
      <trkpt lat="32.80089" lon="-16.93558">
        <ele>532.6</ele>
      </trkpt>
      <trkpt lat="32.80076" lon="-16.93575">
        <ele>537.95</ele>
      </trkpt>
      <trkpt lat="32.80065" lon="-16.93588">
        <ele>542.33</ele>
      </trkpt>
      <trkpt lat="32.80045" lon="-16.93606">
        <ele>551.44</ele>
      </trkpt>
      <trkpt lat="32.80018" lon="-16.93607">
        <ele>548.53</ele>
      </trkpt>
      <trkpt lat="32.79991" lon="-16.93616">
        <ele>549.41</ele>
      </trkpt>
      <trkpt lat="32.79958" lon="-16.93626">
        <ele>558.14</ele>
      </trkpt>
      <trkpt lat="32.79945" lon="-16.93628">
        <ele>558.93</ele>
      </trkpt>
      <trkpt lat="32.79931" lon="-16.9364">
        <ele>562.49</ele>
      </trkpt>
      <trkpt lat="32.79917" lon="-16.93668">
        <ele>578.12</ele>
      </trkpt>
      <trkpt lat="32.799" lon="-16.93685">
        <ele>578.0</ele>
      </trkpt>
      <trkpt lat="32.79884" lon="-16.93699">
        <ele>578.85</ele>
      </trkpt>
      <trkpt lat="32.79869" lon="-16.93706">
        <ele>579.46</ele>
      </trkpt>
      <trkpt lat="32.79859" lon="-16.9371">
        <ele>580.82</ele>
      </trkpt>
      <trkpt lat="32.79857" lon="-16.93711">
        <ele>581.77</ele>
      </trkpt>
      <trkpt lat="32.79846" lon="-16.93711">
        <ele>580.44</ele>
      </trkpt>
      <trkpt lat="32.79839" lon="-16.93701">
        <ele>571.37</ele>
      </trkpt>
      <trkpt lat="32.79836" lon="-16.9368">
        <ele>561.67</ele>
      </trkpt>
      <trkpt lat="32.79826" lon="-16.93664">
        <ele>557.73</ele>
      </trkpt>
      <trkpt lat="32.79787" lon="-16.93648">
        <ele>560.06</ele>
      </trkpt>
      <trkpt lat="32.79772" lon="-16.93647">
        <ele>564.13</ele>
      </trkpt>
      <trkpt lat="32.79758" lon="-16.93652">
        <ele>568.36</ele>
      </trkpt>
      <trkpt lat="32.79749" lon="-16.93684">
        <ele>575.56</ele>
      </trkpt>
      <trkpt lat="32.7974" lon="-16.93697">
        <ele>579.37</ele>
      </trkpt>
      <trkpt lat="32.79713" lon="-16.93722">
        <ele>596.87</ele>
      </trkpt>
      <trkpt lat="32.79695" lon="-16.93753">
        <ele>623.73</ele>
      </trkpt>
      <trkpt lat="32.79683" lon="-16.93797">
        <ele>664.26</ele>
      </trkpt>
      <trkpt lat="32.7968" lon="-16.93803">
        <ele>667.11</ele>
      </trkpt>
      <trkpt lat="32.7968" lon="-16.93803">
        <ele>667.11</ele>
      </trkpt>
      <trkpt lat="32.7968" lon="-16.93803">
        <ele>667.11</ele>
      </trkpt>
      <trkpt lat="32.79676" lon="-16.93815">
        <ele>677.21</ele>
      </trkpt>
      <trkpt lat="32.79669" lon="-16.93818">
        <ele>678.58</ele>
      </trkpt>
      <trkpt lat="32.79654" lon="-16.93817">
        <ele>680.14</ele>
      </trkpt>
      <trkpt lat="32.79636" lon="-16.93802">
        <ele>673.85</ele>
      </trkpt>
      <trkpt lat="32.79619" lon="-16.93773">
        <ele>670.61</ele>
      </trkpt>
      <trkpt lat="32.79613" lon="-16.93731">
        <ele>663.13</ele>
      </trkpt>
      <trkpt lat="32.79604" lon="-16.93707">
        <ele>663.1</ele>
      </trkpt>
      <trkpt lat="32.79577" lon="-16.93691">
        <ele>671.7</ele>
      </trkpt>
    </trkseg>
  </trk>
</gpx>
