<?xml version="1.0" encoding="UTF-8" standalone="no" ?>

<gpx xmlns="http://www.topografix.com/GPX/1/1" creator="waymarkedtrails.org" version="1.1" xmlns:xsi="http://www.w3.org/2001/XMLSchema-instance" xsi:schemaLocation="http://www.topografix.com/GPX/1/1 http://www.topografix.com/GPX/1/1/gpx.xsd"><metadata><name>PR2 - Vereda do Urzal</name><copyright author="OpenStreetMap and Contributors"><license>https://www.openstreetmap.org/copyright</license></copyright><link href="http://hiking.waymarkedtrails.org/hiking/v1/details/relation/4298398/geometry/gpx"><text>Waymarked Trails</text></link><time>2025-01-04T16:18:25.986422</time></metadata><trk><name>PR2 - Vereda do Urzal</name><trkseg><trkpt lat="32.7822088" lon="-16.9785306" /><trkpt lat="32.7821287" lon="-16.9785950" /><trkpt lat="32.7819799" lon="-16.9787224" /><trkpt lat="32.7818342" lon="-16.9788698" /><trkpt lat="32.7817690" lon="-16.9789289" /><trkpt lat="32.7814714" lon="-16.9790389" /><trkpt lat="32.7814127" lon="-16.9791032" /><trkpt lat="32.7813913" lon="-16.9791998" /><trkpt lat="32.7814045" lon="-16.9793056" /><trkpt lat="32.7814012" lon="-16.9793390" /><trkpt lat="32.7813785" lon="-16.9793706" /><trkpt lat="32.7812939" lon="-16.9794685" /><trkpt lat="32.7812437" lon="-16.9794802" /><trkpt lat="32.7811995" lon="-16.9794763" /><trkpt lat="32.7810168" lon="-16.9793266" /><trkpt lat="32.7809854" lon="-16.9793031" /><trkpt lat="32.7809403" lon="-16.9793031" /><trkpt lat="32.7808749" lon="-16.9793500" /><trkpt lat="32.7807488" lon="-16.9794213" /><trkpt lat="32.7806753" lon="-16.9794117" /><trkpt lat="32.7805936" lon="-16.9793846" /><trkpt lat="32.7805242" lon="-16.9794023" /><trkpt lat="32.7804856" lon="-16.9794504" /><trkpt lat="32.7804658" lon="-16.9796478" /><trkpt lat="32.7804095" lon="-16.9797482" /><trkpt lat="32.7802835" lon="-16.9798170" /><trkpt lat="32.7801496" lon="-16.9797797" /><trkpt lat="32.7799483" lon="-16.9793572" /><trkpt lat="32.7798920" lon="-16.9792156" /><trkpt lat="32.7798313" lon="-16.9792559" /><trkpt lat="32.7798015" lon="-16.9793647" /><trkpt lat="32.7797430" lon="-16.9797766" /><trkpt lat="32.7797076" lon="-16.9803989" /><trkpt lat="32.7796556" lon="-16.9805139" /><trkpt lat="32.7795616" lon="-16.9805478" /><trkpt lat="32.7795492" lon="-16.9805355" /><trkpt lat="32.7794773" lon="-16.9804645" /><trkpt lat="32.7793956" lon="-16.9801822" /><trkpt lat="32.7790279" lon="-16.9794176" /><trkpt lat="32.7789495" lon="-16.9789236" /><trkpt lat="32.7788464" lon="-16.9787545" /><trkpt lat="32.7787082" lon="-16.9787398" /><trkpt lat="32.7786243" lon="-16.9788605" /><trkpt lat="32.7785273" lon="-16.9792816" /><trkpt lat="32.7783616" lon="-16.9798221" /><trkpt lat="32.7783312" lon="-16.9798280" /><trkpt lat="32.7783222" lon="-16.9798224" /><trkpt lat="32.7781658" lon="-16.9798903" /><trkpt lat="32.7781017" lon="-16.9798932" /><trkpt lat="32.7780326" lon="-16.9798521" /><trkpt lat="32.7780499" lon="-16.9797935" /><trkpt lat="32.7781584" lon="-16.9797641" /><trkpt lat="32.7781856" lon="-16.9796615" /><trkpt lat="32.7780770" lon="-16.9796380" /><trkpt lat="32.7778649" lon="-16.9797495" /><trkpt lat="32.7777885" lon="-16.9797319" /><trkpt lat="32.7777564" lon="-16.9796057" /><trkpt lat="32.7777613" lon="-16.9795207" /><trkpt lat="32.7776775" lon="-16.9795588" /><trkpt lat="32.7775246" lon="-16.9796292" /><trkpt lat="32.7772261" lon="-16.9797553" /><trkpt lat="32.7769819" lon="-16.9798345" /><trkpt lat="32.7767180" lon="-16.9799842" /><trkpt lat="32.7765898" lon="-16.9800546" /><trkpt lat="32.7765108" lon="-16.9801748" /><trkpt lat="32.7764763" lon="-16.9803772" /><trkpt lat="32.7764393" lon="-16.9805298" /><trkpt lat="32.7762716" lon="-16.9808290" /><trkpt lat="32.7760274" lon="-16.9811370" /><trkpt lat="32.7759559" lon="-16.9812192" /><trkpt lat="32.7758942" lon="-16.9811928" /><trkpt lat="32.7759115" lon="-16.9810461" /><trkpt lat="32.7759386" lon="-16.9809053" /><trkpt lat="32.7759879" lon="-16.9808261" /><trkpt lat="32.7760027" lon="-16.9807645" /><trkpt lat="32.7759682" lon="-16.9807029" /><trkpt lat="32.7758745" lon="-16.9806970" /><trkpt lat="32.7757438" lon="-16.9808085" /><trkpt lat="32.7756204" lon="-16.9808877" /><trkpt lat="32.7754626" lon="-16.9809082" /><trkpt lat="32.7751518" lon="-16.9807498" /><trkpt lat="32.7749619" lon="-16.9804418" /><trkpt lat="32.7748459" lon="-16.9801719" /><trkpt lat="32.7747991" lon="-16.9800018" /><trkpt lat="32.7747473" lon="-16.9798140" /><trkpt lat="32.7747029" lon="-16.9797260" /><trkpt lat="32.7746634" lon="-16.9796321" /><trkpt lat="32.7746018" lon="-16.9795647" /><trkpt lat="32.7745845" lon="-16.9796527" /><trkpt lat="32.7746018" lon="-16.9797553" /><trkpt lat="32.7745524" lon="-16.9799079" /><trkpt lat="32.7744192" lon="-16.9800458" /><trkpt lat="32.7743428" lon="-16.9801983" /><trkpt lat="32.7742416" lon="-16.9803978" /><trkpt lat="32.7741781" lon="-16.9804108" /><trkpt lat="32.7741757" lon="-16.9803756" /><trkpt lat="32.7741707" lon="-16.9802641" /><trkpt lat="32.7741979" lon="-16.9800734" /><trkpt lat="32.7740943" lon="-16.9799619" /><trkpt lat="32.7740770" lon="-16.9798798" /><trkpt lat="32.7740104" lon="-16.9797214" /><trkpt lat="32.7739709" lon="-16.9795307" /><trkpt lat="32.7739635" lon="-16.9794222" /><trkpt lat="32.7738106" lon="-16.9793899" /><trkpt lat="32.7737021" lon="-16.9793899" /><trkpt lat="32.7735566" lon="-16.9793371" /><trkpt lat="32.7733592" lon="-16.9792168" /><trkpt lat="32.7732162" lon="-16.9791317" /><trkpt lat="32.7730558" lon="-16.9790496" /><trkpt lat="32.7728980" lon="-16.9789792" /><trkpt lat="32.7728265" lon="-16.9789000" /><trkpt lat="32.7727475" lon="-16.9788002" /><trkpt lat="32.7726908" lon="-16.9786624" /><trkpt lat="32.7726242" lon="-16.9783221" /><trkpt lat="32.7725502" lon="-16.9782487" /><trkpt lat="32.7724737" lon="-16.9781783" /><trkpt lat="32.7724195" lon="-16.9781725" /><trkpt lat="32.7723282" lon="-16.9782282" /><trkpt lat="32.7721629" lon="-16.9784600" /><trkpt lat="32.7719533" lon="-16.9786272" /><trkpt lat="32.7718892" lon="-16.9786096" /><trkpt lat="32.7718522" lon="-16.9783485" /><trkpt lat="32.7718645" lon="-16.9781197" /><trkpt lat="32.7718818" lon="-16.9780082" /><trkpt lat="32.7717905" lon="-16.9779789" /><trkpt lat="32.7717288" lon="-16.9780346" /><trkpt lat="32.7716400" lon="-16.9781461" /><trkpt lat="32.7715266" lon="-16.9782106" /><trkpt lat="32.7714353" lon="-16.9782605" /><trkpt lat="32.7713983" lon="-16.9781607" /><trkpt lat="32.7714180" lon="-16.9780317" /><trkpt lat="32.7714106" lon="-16.9779261" /><trkpt lat="32.7713514" lon="-16.9780141" /><trkpt lat="32.7710850" lon="-16.9782957" /><trkpt lat="32.7707545" lon="-16.9788824" /><trkpt lat="32.7705868" lon="-16.9790467" /><trkpt lat="32.7703598" lon="-16.9793429" /><trkpt lat="32.7703302" lon="-16.9793752" /><trkpt lat="32.7703154" lon="-16.9792843" /><trkpt lat="32.7703154" lon="-16.9791640" /><trkpt lat="32.7703500" lon="-16.9790115" /><trkpt lat="32.7704708" lon="-16.9785245" /><trkpt lat="32.7705078" lon="-16.9781255" /><trkpt lat="32.7705646" lon="-16.9779026" /><trkpt lat="32.7705621" lon="-16.9776943" /><trkpt lat="32.7705473" lon="-16.9776063" /><trkpt lat="32.7705078" lon="-16.9775858" /><trkpt lat="32.7704906" lon="-16.9776210" /><trkpt lat="32.7704782" lon="-16.9777266" /><trkpt lat="32.7704363" lon="-16.9778234" /><trkpt lat="32.7703697" lon="-16.9778556" /><trkpt lat="32.7703450" lon="-16.9777647" /><trkpt lat="32.7703426" lon="-16.9775916" /><trkpt lat="32.7703598" lon="-16.9770020" /><trkpt lat="32.7703796" lon="-16.9767908" /><trkpt lat="32.7704758" lon="-16.9766646" /><trkpt lat="32.7704708" lon="-16.9766265" /><trkpt lat="32.7703993" lon="-16.9766470" /><trkpt lat="32.7702735" lon="-16.9767761" /><trkpt lat="32.7702513" lon="-16.9768289" /><trkpt lat="32.7702094" lon="-16.9769991" /><trkpt lat="32.7701674" lon="-16.9771692" /><trkpt lat="32.7701181" lon="-16.9772660" /><trkpt lat="32.7700836" lon="-16.9772279" /><trkpt lat="32.7700490" lon="-16.9770313" /><trkpt lat="32.7700071" lon="-16.9768641" /><trkpt lat="32.7699306" lon="-16.9767585" /><trkpt lat="32.7699134" lon="-16.9766558" /><trkpt lat="32.7699454" lon="-16.9766294" /><trkpt lat="32.7700293" lon="-16.9766382" /><trkpt lat="32.7700614" lon="-16.9765473" /><trkpt lat="32.7699208" lon="-16.9764828" /><trkpt lat="32.7697604" lon="-16.9763537" /><trkpt lat="32.7696667" lon="-16.9762422" /><trkpt lat="32.7696001" lon="-16.9761278" /><trkpt lat="32.7695606" lon="-16.9759078" /><trkpt lat="32.7696026" lon="-16.9758022" /><trkpt lat="32.7696346" lon="-16.9756379" /><trkpt lat="32.7696075" lon="-16.9755968" /><trkpt lat="32.7695828" lon="-16.9756350" /><trkpt lat="32.7695508" lon="-16.9757230" /><trkpt lat="32.7695335" lon="-16.9758374" /><trkpt lat="32.7694694" lon="-16.9759723" /><trkpt lat="32.7693041" lon="-16.9762510" /><trkpt lat="32.7692449" lon="-16.9763595" /><trkpt lat="32.7691265" lon="-16.9764417" /><trkpt lat="32.7689415" lon="-16.9764300" /><trkpt lat="32.7687960" lon="-16.9764417" /><trkpt lat="32.7687442" lon="-16.9764945" /><trkpt lat="32.7686825" lon="-16.9765678" /><trkpt lat="32.7686603" lon="-16.9766793" /><trkpt lat="32.7686726" lon="-16.9767556" /><trkpt lat="32.7686751" lon="-16.9768729" /><trkpt lat="32.7686554" lon="-16.9769375" /><trkpt lat="32.7686159" lon="-16.9769169" /><trkpt lat="32.7685567" lon="-16.9767849" /><trkpt lat="32.7685616" lon="-16.9765326" /><trkpt lat="32.7685838" lon="-16.9763038" /><trkpt lat="32.7686208" lon="-16.9761923" /><trkpt lat="32.7686652" lon="-16.9760691" /><trkpt lat="32.7687318" lon="-16.9759811" /><trkpt lat="32.7687836" lon="-16.9758784" /><trkpt lat="32.7688823" lon="-16.9758462" /><trkpt lat="32.7689390" lon="-16.9758344" /><trkpt lat="32.7689760" lon="-16.9758814" /><trkpt lat="32.7690254" lon="-16.9759665" /><trkpt lat="32.7690772" lon="-16.9759958" /><trkpt lat="32.7691043" lon="-16.9759166" /><trkpt lat="32.7690796" lon="-16.9757934" /><trkpt lat="32.7690180" lon="-16.9754648" /><trkpt lat="32.7689662" lon="-16.9752448" /><trkpt lat="32.7689514" lon="-16.9750981" /><trkpt lat="32.7689884" lon="-16.9748957" /><trkpt lat="32.7690229" lon="-16.9748106" /><trkpt lat="32.7691018" lon="-16.9746874" /><trkpt lat="32.7691117" lon="-16.9746024" /><trkpt lat="32.7690747" lon="-16.9746024" /><trkpt lat="32.7690525" lon="-16.9746376" /><trkpt lat="32.7690056" lon="-16.9747256" /><trkpt lat="32.7688946" lon="-16.9748458" /><trkpt lat="32.7687762" lon="-16.9749749" /><trkpt lat="32.7685937" lon="-16.9751040" /><trkpt lat="32.7685049" lon="-16.9751627" /><trkpt lat="32.7684630" lon="-16.9751011" /><trkpt lat="32.7684630" lon="-16.9749603" /><trkpt lat="32.7684013" lon="-16.9748077" /><trkpt lat="32.7683051" lon="-16.9746610" /><trkpt lat="32.7682681" lon="-16.9746581" /><trkpt lat="32.7682484" lon="-16.9747696" /><trkpt lat="32.7681670" lon="-16.9748898" /><trkpt lat="32.7680634" lon="-16.9750072" /><trkpt lat="32.7677155" lon="-16.9754296" /><trkpt lat="32.7676218" lon="-16.9755118" /><trkpt lat="32.7675157" lon="-16.9755675" /><trkpt lat="32.7673258" lon="-16.9755440" /><trkpt lat="32.7669114" lon="-16.9754766" /><trkpt lat="32.7664624" lon="-16.9754854" /><trkpt lat="32.7661220" lon="-16.9755411" /><trkpt lat="32.7660332" lon="-16.9756408" /><trkpt lat="32.7658902" lon="-16.9758403" /><trkpt lat="32.7658211" lon="-16.9760545" /><trkpt lat="32.7658088" lon="-16.9762099" /><trkpt lat="32.7657767" lon="-16.9762393" /><trkpt lat="32.7656928" lon="-16.9761601" /><trkpt lat="32.7655497" lon="-16.9759635" /><trkpt lat="32.7654437" lon="-16.9758579" /><trkpt lat="32.7651945" lon="-16.9756496" /><trkpt lat="32.7650169" lon="-16.9754443" /><trkpt lat="32.7650144" lon="-16.9753621" /><trkpt lat="32.7649799" lon="-16.9752536" /><trkpt lat="32.7648837" lon="-16.9751245" /><trkpt lat="32.7648146" lon="-16.9749867" /><trkpt lat="32.7646790" lon="-16.9747256" /><trkpt lat="32.7644520" lon="-16.9745144" /><trkpt lat="32.7643311" lon="-16.9743882" /><trkpt lat="32.7642719" lon="-16.9742826" /><trkpt lat="32.7641634" lon="-16.9742093" /><trkpt lat="32.7640154" lon="-16.9741389" /><trkpt lat="32.7638945" lon="-16.9741477" /><trkpt lat="32.7637366" lon="-16.9741535" /><trkpt lat="32.7636725" lon="-16.9742239" /><trkpt lat="32.7634924" lon="-16.9743119" /><trkpt lat="32.7633641" lon="-16.9743061" /><trkpt lat="32.7632359" lon="-16.9742474" /><trkpt lat="32.7631545" lon="-16.9741447" /><trkpt lat="32.7630657" lon="-16.9741007" /><trkpt lat="32.7629694" lon="-16.9741682" /><trkpt lat="32.7628510" lon="-16.9741711" /><trkpt lat="32.7627548" lon="-16.9742327" /><trkpt lat="32.7626636" lon="-16.9742855" /><trkpt lat="32.7625599" lon="-16.9742797" /><trkpt lat="32.7624415" lon="-16.9742327" /><trkpt lat="32.7623182" lon="-16.9741183" /><trkpt lat="32.7622047" lon="-16.9740567" /><trkpt lat="32.7620715" lon="-16.9740538" /><trkpt lat="32.7619605" lon="-16.9740303" /><trkpt lat="32.7619284" lon="-16.9739951" /><trkpt lat="32.7619062" lon="-16.9737780" /><trkpt lat="32.7618643" lon="-16.9734553" /><trkpt lat="32.7617804" lon="-16.9732441" /><trkpt lat="32.7616620" lon="-16.9730769" /><trkpt lat="32.7615979" lon="-16.9729420" /><trkpt lat="32.7615461" lon="-16.9728129" /><trkpt lat="32.7615115" lon="-16.9728100" /><trkpt lat="32.7614449" lon="-16.9727953" /><trkpt lat="32.7613561" lon="-16.9727337" /><trkpt lat="32.7612252" lon="-16.9727751" /><trkpt lat="32.7609531" lon="-16.9727170" /><trkpt lat="32.7606007" lon="-16.9723769" /><trkpt lat="32.7604629" lon="-16.9721362" /><trkpt lat="32.7604036" lon="-16.9720533" /><trkpt lat="32.7601524" lon="-16.9718458" /><trkpt lat="32.7600844" lon="-16.9717234" /><trkpt lat="32.7600704" lon="-16.9716633" /><trkpt lat="32.7600687" lon="-16.9715907" /><trkpt lat="32.7600390" lon="-16.9715409" /><trkpt lat="32.7599780" lon="-16.9715824" /><trkpt lat="32.7599553" lon="-16.9716177" /><trkpt lat="32.7599343" lon="-16.9716425" /><trkpt lat="32.7598960" lon="-16.9716778" /><trkpt lat="32.7598838" lon="-16.9717317" /><trkpt lat="32.7598890" lon="-16.9718209" /><trkpt lat="32.7597913" lon="-16.9720616" /><trkpt lat="32.7595715" lon="-16.9722628" /><trkpt lat="32.7593273" lon="-16.9725387" /><trkpt lat="32.7592872" lon="-16.9726673" /><trkpt lat="32.7592628" lon="-16.9727399" /><trkpt lat="32.7592191" lon="-16.9728664" /><trkpt lat="32.7591790" lon="-16.9729660" /><trkpt lat="32.7591145" lon="-16.9730448" /><trkpt lat="32.7590552" lon="-16.9731112" /><trkpt lat="32.7589418" lon="-16.9731879" /><trkpt lat="32.7588825" lon="-16.9732564" /><trkpt lat="32.7588493" lon="-16.9733310" /><trkpt lat="32.7588092" lon="-16.9734265" /><trkpt lat="32.7587237" lon="-16.9734970" /><trkpt lat="32.7586191" lon="-16.9735509" /><trkpt lat="32.7585458" lon="-16.9735986" /><trkpt lat="32.7584970" lon="-16.9736940" /><trkpt lat="32.7584429" lon="-16.9739575" /><trkpt lat="32.7584795" lon="-16.9742168" /><trkpt lat="32.7584847" lon="-16.9743101" /><trkpt lat="32.7585074" lon="-16.9743724" /><trkpt lat="32.7584952" lon="-16.9745943" /><trkpt lat="32.7584743" lon="-16.9746565" /><trkpt lat="32.7584411" lon="-16.9746731" /><trkpt lat="32.7584150" lon="-16.9747042" /><trkpt lat="32.7584185" lon="-16.9747602" /><trkpt lat="32.7583888" lon="-16.9747768" /><trkpt lat="32.7583277" lon="-16.9747457" /><trkpt lat="32.7582353" lon="-16.9747188" /><trkpt lat="32.7581062" lon="-16.9746814" /><trkpt lat="32.7579981" lon="-16.9746628" /><trkpt lat="32.7579178" lon="-16.9746981" /><trkpt lat="32.7578599" lon="-16.9747099" /><trkpt lat="32.7577686" lon="-16.9746585" /><trkpt lat="32.7577069" lon="-16.9746629" /><trkpt lat="32.7576514" lon="-16.9746761" /><trkpt lat="32.7575984" lon="-16.9747260" /><trkpt lat="32.7575552" lon="-16.9747949" /><trkpt lat="32.7575404" lon="-16.9748756" /><trkpt lat="32.7575539" lon="-16.9749724" /><trkpt lat="32.7575539" lon="-16.9750560" /><trkpt lat="32.7575552" lon="-16.9751191" /><trkpt lat="32.7575478" lon="-16.9751690" /><trkpt lat="32.7574960" lon="-16.9752511" /><trkpt lat="32.7574343" lon="-16.9753303" /><trkpt lat="32.7573418" lon="-16.9754007" /><trkpt lat="32.7572554" lon="-16.9754271" /><trkpt lat="32.7571962" lon="-16.9754227" /><trkpt lat="32.7571420" lon="-16.9754124" /><trkpt lat="32.7570667" lon="-16.9753758" /><trkpt lat="32.7570322" lon="-16.9753875" /><trkpt lat="32.7569865" lon="-16.9754374" /><trkpt lat="32.7569545" lon="-16.9754916" /><trkpt lat="32.7569495" lon="-16.9755415" /><trkpt lat="32.7569335" lon="-16.9756251" /><trkpt lat="32.7568385" lon="-16.9757909" /><trkpt lat="32.7568015" lon="-16.9758349" /><trkpt lat="32.7567670" lon="-16.9758495" /><trkpt lat="32.7567324" lon="-16.9759053" /><trkpt lat="32.7566856" lon="-16.9760021" /><trkpt lat="32.7566374" lon="-16.9760299" /><trkpt lat="32.7565980" lon="-16.9760563" /><trkpt lat="32.7565560" lon="-16.9760563" /><trkpt lat="32.7564956" lon="-16.9760710" /><trkpt lat="32.7564031" lon="-16.9761370" /><trkpt lat="32.7562748" lon="-16.9762104" /><trkpt lat="32.7562366" lon="-16.9762485" /><trkpt lat="32.7561761" lon="-16.9762793" /><trkpt lat="32.7561206" lon="-16.9762588" /><trkpt lat="32.7560281" lon="-16.9761634" /><trkpt lat="32.7559393" lon="-16.9760285" /><trkpt lat="32.7558776" lon="-16.9759918" /><trkpt lat="32.7557616" lon="-16.9759903" /><trkpt lat="32.7557296" lon="-16.9760035" /><trkpt lat="32.7556938" lon="-16.9760006" /><trkpt lat="32.7556556" lon="-16.9759595" /><trkpt lat="32.7555519" lon="-16.9759273" /><trkpt lat="32.7554594" lon="-16.9759053" /><trkpt lat="32.7553546" lon="-16.9759258" /><trkpt lat="32.7552130" lon="-16.9760099" /><trkpt lat="32.7551781" lon="-16.9760628" /><trkpt lat="32.7551476" lon="-16.9760981" /><trkpt lat="32.7551275" lon="-16.9761281" /><trkpt lat="32.7551109" lon="-16.9761613" /><trkpt lat="32.7550909" lon="-16.9761707" /><trkpt lat="32.7550621" lon="-16.9761593" /><trkpt lat="32.7550342" lon="-16.9761333" /><trkpt lat="32.7550059" lon="-16.9760975" /><trkpt lat="32.7549561" lon="-16.9760375" /><trkpt lat="32.7549792" lon="-16.9759280" /><trkpt lat="32.7549849" lon="-16.9757972" /><trkpt lat="32.7550164" lon="-16.9756917" /><trkpt lat="32.7550897" lon="-16.9755726" /><trkpt lat="32.7551521" lon="-16.9753646" /><trkpt lat="32.7551747" lon="-16.9752236" /><trkpt lat="32.7551541" lon="-16.9750741" /><trkpt lat="32.7551298" lon="-16.9748819" /><trkpt lat="32.7550897" lon="-16.9747489" /><trkpt lat="32.7550174" lon="-16.9746475" /><trkpt lat="32.7549499" lon="-16.9745684" /><trkpt lat="32.7549172" lon="-16.9744654" /><trkpt lat="32.7548724" lon="-16.9743809" /><trkpt lat="32.7548146" lon="-16.9743215" /><trkpt lat="32.7547694" lon="-16.9742959" /><trkpt lat="32.7547049" lon="-16.9742830" /><trkpt lat="32.7546253" lon="-16.9742334" /><trkpt lat="32.7545143" lon="-16.9741371" /><trkpt lat="32.7544059" lon="-16.9740536" /><trkpt lat="32.7543323" lon="-16.9739873" /><trkpt lat="32.7542952" lon="-16.9739927" /><trkpt lat="32.7542930" lon="-16.9740263" /><trkpt lat="32.7543242" lon="-16.9740780" /><trkpt lat="32.7543077" lon="-16.9740994" /><trkpt lat="32.7542914" lon="-16.9740946" /><trkpt lat="32.7542126" lon="-16.9740316" /><trkpt lat="32.7541883" lon="-16.9740417" /><trkpt lat="32.7541840" lon="-16.9740895" /><trkpt lat="32.7542047" lon="-16.9741703" /><trkpt lat="32.7542577" lon="-16.9742323" /><trkpt lat="32.7542546" lon="-16.9742983" /><trkpt lat="32.7542483" lon="-16.9743464" /><trkpt lat="32.7542274" lon="-16.9743493" /><trkpt lat="32.7542076" lon="-16.9743304" /><trkpt lat="32.7541883" lon="-16.9743407" /><trkpt lat="32.7541942" lon="-16.9743878" /><trkpt lat="32.7542377" lon="-16.9744515" /><trkpt lat="32.7542286" lon="-16.9745356" /><trkpt lat="32.7542528" lon="-16.9745983" /><trkpt lat="32.7542953" lon="-16.9746229" /><trkpt lat="32.7543291" lon="-16.9746689" /><trkpt lat="32.7543454" lon="-16.9747290" /><trkpt lat="32.7543360" lon="-16.9747751" /><trkpt lat="32.7543243" lon="-16.9747922" /><trkpt lat="32.7543039" lon="-16.9747766" /><trkpt lat="32.7542811" lon="-16.9747582" /><trkpt lat="32.7542549" lon="-16.9747025" /><trkpt lat="32.7542049" lon="-16.9746620" /><trkpt lat="32.7541327" lon="-16.9746124" /><trkpt lat="32.7540851" lon="-16.9745409" /><trkpt lat="32.7540232" lon="-16.9744365" /><trkpt lat="32.7539751" lon="-16.9743747" /><trkpt lat="32.7539443" lon="-16.9743638" /><trkpt lat="32.7539284" lon="-16.9743837" /><trkpt lat="32.7539338" lon="-16.9744105" /><trkpt lat="32.7539253" lon="-16.9744298" /><trkpt lat="32.7538947" lon="-16.9744082" /><trkpt lat="32.7538629" lon="-16.9743677" /><trkpt lat="32.7538668" lon="-16.9742666" /><trkpt lat="32.7538883" lon="-16.9741845" /><trkpt lat="32.7538690" lon="-16.9740880" /><trkpt lat="32.7538337" lon="-16.9739910" /><trkpt lat="32.7537923" lon="-16.9739241" /><trkpt lat="32.7537666" lon="-16.9738596" /><trkpt lat="32.7537355" lon="-16.9738120" /><trkpt lat="32.7536873" lon="-16.9737795" /><trkpt lat="32.7536250" lon="-16.9737568" /><trkpt lat="32.7535963" lon="-16.9737301" /><trkpt lat="32.7535974" lon="-16.9736852" /><trkpt lat="32.7536262" lon="-16.9736082" /><trkpt lat="32.7536594" lon="-16.9735435" /><trkpt lat="32.7536892" lon="-16.9735024" /><trkpt lat="32.7536865" lon="-16.9734680" /><trkpt lat="32.7536615" lon="-16.9734222" /><trkpt lat="32.7536027" lon="-16.9733849" /><trkpt lat="32.7535802" lon="-16.9733316" /><trkpt lat="32.7535670" lon="-16.9732693" /><trkpt lat="32.7535800" lon="-16.9731946" /><trkpt lat="32.7536084" lon="-16.9731289" /><trkpt lat="32.7536273" lon="-16.9730629" /><trkpt lat="32.7536233" lon="-16.9730088" /><trkpt lat="32.7535840" lon="-16.9729586" /><trkpt lat="32.7535127" lon="-16.9729092" /><trkpt lat="32.7534413" lon="-16.9728122" /><trkpt lat="32.7533504" lon="-16.9725342" /><trkpt lat="32.7533186" lon="-16.9723646" /><trkpt lat="32.7532890" lon="-16.9721550" /><trkpt lat="32.7532923" lon="-16.9720209" /><trkpt lat="32.7532759" lon="-16.9719392" /><trkpt lat="32.7532464" lon="-16.9718715" /><trkpt lat="32.7532342" lon="-16.9717323" /><trkpt lat="32.7532148" lon="-16.9716903" /><trkpt lat="32.7531947" lon="-16.9717086" /><trkpt lat="32.7531610" lon="-16.9718303" /><trkpt lat="32.7531292" lon="-16.9719497" /><trkpt lat="32.7530887" lon="-16.9720098" /><trkpt lat="32.7530285" lon="-16.9721770" /><trkpt lat="32.7529385" lon="-16.9722981" /><trkpt lat="32.7528845" lon="-16.9724343" /><trkpt lat="32.7528416" lon="-16.9725481" /><trkpt lat="32.7528319" lon="-16.9726127" /><trkpt lat="32.7527996" lon="-16.9726495" /><trkpt lat="32.7527608" lon="-16.9726476" /><trkpt lat="32.7527352" lon="-16.9725914" /><trkpt lat="32.7526992" lon="-16.9724682" /><trkpt lat="32.7525957" lon="-16.9722602" /><trkpt lat="32.7525368" lon="-16.9721645" /><trkpt lat="32.7525163" lon="-16.9720741" /><trkpt lat="32.7525085" lon="-16.9719795" /><trkpt lat="32.7525210" lon="-16.9719142" /><trkpt lat="32.7525256" lon="-16.9718417" /><trkpt lat="32.7525085" lon="-16.9717815" /><trkpt lat="32.7524787" lon="-16.9717596" /><trkpt lat="32.7524254" lon="-16.9717719" /><trkpt lat="32.7523814" lon="-16.9718660" /><trkpt lat="32.7523247" lon="-16.9720406" /><trkpt lat="32.7522581" lon="-16.9721888" /><trkpt lat="32.7521859" lon="-16.9723186" /><trkpt lat="32.7521421" lon="-16.9724000" /><trkpt lat="32.7520903" lon="-16.9724186" /><trkpt lat="32.7520608" lon="-16.9723858" /><trkpt lat="32.7520348" lon="-16.9723296" /><trkpt lat="32.7519921" lon="-16.9722291" /><trkpt lat="32.7519269" lon="-16.9721678" /><trkpt lat="32.7518846" lon="-16.9720675" /><trkpt lat="32.7518539" lon="-16.9718981" /><trkpt lat="32.7518197" lon="-16.9716299" /><trkpt lat="32.7518004" lon="-16.9714192" /><trkpt lat="32.7518024" lon="-16.9711770" /><trkpt lat="32.7517719" lon="-16.9709692" /><trkpt lat="32.7517374" lon="-16.9707959" /><trkpt lat="32.7517088" lon="-16.9705752" /><trkpt lat="32.7517128" lon="-16.9703736" /><trkpt lat="32.7516997" lon="-16.9702520" /><trkpt lat="32.7515983" lon="-16.9700690" /><trkpt lat="32.7514970" lon="-16.9699239" /><trkpt lat="32.7514182" lon="-16.9697197" /><trkpt lat="32.7513607" lon="-16.9696056" /><trkpt lat="32.7513430" lon="-16.9694998" /><trkpt lat="32.7513195" lon="-16.9694479" /><trkpt lat="32.7512926" lon="-16.9694424" /><trkpt lat="32.7512846" lon="-16.9694882" /><trkpt lat="32.7512529" lon="-16.9695973" /><trkpt lat="32.7512307" lon="-16.9697045" /><trkpt lat="32.7512061" lon="-16.9697857" /><trkpt lat="32.7511759" lon="-16.9698154" /><trkpt lat="32.7511175" lon="-16.9698448" /><trkpt lat="32.7510513" lon="-16.9698486" /><trkpt lat="32.7509959" lon="-16.9698750" /><trkpt lat="32.7509088" lon="-16.9699763" /><trkpt lat="32.7508492" lon="-16.9700211" /><trkpt lat="32.7506861" lon="-16.9700713" /><trkpt lat="32.7505905" lon="-16.9701240" /><trkpt lat="32.7504415" lon="-16.9702358" /><trkpt lat="32.7500205" lon="-16.9706767" /><trkpt lat="32.7499692" lon="-16.9707682" /><trkpt lat="32.7499315" lon="-16.9708432" /><trkpt lat="32.7498677" lon="-16.9709212" /><trkpt lat="32.7498359" lon="-16.9709780" /><trkpt lat="32.7498018" lon="-16.9710038" /><trkpt lat="32.7497797" lon="-16.9709765" /><trkpt lat="32.7497708" lon="-16.9709085" /><trkpt lat="32.7498098" lon="-16.9708112" /><trkpt lat="32.7497857" lon="-16.9706610" /><trkpt lat="32.7497913" lon="-16.9704999" /><trkpt lat="32.7498952" lon="-16.9703096" /><trkpt lat="32.7499367" lon="-16.9702060" /><trkpt lat="32.7499644" lon="-16.9700538" /><trkpt lat="32.7499744" lon="-16.9699759" /><trkpt lat="32.7499837" lon="-16.9699086" /><trkpt lat="32.7499887" lon="-16.9698509" /><trkpt lat="32.7499530" lon="-16.9698368" /><trkpt lat="32.7498886" lon="-16.9698799" /><trkpt lat="32.7498478" lon="-16.9698982" /><trkpt lat="32.7497836" lon="-16.9698634" /><trkpt lat="32.7496973" lon="-16.9698349" /><trkpt lat="32.7493850" lon="-16.9698533" /><trkpt lat="32.7492747" lon="-16.9698668" /><trkpt lat="32.7491851" lon="-16.9699026" /><trkpt lat="32.7491196" lon="-16.9699349" /><trkpt lat="32.7490327" lon="-16.9699482" /><trkpt lat="32.7489569" lon="-16.9699912" /><trkpt lat="32.7488368" lon="-16.9700392" /><trkpt lat="32.7487569" lon="-16.9701119" /><trkpt lat="32.7487054" lon="-16.9701494" /><trkpt lat="32.7486583" lon="-16.9701659" /><trkpt lat="32.7486249" lon="-16.9701217" /><trkpt lat="32.7486465" lon="-16.9700136" /><trkpt lat="32.7486535" lon="-16.9698870" /><trkpt lat="32.7486310" lon="-16.9698469" /><trkpt lat="32.7485923" lon="-16.9698140" /><trkpt lat="32.7485376" lon="-16.9698251" /><trkpt lat="32.7484380" lon="-16.9698866" /><trkpt lat="32.7483452" lon="-16.9699578" /><trkpt lat="32.7483037" lon="-16.9699784" /><trkpt lat="32.7482555" lon="-16.9699542" /><trkpt lat="32.7482381" lon="-16.9698951" /><trkpt lat="32.7482733" lon="-16.9697948" /><trkpt lat="32.7483550" lon="-16.9696615" /><trkpt lat="32.7483737" lon="-16.9696005" /><trkpt lat="32.7483602" lon="-16.9695442" /><trkpt lat="32.7483037" lon="-16.9695335" /><trkpt lat="32.7482584" lon="-16.9695276" /><trkpt lat="32.7482071" lon="-16.9695833" /><trkpt lat="32.7481468" lon="-16.9696472" /><trkpt lat="32.7480940" lon="-16.9696594" /><trkpt lat="32.7480534" lon="-16.9696328" /><trkpt lat="32.7480434" lon="-16.9695672" /><trkpt lat="32.7480885" lon="-16.9694972" /><trkpt lat="32.7481923" lon="-16.9692011" /><trkpt lat="32.7482077" lon="-16.9691053" /><trkpt lat="32.7482573" lon="-16.9690376" /><trkpt lat="32.7483002" lon="-16.9690063" /><trkpt lat="32.7483211" lon="-16.9689653" /><trkpt lat="32.7483048" lon="-16.9689125" /><trkpt lat="32.7482763" lon="-16.9689163" /><trkpt lat="32.7482046" lon="-16.9689139" /><trkpt lat="32.7481395" lon="-16.9689399" /><trkpt lat="32.7480736" lon="-16.9689427" /><trkpt lat="32.7479904" lon="-16.9689884" /><trkpt lat="32.7479023" lon="-16.9690291" /><trkpt lat="32.7478098" lon="-16.9690399" /><trkpt lat="32.7477406" lon="-16.9690743" /><trkpt lat="32.7476789" lon="-16.9690906" /><trkpt lat="32.7476067" lon="-16.9690808" /><trkpt lat="32.7475692" lon="-16.9690744" /><trkpt lat="32.7475437" lon="-16.9690836" /><trkpt lat="32.7475129" lon="-16.9691200" /><trkpt lat="32.7474711" lon="-16.9691585" /><trkpt lat="32.7474310" lon="-16.9692854" /><trkpt lat="32.7473918" lon="-16.9693707" /><trkpt lat="32.7473531" lon="-16.9694529" /><trkpt lat="32.7473089" lon="-16.9694758" /><trkpt lat="32.7472795" lon="-16.9694613" /><trkpt lat="32.7472570" lon="-16.9693928" /><trkpt lat="32.7472287" lon="-16.9693901" /><trkpt lat="32.7472121" lon="-16.9694375" /><trkpt lat="32.7471699" lon="-16.9694874" /><trkpt lat="32.7471148" lon="-16.9694640" /><trkpt lat="32.7470808" lon="-16.9694180" /><trkpt lat="32.7470639" lon="-16.9693545" /><trkpt lat="32.7470390" lon="-16.9693108" /><trkpt lat="32.7470207" lon="-16.9693363" /><trkpt lat="32.7470030" lon="-16.9694339" /><trkpt lat="32.7470449" lon="-16.9695519" /><trkpt lat="32.7470708" lon="-16.9696849" /><trkpt lat="32.7470533" lon="-16.9697568" /><trkpt lat="32.7470024" lon="-16.9697380" /><trkpt lat="32.7469533" lon="-16.9696617" /><trkpt lat="32.7469054" lon="-16.9696408" /><trkpt lat="32.7467842" lon="-16.9694675" /><trkpt lat="32.7467258" lon="-16.9693140" /><trkpt lat="32.7466980" lon="-16.9692318" /><trkpt lat="32.7466640" lon="-16.9691744" /><trkpt lat="32.7465960" lon="-16.9690766" /><trkpt lat="32.7465746" lon="-16.9690415" /><trkpt lat="32.7465599" lon="-16.9690517" /><trkpt lat="32.7465559" lon="-16.9690887" /><trkpt lat="32.7465317" lon="-16.9690882" /><trkpt lat="32.7464688" lon="-16.9690344" /><trkpt lat="32.7464406" lon="-16.9689627" /><trkpt lat="32.7464115" lon="-16.9689258" /><trkpt lat="32.7463807" lon="-16.9689246" /><trkpt lat="32.7463591" lon="-16.9689538" /><trkpt lat="32.7463559" lon="-16.9689939" /><trkpt lat="32.7463923" lon="-16.9691131" /><trkpt lat="32.7464001" lon="-16.9691719" /><trkpt lat="32.7463848" lon="-16.9692040" /><trkpt lat="32.7463490" lon="-16.9692090" /><trkpt lat="32.7462937" lon="-16.9691719" /><trkpt lat="32.7462213" lon="-16.9691204" /><trkpt lat="32.7461561" lon="-16.9690751" /><trkpt lat="32.7460651" lon="-16.9690417" /><trkpt lat="32.7460094" lon="-16.9689900" /><trkpt lat="32.7459445" lon="-16.9689635" /><trkpt lat="32.7459080" lon="-16.9689652" /><trkpt lat="32.7458989" lon="-16.9690133" /><trkpt lat="32.7459307" lon="-16.9690604" /><trkpt lat="32.7459610" lon="-16.9691014" /><trkpt lat="32.7459460" lon="-16.9691577" /><trkpt lat="32.7458922" lon="-16.9691607" /><trkpt lat="32.7458262" lon="-16.9691366" /><trkpt lat="32.7457550" lon="-16.9690958" /><trkpt lat="32.7456851" lon="-16.9690527" /><trkpt lat="32.7456511" lon="-16.9690050" /><trkpt lat="32.7456191" lon="-16.9689299" /><trkpt lat="32.7456025" lon="-16.9688622" /><trkpt lat="32.7456242" lon="-16.9688142" /><trkpt lat="32.7456288" lon="-16.9687789" /><trkpt lat="32.7456103" lon="-16.9687532" /><trkpt lat="32.7455751" lon="-16.9687632" /><trkpt lat="32.7455408" lon="-16.9688145" /><trkpt lat="32.7455168" lon="-16.9688979" /><trkpt lat="32.7454948" lon="-16.9689641" /><trkpt lat="32.7454973" lon="-16.9690598" /><trkpt lat="32.7455301" lon="-16.9691952" /><trkpt lat="32.7455730" lon="-16.9692957" /><trkpt lat="32.7456430" lon="-16.9693580" /><trkpt lat="32.7456769" lon="-16.9694211" /><trkpt lat="32.7456595" lon="-16.9694790" /><trkpt lat="32.7456270" lon="-16.9695283" /><trkpt lat="32.7455707" lon="-16.9694785" /><trkpt lat="32.7454746" lon="-16.9694055" /><trkpt lat="32.7454012" lon="-16.9693934" /><trkpt lat="32.7453305" lon="-16.9694344" /><trkpt lat="32.7452863" lon="-16.9694422" /><trkpt lat="32.7452098" lon="-16.9694101" /><trkpt lat="32.7450946" lon="-16.9693276" /><trkpt lat="32.7450045" lon="-16.9692698" /><trkpt lat="32.7449099" lon="-16.9692924" /><trkpt lat="32.7448375" lon="-16.9693166" /><trkpt lat="32.7447880" lon="-16.9693271" /><trkpt lat="32.7447504" lon="-16.9694004" /><trkpt lat="32.7447864" lon="-16.9694485" /><trkpt lat="32.7449432" lon="-16.9694915" /><trkpt lat="32.7450011" lon="-16.9695513" /><trkpt lat="32.7449994" lon="-16.9696245" /><trkpt lat="32.7449490" lon="-16.9696566" /><trkpt lat="32.7448457" lon="-16.9696546" /><trkpt lat="32.7447296" lon="-16.9696887" /><trkpt lat="32.7446123" lon="-16.9697218" /><trkpt lat="32.7445374" lon="-16.9697199" /><trkpt lat="32.7444586" lon="-16.9696659" /><trkpt lat="32.7443675" lon="-16.9696468" /><trkpt lat="32.7442555" lon="-16.9696409" /><trkpt lat="32.7441458" lon="-16.9696470" /><trkpt lat="32.7440907" lon="-16.9696448" /><trkpt lat="32.7440703" lon="-16.9696484" /><trkpt lat="32.7440412" lon="-16.9696973" /><trkpt lat="32.7440016" lon="-16.9697266" /><trkpt lat="32.7438941" lon="-16.9697559" /><trkpt lat="32.7438144" lon="-16.9697480" /><trkpt lat="32.7437179" lon="-16.9697505" /><trkpt lat="32.7436739" lon="-16.9697303" /><trkpt lat="32.7436438" lon="-16.9696860" /><trkpt lat="32.7437190" lon="-16.9695595" /><trkpt lat="32.7437853" lon="-16.9694652" /><trkpt lat="32.7438375" lon="-16.9693398" /><trkpt lat="32.7439006" lon="-16.9692888" /><trkpt lat="32.7439286" lon="-16.9691975" /><trkpt lat="32.7439262" lon="-16.9691374" /><trkpt lat="32.7439167" lon="-16.9691201" /><trkpt lat="32.7439140" lon="-16.9691152" /><trkpt lat="32.7439033" lon="-16.9690960" /><trkpt lat="32.7438697" lon="-16.9690993" /><trkpt lat="32.7438153" lon="-16.9691607" /><trkpt lat="32.7437227" lon="-16.9691815" /><trkpt lat="32.7436194" lon="-16.9691918" /><trkpt lat="32.7434947" lon="-16.9691309" /><trkpt lat="32.7433867" lon="-16.9689415" /><trkpt lat="32.7433598" lon="-16.9688467" /><trkpt lat="32.7433571" lon="-16.9687697" /><trkpt lat="32.7433814" lon="-16.9686820" /><trkpt lat="32.7433948" lon="-16.9685811" /><trkpt lat="32.7433787" lon="-16.9684144" /><trkpt lat="32.7433359" lon="-16.9682615" /><trkpt lat="32.7433201" lon="-16.9681732" /><trkpt lat="32.7433540" lon="-16.9681039" /><trkpt lat="32.7433950" lon="-16.9680627" /><trkpt lat="32.7434763" lon="-16.9680236" /><trkpt lat="32.7435446" lon="-16.9679511" /><trkpt lat="32.7435864" lon="-16.9678432" /><trkpt lat="32.7436439" lon="-16.9677224" /><trkpt lat="32.7437036" lon="-16.9676491" /><trkpt lat="32.7438022" lon="-16.9675696" /><trkpt lat="32.7438599" lon="-16.9675283" /><trkpt lat="32.7438902" lon="-16.9674643" /><trkpt lat="32.7439173" lon="-16.9673737" /><trkpt lat="32.7439252" lon="-16.9673075" /><trkpt lat="32.7438999" lon="-16.9672651" /><trkpt lat="32.7438481" lon="-16.9672464" /><trkpt lat="32.7437816" lon="-16.9672670" /><trkpt lat="32.7437096" lon="-16.9673184" /><trkpt lat="32.7436448" lon="-16.9673073" /><trkpt lat="32.7435943" lon="-16.9673066" /><trkpt lat="32.7435527" lon="-16.9673335" /><trkpt lat="32.7435060" lon="-16.9673122" /><trkpt lat="32.7434820" lon="-16.9672573" /><trkpt lat="32.7435011" lon="-16.9671911" /><trkpt lat="32.7435517" lon="-16.9670981" /><trkpt lat="32.7435980" lon="-16.9669666" /><trkpt lat="32.7435919" lon="-16.9668844" /><trkpt lat="32.7435345" lon="-16.9667566" /><trkpt lat="32.7434963" lon="-16.9668470" /><trkpt lat="32.7434522" lon="-16.9667037" /><trkpt lat="32.7434295" lon="-16.9667393" /><trkpt lat="32.7434145" lon="-16.9667977" /><trkpt lat="32.7433976" lon="-16.9668245" /><trkpt lat="32.7433485" lon="-16.9669026" /><trkpt lat="32.7433268" lon="-16.9669488" /><trkpt lat="32.7432900" lon="-16.9669673" /><trkpt lat="32.7432430" lon="-16.9669359" /><trkpt lat="32.7432220" lon="-16.9668723" /><trkpt lat="32.7432276" lon="-16.9667759" /><trkpt lat="32.7432285" lon="-16.9667478" /><trkpt lat="32.7432322" lon="-16.9666347" /><trkpt lat="32.7432219" lon="-16.9665086" /><trkpt lat="32.7430479" lon="-16.9663077" /><trkpt lat="32.7429806" lon="-16.9662050" /><trkpt lat="32.7429080" lon="-16.9660981" /><trkpt lat="32.7428217" lon="-16.9660218" /><trkpt lat="32.7427957" lon="-16.9660060" /><trkpt lat="32.7427745" lon="-16.9659931" /><trkpt lat="32.7426938" lon="-16.9660126" /><trkpt lat="32.7426001" lon="-16.9659943" /></trkseg></trk></gpx>