<?xml version="1.0"?>
<gpx xmlns="http://www.topografix.com/GPX/1/1" xmlns:xsi="http://www.w3.org/2001/XMLSchema-instance" version="1.1" creator="AllTrails.com" xsi:schemaLocation="http://www.topografix.com/GPX/1/1 http://www.topografix.com/GPX/1/1/gpx.xsd">
  <metadata>
    <name><![CDATA[pr-28-levada-da-rocha-vermelha]]></name>
    <desc><![CDATA[]]></desc>
    <link href="http://www.alltrails.com">
      <text>AllTrails, LLC</text>
    </link>
    <bounds minlat="32.73871" minlon="-17.15053" maxlat="32.78774" maxlon="-17.12703"/>
  </metadata>
  <trk>
    <name><![CDATA[pr-28-levada-da-rocha-vermelha]]></name>
    <src>AllTrails</src>
    <trkseg>
      <trkpt lat="32.78155" lon="-17.12703">
        <ele>1283.21</ele>
      </trkpt>
      <trkpt lat="32.78152" lon="-17.12703">
        <ele>1283.29</ele>
      </trkpt>
      <trkpt lat="32.78152" lon="-17.12707">
        <ele>1283.65</ele>
      </trkpt>
      <trkpt lat="32.78149" lon="-17.12722">
        <ele>1284.98</ele>
      </trkpt>
      <trkpt lat="32.78161" lon="-17.12736">
        <ele>1282.82</ele>
      </trkpt>
      <trkpt lat="32.78195" lon="-17.12746">
        <ele>1278.93</ele>
      </trkpt>
      <trkpt lat="32.78246" lon="-17.12767">
        <ele>1278.63</ele>
      </trkpt>
      <trkpt lat="32.78258" lon="-17.12799">
        <ele>1281.68</ele>
      </trkpt>
      <trkpt lat="32.78263" lon="-17.12821">
        <ele>1283.76</ele>
      </trkpt>
      <trkpt lat="32.78271" lon="-17.12835">
        <ele>1284.83</ele>
      </trkpt>
      <trkpt lat="32.78289" lon="-17.12842">
        <ele>1287.14</ele>
      </trkpt>
      <trkpt lat="32.78296" lon="-17.12852">
        <ele>1287.86</ele>
      </trkpt>
      <trkpt lat="32.78302" lon="-17.12868">
        <ele>1286.94</ele>
      </trkpt>
      <trkpt lat="32.78302" lon="-17.12902">
        <ele>1285.25</ele>
      </trkpt>
      <trkpt lat="32.78332" lon="-17.12924">
        <ele>1281.1</ele>
      </trkpt>
      <trkpt lat="32.78356" lon="-17.12971">
        <ele>1271.06</ele>
      </trkpt>
      <trkpt lat="32.7837" lon="-17.13002">
        <ele>1260.9</ele>
      </trkpt>
      <trkpt lat="32.7837" lon="-17.13039">
        <ele>1253.0</ele>
      </trkpt>
      <trkpt lat="32.78374" lon="-17.13079">
        <ele>1247.41</ele>
      </trkpt>
      <trkpt lat="32.78374" lon="-17.13079">
        <ele>1247.41</ele>
      </trkpt>
      <trkpt lat="32.78374" lon="-17.13079">
        <ele>1247.41</ele>
      </trkpt>
      <trkpt lat="32.78363" lon="-17.13145">
        <ele>1240.11</ele>
      </trkpt>
      <trkpt lat="32.78369" lon="-17.13154">
        <ele>1240.39</ele>
      </trkpt>
      <trkpt lat="32.7835" lon="-17.13187">
        <ele>1235.14</ele>
      </trkpt>
      <trkpt lat="32.78346" lon="-17.13219">
        <ele>1230.92</ele>
      </trkpt>
      <trkpt lat="32.78331" lon="-17.1324">
        <ele>1223.98</ele>
      </trkpt>
      <trkpt lat="32.78318" lon="-17.13264">
        <ele>1219.57</ele>
      </trkpt>
      <trkpt lat="32.7831" lon="-17.13307">
        <ele>1219.44</ele>
      </trkpt>
      <trkpt lat="32.78297" lon="-17.13333">
        <ele>1214.43</ele>
      </trkpt>
      <trkpt lat="32.78295" lon="-17.13372">
        <ele>1213.98</ele>
      </trkpt>
      <trkpt lat="32.78279" lon="-17.13393">
        <ele>1208.1</ele>
      </trkpt>
      <trkpt lat="32.78258" lon="-17.13419">
        <ele>1203.36</ele>
      </trkpt>
      <trkpt lat="32.78244" lon="-17.13458">
        <ele>1199.74</ele>
      </trkpt>
      <trkpt lat="32.78246" lon="-17.13482">
        <ele>1197.93</ele>
      </trkpt>
      <trkpt lat="32.78251" lon="-17.13492">
        <ele>1197.51</ele>
      </trkpt>
      <trkpt lat="32.78269" lon="-17.13496">
        <ele>1200.55</ele>
      </trkpt>
      <trkpt lat="32.78272" lon="-17.13506">
        <ele>1199.12</ele>
      </trkpt>
      <trkpt lat="32.78275" lon="-17.13522">
        <ele>1195.91</ele>
      </trkpt>
      <trkpt lat="32.78288" lon="-17.13536">
        <ele>1198.98</ele>
      </trkpt>
      <trkpt lat="32.78298" lon="-17.13544">
        <ele>1200.79</ele>
      </trkpt>
      <trkpt lat="32.78307" lon="-17.13548">
        <ele>1202.18</ele>
      </trkpt>
      <trkpt lat="32.78313" lon="-17.13543">
        <ele>1205.89</ele>
      </trkpt>
      <trkpt lat="32.78317" lon="-17.13543">
        <ele>1206.73</ele>
      </trkpt>
      <trkpt lat="32.78322" lon="-17.13545">
        <ele>1207.07</ele>
      </trkpt>
      <trkpt lat="32.78339" lon="-17.13552">
        <ele>1209.63</ele>
      </trkpt>
      <trkpt lat="32.78366" lon="-17.13568">
        <ele>1210.91</ele>
      </trkpt>
      <trkpt lat="32.7838" lon="-17.13581">
        <ele>1210.13</ele>
      </trkpt>
      <trkpt lat="32.7839" lon="-17.13593">
        <ele>1206.54</ele>
      </trkpt>
      <trkpt lat="32.78393" lon="-17.13604">
        <ele>1200.19</ele>
      </trkpt>
      <trkpt lat="32.78396" lon="-17.13611">
        <ele>1196.92</ele>
      </trkpt>
      <trkpt lat="32.78404" lon="-17.13615">
        <ele>1199.01</ele>
      </trkpt>
      <trkpt lat="32.78417" lon="-17.13617">
        <ele>1204.04</ele>
      </trkpt>
      <trkpt lat="32.78439" lon="-17.1362">
        <ele>1206.26</ele>
      </trkpt>
      <trkpt lat="32.78452" lon="-17.13613">
        <ele>1213.64</ele>
      </trkpt>
      <trkpt lat="32.78467" lon="-17.13612">
        <ele>1215.04</ele>
      </trkpt>
      <trkpt lat="32.78495" lon="-17.13586">
        <ele>1217.14</ele>
      </trkpt>
      <trkpt lat="32.78511" lon="-17.13578">
        <ele>1214.7</ele>
      </trkpt>
      <trkpt lat="32.78535" lon="-17.13561">
        <ele>1212.83</ele>
      </trkpt>
      <trkpt lat="32.78558" lon="-17.13559">
        <ele>1209.72</ele>
      </trkpt>
      <trkpt lat="32.78601" lon="-17.13554">
        <ele>1201.86</ele>
      </trkpt>
      <trkpt lat="32.78601" lon="-17.13554">
        <ele>1201.86</ele>
      </trkpt>
      <trkpt lat="32.78601" lon="-17.13554">
        <ele>1201.86</ele>
      </trkpt>
      <trkpt lat="32.78624" lon="-17.13559">
        <ele>1193.65</ele>
      </trkpt>
      <trkpt lat="32.78643" lon="-17.13567">
        <ele>1188.58</ele>
      </trkpt>
      <trkpt lat="32.78651" lon="-17.13567">
        <ele>1188.8</ele>
      </trkpt>
      <trkpt lat="32.78662" lon="-17.13562">
        <ele>1191.53</ele>
      </trkpt>
      <trkpt lat="32.78666" lon="-17.1358">
        <ele>1182.7</ele>
      </trkpt>
      <trkpt lat="32.78684" lon="-17.13588">
        <ele>1184.96</ele>
      </trkpt>
      <trkpt lat="32.78702" lon="-17.13605">
        <ele>1183.5</ele>
      </trkpt>
      <trkpt lat="32.78716" lon="-17.13628">
        <ele>1182.41</ele>
      </trkpt>
      <trkpt lat="32.78721" lon="-17.13677">
        <ele>1169.92</ele>
      </trkpt>
      <trkpt lat="32.78737" lon="-17.13688">
        <ele>1167.38</ele>
      </trkpt>
      <trkpt lat="32.78737" lon="-17.137">
        <ele>1163.04</ele>
      </trkpt>
      <trkpt lat="32.78724" lon="-17.13715">
        <ele>1158.02</ele>
      </trkpt>
      <trkpt lat="32.7873" lon="-17.13723">
        <ele>1155.23</ele>
      </trkpt>
      <trkpt lat="32.78727" lon="-17.13744">
        <ele>1149.65</ele>
      </trkpt>
      <trkpt lat="32.78732" lon="-17.13761">
        <ele>1139.82</ele>
      </trkpt>
      <trkpt lat="32.78725" lon="-17.13776">
        <ele>1128.44</ele>
      </trkpt>
      <trkpt lat="32.78739" lon="-17.13783">
        <ele>1124.45</ele>
      </trkpt>
      <trkpt lat="32.78733" lon="-17.13789">
        <ele>1120.43</ele>
      </trkpt>
      <trkpt lat="32.78737" lon="-17.13803">
        <ele>1112.15</ele>
      </trkpt>
      <trkpt lat="32.78739" lon="-17.13819">
        <ele>1099.29</ele>
      </trkpt>
      <trkpt lat="32.78746" lon="-17.13833">
        <ele>1087.29</ele>
      </trkpt>
      <trkpt lat="32.78741" lon="-17.13843">
        <ele>1080.73</ele>
      </trkpt>
      <trkpt lat="32.78733" lon="-17.13845">
        <ele>1079.79</ele>
      </trkpt>
      <trkpt lat="32.78742" lon="-17.13866">
        <ele>1064.41</ele>
      </trkpt>
      <trkpt lat="32.78751" lon="-17.13877">
        <ele>1055.77</ele>
      </trkpt>
      <trkpt lat="32.7876" lon="-17.13893">
        <ele>1042.35</ele>
      </trkpt>
      <trkpt lat="32.78763" lon="-17.13903">
        <ele>1036.96</ele>
      </trkpt>
      <trkpt lat="32.78755" lon="-17.13912">
        <ele>1032.26</ele>
      </trkpt>
      <trkpt lat="32.78766" lon="-17.13937">
        <ele>1016.64</ele>
      </trkpt>
      <trkpt lat="32.7877" lon="-17.13944">
        <ele>1013.64</ele>
      </trkpt>
      <trkpt lat="32.78773" lon="-17.13959">
        <ele>1006.74</ele>
      </trkpt>
      <trkpt lat="32.78773" lon="-17.13974">
        <ele>998.44</ele>
      </trkpt>
      <trkpt lat="32.78773" lon="-17.13979">
        <ele>995.61</ele>
      </trkpt>
      <trkpt lat="32.78774" lon="-17.13986">
        <ele>991.72</ele>
      </trkpt>
      <trkpt lat="32.78769" lon="-17.13985">
        <ele>991.77</ele>
      </trkpt>
      <trkpt lat="32.78728" lon="-17.13965">
        <ele>987.17</ele>
      </trkpt>
      <trkpt lat="32.78712" lon="-17.13957">
        <ele>983.91</ele>
      </trkpt>
      <trkpt lat="32.78689" lon="-17.13947">
        <ele>981.03</ele>
      </trkpt>
      <trkpt lat="32.78676" lon="-17.13942">
        <ele>983.29</ele>
      </trkpt>
      <trkpt lat="32.78662" lon="-17.13938">
        <ele>983.92</ele>
      </trkpt>
      <trkpt lat="32.78648" lon="-17.1394">
        <ele>979.11</ele>
      </trkpt>
      <trkpt lat="32.78634" lon="-17.13937">
        <ele>976.94</ele>
      </trkpt>
      <trkpt lat="32.78613" lon="-17.139">
        <ele>985.22</ele>
      </trkpt>
      <trkpt lat="32.78598" lon="-17.13868">
        <ele>997.24</ele>
      </trkpt>
      <trkpt lat="32.78598" lon="-17.13868">
        <ele>997.24</ele>
      </trkpt>
      <trkpt lat="32.78598" lon="-17.13868">
        <ele>997.24</ele>
      </trkpt>
      <trkpt lat="32.78592" lon="-17.13873">
        <ele>994.35</ele>
      </trkpt>
      <trkpt lat="32.78582" lon="-17.13869">
        <ele>995.29</ele>
      </trkpt>
      <trkpt lat="32.78557" lon="-17.13879">
        <ele>989.04</ele>
      </trkpt>
      <trkpt lat="32.78544" lon="-17.1389">
        <ele>980.43</ele>
      </trkpt>
      <trkpt lat="32.78537" lon="-17.13885">
        <ele>985.13</ele>
      </trkpt>
      <trkpt lat="32.78522" lon="-17.13919">
        <ele>958.1</ele>
      </trkpt>
      <trkpt lat="32.78511" lon="-17.1393">
        <ele>952.14</ele>
      </trkpt>
      <trkpt lat="32.78494" lon="-17.13937">
        <ele>950.67</ele>
      </trkpt>
      <trkpt lat="32.78474" lon="-17.13925">
        <ele>966.74</ele>
      </trkpt>
      <trkpt lat="32.78455" lon="-17.13933">
        <ele>968.54</ele>
      </trkpt>
      <trkpt lat="32.78431" lon="-17.13941">
        <ele>973.5</ele>
      </trkpt>
      <trkpt lat="32.78387" lon="-17.13947">
        <ele>975.27</ele>
      </trkpt>
      <trkpt lat="32.78318" lon="-17.13982">
        <ele>978.34</ele>
      </trkpt>
      <trkpt lat="32.78294" lon="-17.13996">
        <ele>984.37</ele>
      </trkpt>
      <trkpt lat="32.78287" lon="-17.14001">
        <ele>985.8</ele>
      </trkpt>
      <trkpt lat="32.78285" lon="-17.14012">
        <ele>984.38</ele>
      </trkpt>
      <trkpt lat="32.78292" lon="-17.14024">
        <ele>978.21</ele>
      </trkpt>
      <trkpt lat="32.78303" lon="-17.14037">
        <ele>967.7</ele>
      </trkpt>
      <trkpt lat="32.78319" lon="-17.14061">
        <ele>955.32</ele>
      </trkpt>
      <trkpt lat="32.78333" lon="-17.14069">
        <ele>950.66</ele>
      </trkpt>
      <trkpt lat="32.78349" lon="-17.14075">
        <ele>945.04</ele>
      </trkpt>
      <trkpt lat="32.7837" lon="-17.14075">
        <ele>938.08</ele>
      </trkpt>
      <trkpt lat="32.78381" lon="-17.14075">
        <ele>933.72</ele>
      </trkpt>
      <trkpt lat="32.78385" lon="-17.14078">
        <ele>931.92</ele>
      </trkpt>
      <trkpt lat="32.78393" lon="-17.14124">
        <ele>926.91</ele>
      </trkpt>
      <trkpt lat="32.78394" lon="-17.14143">
        <ele>925.68</ele>
      </trkpt>
      <trkpt lat="32.78392" lon="-17.14158">
        <ele>925.39</ele>
      </trkpt>
      <trkpt lat="32.78397" lon="-17.14167">
        <ele>922.68</ele>
      </trkpt>
      <trkpt lat="32.78401" lon="-17.14174">
        <ele>918.67</ele>
      </trkpt>
      <trkpt lat="32.78401" lon="-17.14174">
        <ele>918.67</ele>
      </trkpt>
      <trkpt lat="32.78401" lon="-17.14174">
        <ele>918.67</ele>
      </trkpt>
      <trkpt lat="32.78401" lon="-17.14179">
        <ele>916.93</ele>
      </trkpt>
      <trkpt lat="32.78397" lon="-17.14182">
        <ele>917.96</ele>
      </trkpt>
      <trkpt lat="32.78375" lon="-17.14176">
        <ele>924.81</ele>
      </trkpt>
      <trkpt lat="32.78363" lon="-17.14189">
        <ele>920.35</ele>
      </trkpt>
      <trkpt lat="32.78347" lon="-17.14206">
        <ele>910.02</ele>
      </trkpt>
      <trkpt lat="32.78347" lon="-17.1422">
        <ele>902.21</ele>
      </trkpt>
      <trkpt lat="32.78354" lon="-17.14232">
        <ele>894.85</ele>
      </trkpt>
      <trkpt lat="32.78354" lon="-17.14248">
        <ele>883.18</ele>
      </trkpt>
      <trkpt lat="32.78355" lon="-17.14259">
        <ele>873.83</ele>
      </trkpt>
      <trkpt lat="32.78351" lon="-17.14274">
        <ele>860.29</ele>
      </trkpt>
      <trkpt lat="32.78347" lon="-17.14285">
        <ele>852.58</ele>
      </trkpt>
      <trkpt lat="32.78337" lon="-17.14294">
        <ele>847.5</ele>
      </trkpt>
      <trkpt lat="32.78322" lon="-17.143">
        <ele>843.47</ele>
      </trkpt>
      <trkpt lat="32.78306" lon="-17.14301">
        <ele>841.99</ele>
      </trkpt>
      <trkpt lat="32.78293" lon="-17.14298">
        <ele>841.95</ele>
      </trkpt>
      <trkpt lat="32.7829" lon="-17.14293">
        <ele>843.09</ele>
      </trkpt>
      <trkpt lat="32.78287" lon="-17.1428">
        <ele>846.07</ele>
      </trkpt>
      <trkpt lat="32.78279" lon="-17.14268">
        <ele>850.31</ele>
      </trkpt>
      <trkpt lat="32.78269" lon="-17.14257">
        <ele>854.75</ele>
      </trkpt>
      <trkpt lat="32.78264" lon="-17.14246">
        <ele>859.48</ele>
      </trkpt>
      <trkpt lat="32.78243" lon="-17.14238">
        <ele>857.47</ele>
      </trkpt>
      <trkpt lat="32.78222" lon="-17.14224">
        <ele>861.81</ele>
      </trkpt>
      <trkpt lat="32.78188" lon="-17.14215">
        <ele>861.77</ele>
      </trkpt>
      <trkpt lat="32.78179" lon="-17.14216">
        <ele>859.38</ele>
      </trkpt>
      <trkpt lat="32.78174" lon="-17.1422">
        <ele>857.19</ele>
      </trkpt>
      <trkpt lat="32.78175" lon="-17.14235">
        <ele>851.95</ele>
      </trkpt>
      <trkpt lat="32.78174" lon="-17.14242">
        <ele>849.52</ele>
      </trkpt>
      <trkpt lat="32.78166" lon="-17.14247">
        <ele>848.86</ele>
      </trkpt>
      <trkpt lat="32.78161" lon="-17.14246">
        <ele>849.15</ele>
      </trkpt>
      <trkpt lat="32.78151" lon="-17.14238">
        <ele>852.6</ele>
      </trkpt>
      <trkpt lat="32.78144" lon="-17.14233">
        <ele>855.58</ele>
      </trkpt>
      <trkpt lat="32.78121" lon="-17.14231">
        <ele>851.09</ele>
      </trkpt>
      <trkpt lat="32.78109" lon="-17.14235">
        <ele>845.21</ele>
      </trkpt>
      <trkpt lat="32.78054" lon="-17.14238">
        <ele>848.64</ele>
      </trkpt>
      <trkpt lat="32.78046" lon="-17.14242">
        <ele>845.77</ele>
      </trkpt>
      <trkpt lat="32.78039" lon="-17.1425">
        <ele>837.58</ele>
      </trkpt>
      <trkpt lat="32.7803" lon="-17.14255">
        <ele>836.76</ele>
      </trkpt>
      <trkpt lat="32.78025" lon="-17.14251">
        <ele>840.9</ele>
      </trkpt>
      <trkpt lat="32.78018" lon="-17.14243">
        <ele>852.59</ele>
      </trkpt>
      <trkpt lat="32.7801" lon="-17.14244">
        <ele>854.72</ele>
      </trkpt>
      <trkpt lat="32.77995" lon="-17.14249">
        <ele>857.03</ele>
      </trkpt>
      <trkpt lat="32.77982" lon="-17.14254">
        <ele>860.18</ele>
      </trkpt>
      <trkpt lat="32.77978" lon="-17.14276">
        <ele>849.16</ele>
      </trkpt>
      <trkpt lat="32.77973" lon="-17.14284">
        <ele>846.79</ele>
      </trkpt>
      <trkpt lat="32.77946" lon="-17.1431">
        <ele>841.69</ele>
      </trkpt>
      <trkpt lat="32.77937" lon="-17.14315">
        <ele>842.65</ele>
      </trkpt>
      <trkpt lat="32.77891" lon="-17.14306">
        <ele>853.55</ele>
      </trkpt>
      <trkpt lat="32.77879" lon="-17.14307">
        <ele>850.95</ele>
      </trkpt>
      <trkpt lat="32.77867" lon="-17.14309">
        <ele>847.63</ele>
      </trkpt>
      <trkpt lat="32.77861" lon="-17.14318">
        <ele>844.75</ele>
      </trkpt>
      <trkpt lat="32.77853" lon="-17.14321">
        <ele>843.21</ele>
      </trkpt>
      <trkpt lat="32.77845" lon="-17.14313">
        <ele>845.0</ele>
      </trkpt>
      <trkpt lat="32.77832" lon="-17.14294">
        <ele>850.04</ele>
      </trkpt>
      <trkpt lat="32.77824" lon="-17.14274">
        <ele>849.22</ele>
      </trkpt>
      <trkpt lat="32.77822" lon="-17.1423">
        <ele>847.83</ele>
      </trkpt>
      <trkpt lat="32.77813" lon="-17.14185">
        <ele>843.29</ele>
      </trkpt>
      <trkpt lat="32.77801" lon="-17.1411">
        <ele>837.81</ele>
      </trkpt>
      <trkpt lat="32.77798" lon="-17.1407">
        <ele>845.08</ele>
      </trkpt>
      <trkpt lat="32.77782" lon="-17.13999">
        <ele>859.58</ele>
      </trkpt>
      <trkpt lat="32.77748" lon="-17.13954">
        <ele>850.44</ele>
      </trkpt>
      <trkpt lat="32.77743" lon="-17.13936">
        <ele>857.75</ele>
      </trkpt>
      <trkpt lat="32.77737" lon="-17.13927">
        <ele>859.05</ele>
      </trkpt>
      <trkpt lat="32.7773" lon="-17.13927">
        <ele>855.56</ele>
      </trkpt>
      <trkpt lat="32.77722" lon="-17.1391">
        <ele>857.61</ele>
      </trkpt>
      <trkpt lat="32.77716" lon="-17.1389">
        <ele>853.85</ele>
      </trkpt>
      <trkpt lat="32.77721" lon="-17.1387">
        <ele>863.24</ele>
      </trkpt>
      <trkpt lat="32.77723" lon="-17.13856">
        <ele>867.27</ele>
      </trkpt>
      <trkpt lat="32.77722" lon="-17.1384">
        <ele>866.96</ele>
      </trkpt>
      <trkpt lat="32.77725" lon="-17.13825">
        <ele>870.25</ele>
      </trkpt>
      <trkpt lat="32.77732" lon="-17.13815">
        <ele>875.03</ele>
      </trkpt>
      <trkpt lat="32.77732" lon="-17.13815">
        <ele>875.03</ele>
      </trkpt>
      <trkpt lat="32.77732" lon="-17.13815">
        <ele>875.03</ele>
      </trkpt>
      <trkpt lat="32.77731" lon="-17.13801">
        <ele>877.23</ele>
      </trkpt>
      <trkpt lat="32.77726" lon="-17.13798">
        <ele>876.05</ele>
      </trkpt>
      <trkpt lat="32.77717" lon="-17.13804">
        <ele>873.48</ele>
      </trkpt>
      <trkpt lat="32.77708" lon="-17.13805">
        <ele>872.07</ele>
      </trkpt>
      <trkpt lat="32.77702" lon="-17.13799">
        <ele>872.83</ele>
      </trkpt>
      <trkpt lat="32.77699" lon="-17.13789">
        <ele>875.43</ele>
      </trkpt>
      <trkpt lat="32.77694" lon="-17.13786">
        <ele>876.39</ele>
      </trkpt>
      <trkpt lat="32.77689" lon="-17.13787">
        <ele>876.67</ele>
      </trkpt>
      <trkpt lat="32.77684" lon="-17.13791">
        <ele>875.86</ele>
      </trkpt>
      <trkpt lat="32.77681" lon="-17.13806">
        <ele>870.85</ele>
      </trkpt>
      <trkpt lat="32.77669" lon="-17.1383">
        <ele>863.4</ele>
      </trkpt>
      <trkpt lat="32.7766" lon="-17.13845">
        <ele>856.48</ele>
      </trkpt>
      <trkpt lat="32.77652" lon="-17.13853">
        <ele>853.31</ele>
      </trkpt>
      <trkpt lat="32.77631" lon="-17.13863">
        <ele>851.27</ele>
      </trkpt>
      <trkpt lat="32.77609" lon="-17.1389">
        <ele>837.96</ele>
      </trkpt>
      <trkpt lat="32.77604" lon="-17.13897">
        <ele>839.15</ele>
      </trkpt>
      <trkpt lat="32.776" lon="-17.139">
        <ele>840.28</ele>
      </trkpt>
      <trkpt lat="32.7759" lon="-17.139">
        <ele>844.67</ele>
      </trkpt>
      <trkpt lat="32.77581" lon="-17.13895">
        <ele>851.49</ele>
      </trkpt>
      <trkpt lat="32.7757" lon="-17.13893">
        <ele>861.34</ele>
      </trkpt>
      <trkpt lat="32.77565" lon="-17.13895">
        <ele>864.61</ele>
      </trkpt>
      <trkpt lat="32.77566" lon="-17.13926">
        <ele>852.59</ele>
      </trkpt>
      <trkpt lat="32.77571" lon="-17.13975">
        <ele>832.18</ele>
      </trkpt>
      <trkpt lat="32.77566" lon="-17.13997">
        <ele>831.15</ele>
      </trkpt>
      <trkpt lat="32.77559" lon="-17.14003">
        <ele>834.13</ele>
      </trkpt>
      <trkpt lat="32.77533" lon="-17.1401">
        <ele>844.69</ele>
      </trkpt>
      <trkpt lat="32.7752" lon="-17.14016">
        <ele>845.48</ele>
      </trkpt>
      <trkpt lat="32.77509" lon="-17.14018">
        <ele>846.2</ele>
      </trkpt>
      <trkpt lat="32.77487" lon="-17.14013">
        <ele>847.85</ele>
      </trkpt>
      <trkpt lat="32.77475" lon="-17.14018">
        <ele>845.13</ele>
      </trkpt>
      <trkpt lat="32.77469" lon="-17.14024">
        <ele>841.21</ele>
      </trkpt>
      <trkpt lat="32.77465" lon="-17.14027">
        <ele>838.24</ele>
      </trkpt>
      <trkpt lat="32.7746" lon="-17.14023">
        <ele>838.14</ele>
      </trkpt>
      <trkpt lat="32.7745" lon="-17.14019">
        <ele>836.65</ele>
      </trkpt>
      <trkpt lat="32.77432" lon="-17.14018">
        <ele>834.36</ele>
      </trkpt>
      <trkpt lat="32.77425" lon="-17.14012">
        <ele>836.35</ele>
      </trkpt>
      <trkpt lat="32.7742" lon="-17.14004">
        <ele>838.51</ele>
      </trkpt>
      <trkpt lat="32.7742" lon="-17.13994">
        <ele>843.87</ele>
      </trkpt>
      <trkpt lat="32.77417" lon="-17.13978">
        <ele>853.36</ele>
      </trkpt>
      <trkpt lat="32.77416" lon="-17.13953">
        <ele>866.94</ele>
      </trkpt>
      <trkpt lat="32.77399" lon="-17.13934">
        <ele>868.6</ele>
      </trkpt>
      <trkpt lat="32.7739" lon="-17.13927">
        <ele>869.9</ele>
      </trkpt>
      <trkpt lat="32.77375" lon="-17.13929">
        <ele>861.96</ele>
      </trkpt>
      <trkpt lat="32.77362" lon="-17.13935">
        <ele>850.27</ele>
      </trkpt>
      <trkpt lat="32.77354" lon="-17.13946">
        <ele>836.68</ele>
      </trkpt>
      <trkpt lat="32.77348" lon="-17.13952">
        <ele>833.23</ele>
      </trkpt>
      <trkpt lat="32.77343" lon="-17.13953">
        <ele>831.04</ele>
      </trkpt>
      <trkpt lat="32.77336" lon="-17.13947">
        <ele>828.86</ele>
      </trkpt>
      <trkpt lat="32.7733" lon="-17.13933">
        <ele>834.31</ele>
      </trkpt>
      <trkpt lat="32.77328" lon="-17.13916">
        <ele>844.91</ele>
      </trkpt>
      <trkpt lat="32.77323" lon="-17.13909">
        <ele>847.49</ele>
      </trkpt>
      <trkpt lat="32.77317" lon="-17.13903">
        <ele>848.72</ele>
      </trkpt>
      <trkpt lat="32.77306" lon="-17.13899">
        <ele>845.18</ele>
      </trkpt>
      <trkpt lat="32.77287" lon="-17.13895">
        <ele>837.28</ele>
      </trkpt>
      <trkpt lat="32.7727" lon="-17.13888">
        <ele>829.22</ele>
      </trkpt>
      <trkpt lat="32.77253" lon="-17.13873">
        <ele>821.73</ele>
      </trkpt>
      <trkpt lat="32.7725" lon="-17.13864">
        <ele>822.86</ele>
      </trkpt>
      <trkpt lat="32.77256" lon="-17.13847">
        <ele>833.72</ele>
      </trkpt>
      <trkpt lat="32.77269" lon="-17.13801">
        <ele>854.06</ele>
      </trkpt>
      <trkpt lat="32.7727" lon="-17.13784">
        <ele>861.1</ele>
      </trkpt>
      <trkpt lat="32.77268" lon="-17.13776">
        <ele>862.84</ele>
      </trkpt>
      <trkpt lat="32.7725" lon="-17.1377">
        <ele>854.32</ele>
      </trkpt>
      <trkpt lat="32.77235" lon="-17.13763">
        <ele>846.44</ele>
      </trkpt>
      <trkpt lat="32.77219" lon="-17.13753">
        <ele>841.06</ele>
      </trkpt>
      <trkpt lat="32.77211" lon="-17.13746">
        <ele>841.36</ele>
      </trkpt>
      <trkpt lat="32.77207" lon="-17.1374">
        <ele>843.5</ele>
      </trkpt>
      <trkpt lat="32.77201" lon="-17.13724">
        <ele>852.48</ele>
      </trkpt>
      <trkpt lat="32.77202" lon="-17.13716">
        <ele>857.5</ele>
      </trkpt>
      <trkpt lat="32.77207" lon="-17.1371">
        <ele>861.76</ele>
      </trkpt>
      <trkpt lat="32.77212" lon="-17.13696">
        <ele>867.82</ele>
      </trkpt>
      <trkpt lat="32.7721" lon="-17.13685">
        <ele>871.88</ele>
      </trkpt>
      <trkpt lat="32.77204" lon="-17.13679">
        <ele>874.04</ele>
      </trkpt>
      <trkpt lat="32.77196" lon="-17.1368">
        <ele>873.68</ele>
      </trkpt>
      <trkpt lat="32.77172" lon="-17.13695">
        <ele>870.22</ele>
      </trkpt>
      <trkpt lat="32.77146" lon="-17.13706">
        <ele>861.25</ele>
      </trkpt>
      <trkpt lat="32.77133" lon="-17.13718">
        <ele>849.21</ele>
      </trkpt>
      <trkpt lat="32.77117" lon="-17.13724">
        <ele>831.25</ele>
      </trkpt>
      <trkpt lat="32.77109" lon="-17.13725">
        <ele>824.64</ele>
      </trkpt>
      <trkpt lat="32.77092" lon="-17.13708">
        <ele>821.23</ele>
      </trkpt>
      <trkpt lat="32.7708" lon="-17.1369">
        <ele>813.34</ele>
      </trkpt>
      <trkpt lat="32.77076" lon="-17.13673">
        <ele>817.01</ele>
      </trkpt>
      <trkpt lat="32.77076" lon="-17.13659">
        <ele>822.35</ele>
      </trkpt>
      <trkpt lat="32.77082" lon="-17.13631">
        <ele>839.12</ele>
      </trkpt>
      <trkpt lat="32.7708" lon="-17.13602">
        <ele>851.49</ele>
      </trkpt>
      <trkpt lat="32.77073" lon="-17.13577">
        <ele>854.35</ele>
      </trkpt>
      <trkpt lat="32.77078" lon="-17.13568">
        <ele>861.4</ele>
      </trkpt>
      <trkpt lat="32.77082" lon="-17.13562">
        <ele>866.31</ele>
      </trkpt>
      <trkpt lat="32.77083" lon="-17.13558">
        <ele>868.13</ele>
      </trkpt>
      <trkpt lat="32.77078" lon="-17.13555">
        <ele>865.3</ele>
      </trkpt>
      <trkpt lat="32.77056" lon="-17.13549">
        <ele>850.03</ele>
      </trkpt>
      <trkpt lat="32.77051" lon="-17.13543">
        <ele>848.12</ele>
      </trkpt>
      <trkpt lat="32.77052" lon="-17.13528">
        <ele>852.64</ele>
      </trkpt>
      <trkpt lat="32.77053" lon="-17.1351">
        <ele>859.74</ele>
      </trkpt>
      <trkpt lat="32.77049" lon="-17.13505">
        <ele>858.95</ele>
      </trkpt>
      <trkpt lat="32.77026" lon="-17.13496">
        <ele>848.78</ele>
      </trkpt>
      <trkpt lat="32.77013" lon="-17.13504">
        <ele>837.28</ele>
      </trkpt>
      <trkpt lat="32.77002" lon="-17.13504">
        <ele>831.11</ele>
      </trkpt>
      <trkpt lat="32.7699" lon="-17.13496">
        <ele>827.12</ele>
      </trkpt>
      <trkpt lat="32.76981" lon="-17.13461">
        <ele>834.55</ele>
      </trkpt>
      <trkpt lat="32.76968" lon="-17.13423">
        <ele>836.28</ele>
      </trkpt>
      <trkpt lat="32.76947" lon="-17.13402">
        <ele>826.12</ele>
      </trkpt>
      <trkpt lat="32.7693" lon="-17.13385">
        <ele>823.77</ele>
      </trkpt>
      <trkpt lat="32.76924" lon="-17.13371">
        <ele>824.21</ele>
      </trkpt>
      <trkpt lat="32.76929" lon="-17.13341">
        <ele>835.57</ele>
      </trkpt>
      <trkpt lat="32.76928" lon="-17.13325">
        <ele>842.1</ele>
      </trkpt>
      <trkpt lat="32.76925" lon="-17.1331">
        <ele>849.53</ele>
      </trkpt>
      <trkpt lat="32.76911" lon="-17.13318">
        <ele>836.8</ele>
      </trkpt>
      <trkpt lat="32.76898" lon="-17.13324">
        <ele>825.06</ele>
      </trkpt>
      <trkpt lat="32.76887" lon="-17.13313">
        <ele>824.6</ele>
      </trkpt>
      <trkpt lat="32.76878" lon="-17.13298">
        <ele>826.05</ele>
      </trkpt>
      <trkpt lat="32.76873" lon="-17.1328">
        <ele>829.56</ele>
      </trkpt>
      <trkpt lat="32.7686" lon="-17.13276">
        <ele>820.92</ele>
      </trkpt>
      <trkpt lat="32.76856" lon="-17.13256">
        <ele>823.22</ele>
      </trkpt>
      <trkpt lat="32.76861" lon="-17.13229">
        <ele>838.79</ele>
      </trkpt>
      <trkpt lat="32.76855" lon="-17.13219">
        <ele>839.58</ele>
      </trkpt>
      <trkpt lat="32.76846" lon="-17.13206">
        <ele>836.12</ele>
      </trkpt>
      <trkpt lat="32.76842" lon="-17.13192">
        <ele>837.16</ele>
      </trkpt>
      <trkpt lat="32.76847" lon="-17.13171">
        <ele>852.92</ele>
      </trkpt>
      <trkpt lat="32.76845" lon="-17.13148">
        <ele>858.46</ele>
      </trkpt>
      <trkpt lat="32.76848" lon="-17.13135">
        <ele>861.56</ele>
      </trkpt>
      <trkpt lat="32.76843" lon="-17.13128">
        <ele>862.91</ele>
      </trkpt>
      <trkpt lat="32.7683" lon="-17.13113">
        <ele>865.24</ele>
      </trkpt>
      <trkpt lat="32.76823" lon="-17.13094">
        <ele>871.73</ele>
      </trkpt>
      <trkpt lat="32.76836" lon="-17.1307">
        <ele>878.05</ele>
      </trkpt>
      <trkpt lat="32.76834" lon="-17.13069">
        <ele>878.45</ele>
      </trkpt>
      <trkpt lat="32.76834" lon="-17.13069">
        <ele>878.45</ele>
      </trkpt>
      <trkpt lat="32.76834" lon="-17.13069">
        <ele>878.45</ele>
      </trkpt>
      <trkpt lat="32.7681" lon="-17.13052">
        <ele>882.61</ele>
      </trkpt>
      <trkpt lat="32.76821" lon="-17.13003">
        <ele>877.28</ele>
      </trkpt>
      <trkpt lat="32.76821" lon="-17.12962">
        <ele>869.99</ele>
      </trkpt>
      <trkpt lat="32.76808" lon="-17.12934">
        <ele>865.79</ele>
      </trkpt>
      <trkpt lat="32.76807" lon="-17.12933">
        <ele>865.56</ele>
      </trkpt>
      <trkpt lat="32.76796" lon="-17.12936">
        <ele>865.46</ele>
      </trkpt>
      <trkpt lat="32.76795" lon="-17.12938">
        <ele>865.29</ele>
      </trkpt>
      <trkpt lat="32.76802" lon="-17.12977">
        <ele>869.36</ele>
      </trkpt>
      <trkpt lat="32.76795" lon="-17.13003">
        <ele>877.25</ele>
      </trkpt>
      <trkpt lat="32.76781" lon="-17.13028">
        <ele>879.63</ele>
      </trkpt>
      <trkpt lat="32.76781" lon="-17.13046">
        <ele>877.87</ele>
      </trkpt>
      <trkpt lat="32.76771" lon="-17.13074">
        <ele>869.83</ele>
      </trkpt>
      <trkpt lat="32.76773" lon="-17.13097">
        <ele>858.91</ele>
      </trkpt>
      <trkpt lat="32.76766" lon="-17.13128">
        <ele>848.79</ele>
      </trkpt>
      <trkpt lat="32.76749" lon="-17.13153">
        <ele>845.57</ele>
      </trkpt>
      <trkpt lat="32.76742" lon="-17.13185">
        <ele>841.74</ele>
      </trkpt>
      <trkpt lat="32.76737" lon="-17.1321">
        <ele>840.48</ele>
      </trkpt>
      <trkpt lat="32.76729" lon="-17.13228">
        <ele>840.76</ele>
      </trkpt>
      <trkpt lat="32.76711" lon="-17.13246">
        <ele>843.01</ele>
      </trkpt>
      <trkpt lat="32.76696" lon="-17.13256">
        <ele>842.71</ele>
      </trkpt>
      <trkpt lat="32.76662" lon="-17.13289">
        <ele>823.87</ele>
      </trkpt>
      <trkpt lat="32.76659" lon="-17.13293">
        <ele>823.52</ele>
      </trkpt>
      <trkpt lat="32.76654" lon="-17.13307">
        <ele>820.21</ele>
      </trkpt>
      <trkpt lat="32.76653" lon="-17.13354">
        <ele>805.24</ele>
      </trkpt>
      <trkpt lat="32.76642" lon="-17.1337">
        <ele>804.91</ele>
      </trkpt>
      <trkpt lat="32.76642" lon="-17.1337">
        <ele>804.91</ele>
      </trkpt>
      <trkpt lat="32.76642" lon="-17.1337">
        <ele>804.91</ele>
      </trkpt>
      <trkpt lat="32.76625" lon="-17.13369">
        <ele>812.86</ele>
      </trkpt>
      <trkpt lat="32.76609" lon="-17.13363">
        <ele>823.09</ele>
      </trkpt>
      <trkpt lat="32.76598" lon="-17.1334">
        <ele>836.46</ele>
      </trkpt>
      <trkpt lat="32.76589" lon="-17.13325">
        <ele>842.48</ele>
      </trkpt>
      <trkpt lat="32.76575" lon="-17.13318">
        <ele>846.04</ele>
      </trkpt>
      <trkpt lat="32.76571" lon="-17.13289">
        <ele>850.3</ele>
      </trkpt>
      <trkpt lat="32.76573" lon="-17.13268">
        <ele>852.86</ele>
      </trkpt>
      <trkpt lat="32.76536" lon="-17.13216">
        <ele>872.98</ele>
      </trkpt>
      <trkpt lat="32.76529" lon="-17.13191">
        <ele>879.41</ele>
      </trkpt>
      <trkpt lat="32.76523" lon="-17.13172">
        <ele>884.66</ele>
      </trkpt>
      <trkpt lat="32.76519" lon="-17.13168">
        <ele>887.95</ele>
      </trkpt>
      <trkpt lat="32.76517" lon="-17.1316">
        <ele>890.25</ele>
      </trkpt>
      <trkpt lat="32.76517" lon="-17.1315">
        <ele>891.24</ele>
      </trkpt>
      <trkpt lat="32.76516" lon="-17.13149">
        <ele>891.69</ele>
      </trkpt>
      <trkpt lat="32.76507" lon="-17.13147">
        <ele>894.85</ele>
      </trkpt>
      <trkpt lat="32.76503" lon="-17.13148">
        <ele>896.27</ele>
      </trkpt>
      <trkpt lat="32.76494" lon="-17.13168">
        <ele>898.19</ele>
      </trkpt>
      <trkpt lat="32.76501" lon="-17.13203">
        <ele>881.15</ele>
      </trkpt>
      <trkpt lat="32.76507" lon="-17.13213">
        <ele>879.82</ele>
      </trkpt>
      <trkpt lat="32.76511" lon="-17.1322">
        <ele>878.21</ele>
      </trkpt>
      <trkpt lat="32.76518" lon="-17.13232">
        <ele>874.75</ele>
      </trkpt>
      <trkpt lat="32.76531" lon="-17.13258">
        <ele>865.21</ele>
      </trkpt>
      <trkpt lat="32.76532" lon="-17.13274">
        <ele>863.86</ele>
      </trkpt>
      <trkpt lat="32.76534" lon="-17.13302">
        <ele>854.26</ele>
      </trkpt>
      <trkpt lat="32.76536" lon="-17.1336">
        <ele>866.81</ele>
      </trkpt>
      <trkpt lat="32.76533" lon="-17.1338">
        <ele>872.22</ele>
      </trkpt>
      <trkpt lat="32.76519" lon="-17.13386">
        <ele>881.67</ele>
      </trkpt>
      <trkpt lat="32.76512" lon="-17.13393">
        <ele>886.94</ele>
      </trkpt>
      <trkpt lat="32.76477" lon="-17.13426">
        <ele>906.61</ele>
      </trkpt>
      <trkpt lat="32.76441" lon="-17.1346">
        <ele>918.42</ele>
      </trkpt>
      <trkpt lat="32.76406" lon="-17.13493">
        <ele>929.37</ele>
      </trkpt>
      <trkpt lat="32.7637" lon="-17.13527">
        <ele>938.84</ele>
      </trkpt>
      <trkpt lat="32.76335" lon="-17.1356">
        <ele>943.34</ele>
      </trkpt>
      <trkpt lat="32.76299" lon="-17.13594">
        <ele>951.46</ele>
      </trkpt>
      <trkpt lat="32.76264" lon="-17.13627">
        <ele>951.27</ele>
      </trkpt>
      <trkpt lat="32.76229" lon="-17.13661">
        <ele>946.12</ele>
      </trkpt>
      <trkpt lat="32.76193" lon="-17.13694">
        <ele>943.18</ele>
      </trkpt>
      <trkpt lat="32.76158" lon="-17.13728">
        <ele>965.48</ele>
      </trkpt>
      <trkpt lat="32.76122" lon="-17.13761">
        <ele>1002.14</ele>
      </trkpt>
      <trkpt lat="32.76087" lon="-17.13794">
        <ele>1032.58</ele>
      </trkpt>
      <trkpt lat="32.76051" lon="-17.13828">
        <ele>1084.82</ele>
      </trkpt>
      <trkpt lat="32.76016" lon="-17.13861">
        <ele>1127.32</ele>
      </trkpt>
      <trkpt lat="32.75981" lon="-17.13895">
        <ele>1177.83</ele>
      </trkpt>
      <trkpt lat="32.75945" lon="-17.13928">
        <ele>1209.96</ele>
      </trkpt>
      <trkpt lat="32.7591" lon="-17.13962">
        <ele>1207.56</ele>
      </trkpt>
      <trkpt lat="32.75874" lon="-17.13995">
        <ele>1187.51</ele>
      </trkpt>
      <trkpt lat="32.75839" lon="-17.14029">
        <ele>1165.05</ele>
      </trkpt>
      <trkpt lat="32.75804" lon="-17.14062">
        <ele>1134.38</ele>
      </trkpt>
      <trkpt lat="32.75768" lon="-17.14096">
        <ele>1123.04</ele>
      </trkpt>
      <trkpt lat="32.75733" lon="-17.14129">
        <ele>1101.02</ele>
      </trkpt>
      <trkpt lat="32.75697" lon="-17.14162">
        <ele>1070.2</ele>
      </trkpt>
      <trkpt lat="32.75662" lon="-17.14196">
        <ele>1036.32</ele>
      </trkpt>
      <trkpt lat="32.75626" lon="-17.14229">
        <ele>1016.6</ele>
      </trkpt>
      <trkpt lat="32.75591" lon="-17.14263">
        <ele>982.9</ele>
      </trkpt>
      <trkpt lat="32.75556" lon="-17.14296">
        <ele>956.64</ele>
      </trkpt>
      <trkpt lat="32.7552" lon="-17.1433">
        <ele>948.11</ele>
      </trkpt>
      <trkpt lat="32.75485" lon="-17.14363">
        <ele>926.39</ele>
      </trkpt>
      <trkpt lat="32.75449" lon="-17.14397">
        <ele>902.57</ele>
      </trkpt>
      <trkpt lat="32.75414" lon="-17.1443">
        <ele>899.38</ele>
      </trkpt>
      <trkpt lat="32.75378" lon="-17.14464">
        <ele>880.72</ele>
      </trkpt>
      <trkpt lat="32.75343" lon="-17.14497">
        <ele>864.64</ele>
      </trkpt>
      <trkpt lat="32.75336" lon="-17.14502">
        <ele>864.83</ele>
      </trkpt>
      <trkpt lat="32.75315" lon="-17.14517">
        <ele>867.64</ele>
      </trkpt>
      <trkpt lat="32.75301" lon="-17.14523">
        <ele>868.05</ele>
      </trkpt>
      <trkpt lat="32.75252" lon="-17.14542">
        <ele>858.14</ele>
      </trkpt>
      <trkpt lat="32.75228" lon="-17.14578">
        <ele>846.7</ele>
      </trkpt>
      <trkpt lat="32.75173" lon="-17.146">
        <ele>834.01</ele>
      </trkpt>
      <trkpt lat="32.75173" lon="-17.146">
        <ele>834.01</ele>
      </trkpt>
      <trkpt lat="32.75173" lon="-17.146">
        <ele>834.01</ele>
      </trkpt>
      <trkpt lat="32.7517" lon="-17.14601">
        <ele>833.6</ele>
      </trkpt>
      <trkpt lat="32.75137" lon="-17.14585">
        <ele>842.83</ele>
      </trkpt>
      <trkpt lat="32.75092" lon="-17.14593">
        <ele>838.59</ele>
      </trkpt>
      <trkpt lat="32.75066" lon="-17.14586">
        <ele>847.04</ele>
      </trkpt>
      <trkpt lat="32.7506" lon="-17.146">
        <ele>842.2</ele>
      </trkpt>
      <trkpt lat="32.7503" lon="-17.14633">
        <ele>822.24</ele>
      </trkpt>
      <trkpt lat="32.74994" lon="-17.14634">
        <ele>822.47</ele>
      </trkpt>
      <trkpt lat="32.74975" lon="-17.14652">
        <ele>818.58</ele>
      </trkpt>
      <trkpt lat="32.74946" lon="-17.14657">
        <ele>819.94</ele>
      </trkpt>
      <trkpt lat="32.74922" lon="-17.14637">
        <ele>823.08</ele>
      </trkpt>
      <trkpt lat="32.74882" lon="-17.14638">
        <ele>827.76</ele>
      </trkpt>
      <trkpt lat="32.74842" lon="-17.14652">
        <ele>817.67</ele>
      </trkpt>
      <trkpt lat="32.74794" lon="-17.14655">
        <ele>820.19</ele>
      </trkpt>
      <trkpt lat="32.74718" lon="-17.14667">
        <ele>812.51</ele>
      </trkpt>
      <trkpt lat="32.74646" lon="-17.14689">
        <ele>826.56</ele>
      </trkpt>
      <trkpt lat="32.74623" lon="-17.14698">
        <ele>829.54</ele>
      </trkpt>
      <trkpt lat="32.74582" lon="-17.14704">
        <ele>838.53</ele>
      </trkpt>
      <trkpt lat="32.74582" lon="-17.14704">
        <ele>838.53</ele>
      </trkpt>
      <trkpt lat="32.74582" lon="-17.14704">
        <ele>838.53</ele>
      </trkpt>
      <trkpt lat="32.74555" lon="-17.14709">
        <ele>855.22</ele>
      </trkpt>
      <trkpt lat="32.74538" lon="-17.14717">
        <ele>854.93</ele>
      </trkpt>
      <trkpt lat="32.74531" lon="-17.14725">
        <ele>853.35</ele>
      </trkpt>
      <trkpt lat="32.74512" lon="-17.14748">
        <ele>842.62</ele>
      </trkpt>
      <trkpt lat="32.74506" lon="-17.14757">
        <ele>837.11</ele>
      </trkpt>
      <trkpt lat="32.74496" lon="-17.1476">
        <ele>837.05</ele>
      </trkpt>
      <trkpt lat="32.74473" lon="-17.14771">
        <ele>834.67</ele>
      </trkpt>
      <trkpt lat="32.74452" lon="-17.14786">
        <ele>827.31</ele>
      </trkpt>
      <trkpt lat="32.74415" lon="-17.14829">
        <ele>815.46</ele>
      </trkpt>
      <trkpt lat="32.74383" lon="-17.14869">
        <ele>801.25</ele>
      </trkpt>
      <trkpt lat="32.74332" lon="-17.14931">
        <ele>774.48</ele>
      </trkpt>
      <trkpt lat="32.74319" lon="-17.1494">
        <ele>768.41</ele>
      </trkpt>
      <trkpt lat="32.74308" lon="-17.14941">
        <ele>767.79</ele>
      </trkpt>
      <trkpt lat="32.74303" lon="-17.14938">
        <ele>767.85</ele>
      </trkpt>
      <trkpt lat="32.743" lon="-17.14934">
        <ele>767.96</ele>
      </trkpt>
      <trkpt lat="32.7429" lon="-17.14929">
        <ele>766.29</ele>
      </trkpt>
      <trkpt lat="32.74279" lon="-17.14926">
        <ele>763.66</ele>
      </trkpt>
      <trkpt lat="32.74273" lon="-17.14929">
        <ele>760.97</ele>
      </trkpt>
      <trkpt lat="32.74278" lon="-17.14942">
        <ele>762.22</ele>
      </trkpt>
      <trkpt lat="32.74281" lon="-17.14951">
        <ele>760.93</ele>
      </trkpt>
      <trkpt lat="32.7428" lon="-17.1496">
        <ele>758.48</ele>
      </trkpt>
      <trkpt lat="32.74281" lon="-17.14982">
        <ele>752.97</ele>
      </trkpt>
      <trkpt lat="32.7428" lon="-17.15001">
        <ele>747.52</ele>
      </trkpt>
      <trkpt lat="32.74276" lon="-17.15017">
        <ele>742.36</ele>
      </trkpt>
      <trkpt lat="32.74274" lon="-17.15034">
        <ele>739.1</ele>
      </trkpt>
      <trkpt lat="32.74276" lon="-17.15046">
        <ele>738.56</ele>
      </trkpt>
      <trkpt lat="32.74274" lon="-17.1505">
        <ele>738.18</ele>
      </trkpt>
      <trkpt lat="32.7427" lon="-17.15053">
        <ele>737.83</ele>
      </trkpt>
      <trkpt lat="32.74267" lon="-17.15049">
        <ele>737.81</ele>
      </trkpt>
      <trkpt lat="32.74252" lon="-17.15024">
        <ele>736.74</ele>
      </trkpt>
      <trkpt lat="32.74235" lon="-17.1502">
        <ele>732.52</ele>
      </trkpt>
      <trkpt lat="32.74221" lon="-17.1502">
        <ele>728.57</ele>
      </trkpt>
      <trkpt lat="32.74207" lon="-17.15018">
        <ele>725.54</ele>
      </trkpt>
      <trkpt lat="32.74207" lon="-17.15018">
        <ele>725.54</ele>
      </trkpt>
      <trkpt lat="32.74207" lon="-17.15018">
        <ele>725.54</ele>
      </trkpt>
      <trkpt lat="32.74204" lon="-17.15014">
        <ele>724.91</ele>
      </trkpt>
      <trkpt lat="32.74201" lon="-17.15009">
        <ele>724.14</ele>
      </trkpt>
      <trkpt lat="32.74197" lon="-17.14991">
        <ele>722.89</ele>
      </trkpt>
      <trkpt lat="32.74181" lon="-17.14905">
        <ele>703.38</ele>
      </trkpt>
      <trkpt lat="32.74177" lon="-17.14877">
        <ele>700.38</ele>
      </trkpt>
      <trkpt lat="32.74177" lon="-17.14855">
        <ele>701.95</ele>
      </trkpt>
      <trkpt lat="32.74176" lon="-17.14835">
        <ele>706.29</ele>
      </trkpt>
      <trkpt lat="32.74174" lon="-17.14824">
        <ele>705.96</ele>
      </trkpt>
      <trkpt lat="32.74169" lon="-17.14813">
        <ele>704.28</ele>
      </trkpt>
      <trkpt lat="32.74164" lon="-17.14808">
        <ele>702.42</ele>
      </trkpt>
      <trkpt lat="32.74153" lon="-17.14803">
        <ele>698.25</ele>
      </trkpt>
      <trkpt lat="32.74144" lon="-17.14801">
        <ele>695.13</ele>
      </trkpt>
      <trkpt lat="32.74136" lon="-17.14802">
        <ele>693.47</ele>
      </trkpt>
      <trkpt lat="32.74122" lon="-17.14814">
        <ele>693.43</ele>
      </trkpt>
      <trkpt lat="32.74102" lon="-17.14831">
        <ele>689.76</ele>
      </trkpt>
      <trkpt lat="32.74084" lon="-17.14854">
        <ele>683.85</ele>
      </trkpt>
      <trkpt lat="32.74064" lon="-17.14894">
        <ele>675.82</ele>
      </trkpt>
      <trkpt lat="32.74049" lon="-17.1493">
        <ele>665.76</ele>
      </trkpt>
      <trkpt lat="32.74041" lon="-17.14943">
        <ele>660.78</ele>
      </trkpt>
      <trkpt lat="32.74033" lon="-17.14951">
        <ele>657.43</ele>
      </trkpt>
      <trkpt lat="32.74019" lon="-17.14957">
        <ele>653.67</ele>
      </trkpt>
      <trkpt lat="32.74004" lon="-17.14957">
        <ele>652.3</ele>
      </trkpt>
      <trkpt lat="32.73966" lon="-17.14956">
        <ele>641.91</ele>
      </trkpt>
      <trkpt lat="32.73952" lon="-17.14969">
        <ele>638.27</ele>
      </trkpt>
      <trkpt lat="32.73871" lon="-17.15031">
        <ele>637.0</ele>
      </trkpt>
    </trkseg>
  </trk>
</gpx>
