<?xml version="1.0"?>
<gpx xmlns="http://www.topografix.com/GPX/1/1" xmlns:xsi="http://www.w3.org/2001/XMLSchema-instance" version="1.1" creator="AllTrails.com" xsi:schemaLocation="http://www.topografix.com/GPX/1/1 http://www.topografix.com/GPX/1/1/gpx.xsd">
  <metadata>
    <name><![CDATA[pr4-levada-do-barreiro]]></name>
    <desc><![CDATA[]]></desc>
    <link href="http://www.alltrails.com">
      <text>AllTrails, LLC</text>
    </link>
    <bounds minlat="32.69492" minlon="-16.92509" maxlat="32.7259722" maxlon="-16.90936"/>
  </metadata>
  <trk>
    <name><![CDATA[pr4-levada-do-barreiro]]></name>
    <src>AllTrails</src>
    <trkseg>
      <trkpt lat="32.72597" lon="-16.92472">
        <ele>1635.95</ele>
      </trkpt>
      <trkpt lat="32.72597" lon="-16.9247">
        <ele>1636.06</ele>
      </trkpt>
      <trkpt lat="32.72596" lon="-16.92475">
        <ele>1635.45</ele>
      </trkpt>
      <trkpt lat="32.72594" lon="-16.9249">
        <ele>1633.79</ele>
      </trkpt>
      <trkpt lat="32.7259" lon="-16.92509">
        <ele>1631.75</ele>
      </trkpt>
      <trkpt lat="32.72576" lon="-16.92493">
        <ele>1627.8</ele>
      </trkpt>
      <trkpt lat="32.72572" lon="-16.92492">
        <ele>1626.44</ele>
      </trkpt>
      <trkpt lat="32.72572" lon="-16.92492">
        <ele>1626.44</ele>
      </trkpt>
      <trkpt lat="32.72566" lon="-16.92492">
        <ele>1624.25</ele>
      </trkpt>
      <trkpt lat="32.72562" lon="-16.9249">
        <ele>1623.1</ele>
      </trkpt>
      <trkpt lat="32.72557" lon="-16.92482">
        <ele>1622.71</ele>
      </trkpt>
      <trkpt lat="32.72552" lon="-16.92468">
        <ele>1622.04</ele>
      </trkpt>
      <trkpt lat="32.72543" lon="-16.92453">
        <ele>1616.59</ele>
      </trkpt>
      <trkpt lat="32.72541" lon="-16.92452">
        <ele>1615.38</ele>
      </trkpt>
      <trkpt lat="32.7253" lon="-16.92448">
        <ele>1608.6</ele>
      </trkpt>
      <trkpt lat="32.7253" lon="-16.92448">
        <ele>1608.6</ele>
      </trkpt>
      <trkpt lat="32.7253" lon="-16.92448">
        <ele>1608.6</ele>
      </trkpt>
      <trkpt lat="32.7253" lon="-16.92448">
        <ele>1608.6</ele>
      </trkpt>
      <trkpt lat="32.72522" lon="-16.92445">
        <ele>1604.96</ele>
      </trkpt>
      <trkpt lat="32.72499" lon="-16.92432">
        <ele>1597.04</ele>
      </trkpt>
      <trkpt lat="32.72468" lon="-16.92402">
        <ele>1585.35</ele>
      </trkpt>
      <trkpt lat="32.72455" lon="-16.92384">
        <ele>1582.13</ele>
      </trkpt>
      <trkpt lat="32.72455" lon="-16.92384">
        <ele>1582.13</ele>
      </trkpt>
      <trkpt lat="32.72455" lon="-16.92384">
        <ele>1582.13</ele>
      </trkpt>
      <trkpt lat="32.72439" lon="-16.92368">
        <ele>1578.44</ele>
      </trkpt>
      <trkpt lat="32.72425" lon="-16.92361">
        <ele>1573.99</ele>
      </trkpt>
      <trkpt lat="32.72415" lon="-16.92363">
        <ele>1570.46</ele>
      </trkpt>
      <trkpt lat="32.72403" lon="-16.9237">
        <ele>1566.57</ele>
      </trkpt>
      <trkpt lat="32.72393" lon="-16.92362">
        <ele>1563.33</ele>
      </trkpt>
      <trkpt lat="32.72382" lon="-16.92355">
        <ele>1560.73</ele>
      </trkpt>
      <trkpt lat="32.72378" lon="-16.9235">
        <ele>1560.05</ele>
      </trkpt>
      <trkpt lat="32.72378" lon="-16.9235">
        <ele>1560.05</ele>
      </trkpt>
      <trkpt lat="32.72378" lon="-16.9235">
        <ele>1560.05</ele>
      </trkpt>
      <trkpt lat="32.72376" lon="-16.92347">
        <ele>1559.72</ele>
      </trkpt>
      <trkpt lat="32.72371" lon="-16.92339">
        <ele>1558.93</ele>
      </trkpt>
      <trkpt lat="32.72368" lon="-16.92333">
        <ele>1558.49</ele>
      </trkpt>
      <trkpt lat="32.72365" lon="-16.92326">
        <ele>1558.03</ele>
      </trkpt>
      <trkpt lat="32.72363" lon="-16.92321">
        <ele>1557.79</ele>
      </trkpt>
      <trkpt lat="32.7236" lon="-16.92315">
        <ele>1557.5</ele>
      </trkpt>
      <trkpt lat="32.72328" lon="-16.92305">
        <ele>1552.36</ele>
      </trkpt>
      <trkpt lat="32.72296" lon="-16.92291">
        <ele>1546.08</ele>
      </trkpt>
      <trkpt lat="32.72171" lon="-16.92268">
        <ele>1521.81</ele>
      </trkpt>
      <trkpt lat="32.72122" lon="-16.92263">
        <ele>1513.1</ele>
      </trkpt>
      <trkpt lat="32.72107" lon="-16.92264">
        <ele>1510.16</ele>
      </trkpt>
      <trkpt lat="32.7209" lon="-16.92272">
        <ele>1505.73</ele>
      </trkpt>
      <trkpt lat="32.72073" lon="-16.9228">
        <ele>1502.51</ele>
      </trkpt>
      <trkpt lat="32.7206" lon="-16.92271">
        <ele>1501.17</ele>
      </trkpt>
      <trkpt lat="32.72035" lon="-16.92211">
        <ele>1503.32</ele>
      </trkpt>
      <trkpt lat="32.72008" lon="-16.9219">
        <ele>1501.48</ele>
      </trkpt>
      <trkpt lat="32.71994" lon="-16.92189">
        <ele>1498.51</ele>
      </trkpt>
      <trkpt lat="32.71972" lon="-16.92179">
        <ele>1492.72</ele>
      </trkpt>
      <trkpt lat="32.71943" lon="-16.92149">
        <ele>1488.23</ele>
      </trkpt>
      <trkpt lat="32.71934" lon="-16.92133">
        <ele>1489.74</ele>
      </trkpt>
      <trkpt lat="32.71933" lon="-16.92114">
        <ele>1492.0</ele>
      </trkpt>
      <trkpt lat="32.71933" lon="-16.92114">
        <ele>1492.0</ele>
      </trkpt>
      <trkpt lat="32.71933" lon="-16.92114">
        <ele>1492.0</ele>
      </trkpt>
      <trkpt lat="32.71929" lon="-16.92063">
        <ele>1478.08</ele>
      </trkpt>
      <trkpt lat="32.7194" lon="-16.91995">
        <ele>1462.3</ele>
      </trkpt>
      <trkpt lat="32.71884" lon="-16.91985">
        <ele>1454.56</ele>
      </trkpt>
      <trkpt lat="32.71858" lon="-16.91965">
        <ele>1447.76</ele>
      </trkpt>
      <trkpt lat="32.71822" lon="-16.91911">
        <ele>1432.73</ele>
      </trkpt>
      <trkpt lat="32.71793" lon="-16.91868">
        <ele>1426.82</ele>
      </trkpt>
      <trkpt lat="32.71725" lon="-16.91816">
        <ele>1389.57</ele>
      </trkpt>
      <trkpt lat="32.71651" lon="-16.91774">
        <ele>1379.6</ele>
      </trkpt>
      <trkpt lat="32.71635" lon="-16.91766">
        <ele>1375.63</ele>
      </trkpt>
      <trkpt lat="32.71608" lon="-16.91739">
        <ele>1371.29</ele>
      </trkpt>
      <trkpt lat="32.71592" lon="-16.91722">
        <ele>1368.53</ele>
      </trkpt>
      <trkpt lat="32.71569" lon="-16.91696">
        <ele>1362.21</ele>
      </trkpt>
      <trkpt lat="32.71536" lon="-16.91685">
        <ele>1347.81</ele>
      </trkpt>
      <trkpt lat="32.71524" lon="-16.91623">
        <ele>1351.01</ele>
      </trkpt>
      <trkpt lat="32.71528" lon="-16.91603">
        <ele>1360.34</ele>
      </trkpt>
      <trkpt lat="32.71517" lon="-16.91601">
        <ele>1359.47</ele>
      </trkpt>
      <trkpt lat="32.71517" lon="-16.91601">
        <ele>1359.47</ele>
      </trkpt>
      <trkpt lat="32.71517" lon="-16.91601">
        <ele>1359.47</ele>
      </trkpt>
      <trkpt lat="32.71466" lon="-16.91588">
        <ele>1352.83</ele>
      </trkpt>
      <trkpt lat="32.71456" lon="-16.91564">
        <ele>1359.17</ele>
      </trkpt>
      <trkpt lat="32.71447" lon="-16.91546">
        <ele>1364.08</ele>
      </trkpt>
      <trkpt lat="32.71443" lon="-16.91548">
        <ele>1362.32</ele>
      </trkpt>
      <trkpt lat="32.71412" lon="-16.91576">
        <ele>1344.09</ele>
      </trkpt>
      <trkpt lat="32.71343" lon="-16.91582">
        <ele>1348.71</ele>
      </trkpt>
      <trkpt lat="32.71328" lon="-16.91585">
        <ele>1348.32</ele>
      </trkpt>
      <trkpt lat="32.71322" lon="-16.91586">
        <ele>1349.14</ele>
      </trkpt>
      <trkpt lat="32.71299" lon="-16.91592">
        <ele>1352.7</ele>
      </trkpt>
      <trkpt lat="32.71292" lon="-16.91593">
        <ele>1355.16</ele>
      </trkpt>
      <trkpt lat="32.71273" lon="-16.91597">
        <ele>1360.66</ele>
      </trkpt>
      <trkpt lat="32.71263" lon="-16.916">
        <ele>1362.28</ele>
      </trkpt>
      <trkpt lat="32.71235" lon="-16.91638">
        <ele>1347.26</ele>
      </trkpt>
      <trkpt lat="32.71186" lon="-16.91649">
        <ele>1362.64</ele>
      </trkpt>
      <trkpt lat="32.71175" lon="-16.91699">
        <ele>1343.76</ele>
      </trkpt>
      <trkpt lat="32.71162" lon="-16.91753">
        <ele>1318.5</ele>
      </trkpt>
      <trkpt lat="32.71153" lon="-16.91752">
        <ele>1323.94</ele>
      </trkpt>
      <trkpt lat="32.71133" lon="-16.91749">
        <ele>1335.13</ele>
      </trkpt>
      <trkpt lat="32.71112" lon="-16.91766">
        <ele>1324.43</ele>
      </trkpt>
      <trkpt lat="32.71094" lon="-16.91782">
        <ele>1308.17</ele>
      </trkpt>
      <trkpt lat="32.71043" lon="-16.91734">
        <ele>1332.07</ele>
      </trkpt>
      <trkpt lat="32.71034" lon="-16.91732">
        <ele>1330.88</ele>
      </trkpt>
      <trkpt lat="32.70987" lon="-16.91722">
        <ele>1330.95</ele>
      </trkpt>
      <trkpt lat="32.70979" lon="-16.9172">
        <ele>1328.73</ele>
      </trkpt>
      <trkpt lat="32.70979" lon="-16.9172">
        <ele>1328.73</ele>
      </trkpt>
      <trkpt lat="32.70979" lon="-16.9172">
        <ele>1328.73</ele>
      </trkpt>
      <trkpt lat="32.7097" lon="-16.91718">
        <ele>1327.23</ele>
      </trkpt>
      <trkpt lat="32.70958" lon="-16.91719">
        <ele>1327.35</ele>
      </trkpt>
      <trkpt lat="32.70937" lon="-16.91714">
        <ele>1330.0</ele>
      </trkpt>
      <trkpt lat="32.70924" lon="-16.91721">
        <ele>1326.28</ele>
      </trkpt>
      <trkpt lat="32.7092" lon="-16.91726">
        <ele>1322.35</ele>
      </trkpt>
      <trkpt lat="32.70893" lon="-16.91745">
        <ele>1308.65</ele>
      </trkpt>
      <trkpt lat="32.70881" lon="-16.91764">
        <ele>1296.62</ele>
      </trkpt>
      <trkpt lat="32.70875" lon="-16.91776">
        <ele>1287.97</ele>
      </trkpt>
      <trkpt lat="32.70868" lon="-16.91777">
        <ele>1286.99</ele>
      </trkpt>
      <trkpt lat="32.70828" lon="-16.91769">
        <ele>1304.95</ele>
      </trkpt>
      <trkpt lat="32.70816" lon="-16.91764">
        <ele>1310.01</ele>
      </trkpt>
      <trkpt lat="32.70785" lon="-16.91768">
        <ele>1300.86</ele>
      </trkpt>
      <trkpt lat="32.70772" lon="-16.91765">
        <ele>1299.77</ele>
      </trkpt>
      <trkpt lat="32.70761" lon="-16.91766">
        <ele>1297.39</ele>
      </trkpt>
      <trkpt lat="32.70741" lon="-16.91778">
        <ele>1290.57</ele>
      </trkpt>
      <trkpt lat="32.70729" lon="-16.91783">
        <ele>1284.19</ele>
      </trkpt>
      <trkpt lat="32.70699" lon="-16.91783">
        <ele>1271.12</ele>
      </trkpt>
      <trkpt lat="32.70687" lon="-16.91782">
        <ele>1267.63</ele>
      </trkpt>
      <trkpt lat="32.7068" lon="-16.91777">
        <ele>1269.19</ele>
      </trkpt>
      <trkpt lat="32.70669" lon="-16.91761">
        <ele>1272.97</ele>
      </trkpt>
      <trkpt lat="32.70661" lon="-16.91755">
        <ele>1273.37</ele>
      </trkpt>
      <trkpt lat="32.70651" lon="-16.91734">
        <ele>1273.73</ele>
      </trkpt>
      <trkpt lat="32.7063" lon="-16.91736">
        <ele>1267.46</ele>
      </trkpt>
      <trkpt lat="32.7062" lon="-16.91734">
        <ele>1264.97</ele>
      </trkpt>
      <trkpt lat="32.70605" lon="-16.91725">
        <ele>1262.51</ele>
      </trkpt>
      <trkpt lat="32.70595" lon="-16.91711">
        <ele>1263.89</ele>
      </trkpt>
      <trkpt lat="32.70591" lon="-16.91701">
        <ele>1266.22</ele>
      </trkpt>
      <trkpt lat="32.70581" lon="-16.91691">
        <ele>1268.25</ele>
      </trkpt>
      <trkpt lat="32.70574" lon="-16.91688">
        <ele>1268.8</ele>
      </trkpt>
      <trkpt lat="32.70566" lon="-16.9169">
        <ele>1266.56</ele>
      </trkpt>
      <trkpt lat="32.70554" lon="-16.91695">
        <ele>1262.0</ele>
      </trkpt>
      <trkpt lat="32.70516" lon="-16.91701">
        <ele>1259.09</ele>
      </trkpt>
      <trkpt lat="32.7051" lon="-16.91701">
        <ele>1257.89</ele>
      </trkpt>
      <trkpt lat="32.70507" lon="-16.91699">
        <ele>1258.04</ele>
      </trkpt>
      <trkpt lat="32.70502" lon="-16.91692">
        <ele>1259.64</ele>
      </trkpt>
      <trkpt lat="32.70499" lon="-16.91681">
        <ele>1263.89</ele>
      </trkpt>
      <trkpt lat="32.70495" lon="-16.91672">
        <ele>1266.63</ele>
      </trkpt>
      <trkpt lat="32.70487" lon="-16.91666">
        <ele>1266.57</ele>
      </trkpt>
      <trkpt lat="32.70468" lon="-16.9166">
        <ele>1261.3</ele>
      </trkpt>
      <trkpt lat="32.70416" lon="-16.91665">
        <ele>1226.0</ele>
      </trkpt>
      <trkpt lat="32.70416" lon="-16.91665">
        <ele>1226.0</ele>
      </trkpt>
      <trkpt lat="32.70416" lon="-16.91665">
        <ele>1226.0</ele>
      </trkpt>
      <trkpt lat="32.704" lon="-16.9166">
        <ele>1226.8</ele>
      </trkpt>
      <trkpt lat="32.70385" lon="-16.91647">
        <ele>1231.04</ele>
      </trkpt>
      <trkpt lat="32.70378" lon="-16.91638">
        <ele>1235.66</ele>
      </trkpt>
      <trkpt lat="32.7037" lon="-16.91633">
        <ele>1239.31</ele>
      </trkpt>
      <trkpt lat="32.70365" lon="-16.91631">
        <ele>1240.72</ele>
      </trkpt>
      <trkpt lat="32.70361" lon="-16.91633">
        <ele>1239.25</ele>
      </trkpt>
      <trkpt lat="32.70357" lon="-16.91639">
        <ele>1235.38</ele>
      </trkpt>
      <trkpt lat="32.70351" lon="-16.91645">
        <ele>1232.51</ele>
      </trkpt>
      <trkpt lat="32.70337" lon="-16.91655">
        <ele>1228.75</ele>
      </trkpt>
      <trkpt lat="32.70332" lon="-16.91665">
        <ele>1224.06</ele>
      </trkpt>
      <trkpt lat="32.7033" lon="-16.91681">
        <ele>1215.93</ele>
      </trkpt>
      <trkpt lat="32.70329" lon="-16.91684">
        <ele>1214.59</ele>
      </trkpt>
      <trkpt lat="32.7032" lon="-16.91689">
        <ele>1214.31</ele>
      </trkpt>
      <trkpt lat="32.70311" lon="-16.91697">
        <ele>1212.98</ele>
      </trkpt>
      <trkpt lat="32.70304" lon="-16.91706">
        <ele>1209.53</ele>
      </trkpt>
      <trkpt lat="32.70299" lon="-16.91709">
        <ele>1208.46</ele>
      </trkpt>
      <trkpt lat="32.70299" lon="-16.91709">
        <ele>1208.46</ele>
      </trkpt>
      <trkpt lat="32.70299" lon="-16.91709">
        <ele>1208.46</ele>
      </trkpt>
      <trkpt lat="32.70296" lon="-16.9171">
        <ele>1208.31</ele>
      </trkpt>
      <trkpt lat="32.70288" lon="-16.91709">
        <ele>1209.87</ele>
      </trkpt>
      <trkpt lat="32.7027" lon="-16.91699">
        <ele>1214.7</ele>
      </trkpt>
      <trkpt lat="32.70257" lon="-16.91694">
        <ele>1214.49</ele>
      </trkpt>
      <trkpt lat="32.70241" lon="-16.91695">
        <ele>1211.16</ele>
      </trkpt>
      <trkpt lat="32.70231" lon="-16.91692">
        <ele>1210.63</ele>
      </trkpt>
      <trkpt lat="32.70221" lon="-16.91694">
        <ele>1207.91</ele>
      </trkpt>
      <trkpt lat="32.7021" lon="-16.91698">
        <ele>1202.94</ele>
      </trkpt>
      <trkpt lat="32.70201" lon="-16.917">
        <ele>1199.51</ele>
      </trkpt>
      <trkpt lat="32.70185" lon="-16.91693">
        <ele>1196.81</ele>
      </trkpt>
      <trkpt lat="32.70175" lon="-16.91684">
        <ele>1193.66</ele>
      </trkpt>
      <trkpt lat="32.7017" lon="-16.91674">
        <ele>1194.57</ele>
      </trkpt>
      <trkpt lat="32.70158" lon="-16.91661">
        <ele>1194.87</ele>
      </trkpt>
      <trkpt lat="32.70152" lon="-16.91652">
        <ele>1196.06</ele>
      </trkpt>
      <trkpt lat="32.70152" lon="-16.91642">
        <ele>1199.34</ele>
      </trkpt>
      <trkpt lat="32.70156" lon="-16.91636">
        <ele>1202.2</ele>
      </trkpt>
      <trkpt lat="32.70156" lon="-16.9163">
        <ele>1204.53</ele>
      </trkpt>
      <trkpt lat="32.70152" lon="-16.91624">
        <ele>1206.29</ele>
      </trkpt>
      <trkpt lat="32.70143" lon="-16.91621">
        <ele>1206.28</ele>
      </trkpt>
      <trkpt lat="32.70132" lon="-16.91616">
        <ele>1203.82</ele>
      </trkpt>
      <trkpt lat="32.70121" lon="-16.91606">
        <ele>1200.08</ele>
      </trkpt>
      <trkpt lat="32.70107" lon="-16.91603">
        <ele>1193.56</ele>
      </trkpt>
      <trkpt lat="32.70093" lon="-16.91598">
        <ele>1188.63</ele>
      </trkpt>
      <trkpt lat="32.70081" lon="-16.91598">
        <ele>1182.93</ele>
      </trkpt>
      <trkpt lat="32.70058" lon="-16.91603">
        <ele>1174.78</ele>
      </trkpt>
      <trkpt lat="32.70047" lon="-16.91605">
        <ele>1170.41</ele>
      </trkpt>
      <trkpt lat="32.70032" lon="-16.91605">
        <ele>1165.13</ele>
      </trkpt>
      <trkpt lat="32.70016" lon="-16.91602">
        <ele>1163.52</ele>
      </trkpt>
      <trkpt lat="32.70007" lon="-16.91597">
        <ele>1164.47</ele>
      </trkpt>
      <trkpt lat="32.7" lon="-16.9159">
        <ele>1166.36</ele>
      </trkpt>
      <trkpt lat="32.69993" lon="-16.91587">
        <ele>1166.24</ele>
      </trkpt>
      <trkpt lat="32.69976" lon="-16.91588">
        <ele>1162.39</ele>
      </trkpt>
      <trkpt lat="32.69965" lon="-16.91585">
        <ele>1159.66</ele>
      </trkpt>
      <trkpt lat="32.69952" lon="-16.91573">
        <ele>1159.24</ele>
      </trkpt>
      <trkpt lat="32.69935" lon="-16.91554">
        <ele>1161.27</ele>
      </trkpt>
      <trkpt lat="32.69924" lon="-16.91549">
        <ele>1155.97</ele>
      </trkpt>
      <trkpt lat="32.69907" lon="-16.91546">
        <ele>1146.75</ele>
      </trkpt>
      <trkpt lat="32.69897" lon="-16.9154">
        <ele>1142.73</ele>
      </trkpt>
      <trkpt lat="32.6987" lon="-16.91508">
        <ele>1130.73</ele>
      </trkpt>
      <trkpt lat="32.69861" lon="-16.91489">
        <ele>1125.75</ele>
      </trkpt>
      <trkpt lat="32.69858" lon="-16.9147">
        <ele>1125.77</ele>
      </trkpt>
      <trkpt lat="32.69857" lon="-16.91451">
        <ele>1122.53</ele>
      </trkpt>
      <trkpt lat="32.69848" lon="-16.91429">
        <ele>1116.29</ele>
      </trkpt>
      <trkpt lat="32.69845" lon="-16.91417">
        <ele>1113.98</ele>
      </trkpt>
      <trkpt lat="32.69841" lon="-16.91406">
        <ele>1112.02</ele>
      </trkpt>
      <trkpt lat="32.69836" lon="-16.91387">
        <ele>1109.91</ele>
      </trkpt>
      <trkpt lat="32.69831" lon="-16.91373">
        <ele>1107.05</ele>
      </trkpt>
      <trkpt lat="32.69821" lon="-16.91358">
        <ele>1100.27</ele>
      </trkpt>
      <trkpt lat="32.69802" lon="-16.9134">
        <ele>1090.03</ele>
      </trkpt>
      <trkpt lat="32.69795" lon="-16.91335">
        <ele>1085.89</ele>
      </trkpt>
      <trkpt lat="32.69775" lon="-16.91325">
        <ele>1075.43</ele>
      </trkpt>
      <trkpt lat="32.69768" lon="-16.91319">
        <ele>1071.19</ele>
      </trkpt>
      <trkpt lat="32.6976" lon="-16.91312">
        <ele>1066.46</ele>
      </trkpt>
      <trkpt lat="32.69754" lon="-16.91308">
        <ele>1063.15</ele>
      </trkpt>
      <trkpt lat="32.69754" lon="-16.91308">
        <ele>1063.15</ele>
      </trkpt>
      <trkpt lat="32.69754" lon="-16.91308">
        <ele>1063.15</ele>
      </trkpt>
      <trkpt lat="32.69741" lon="-16.91296">
        <ele>1053.04</ele>
      </trkpt>
      <trkpt lat="32.6973" lon="-16.91289">
        <ele>1043.1</ele>
      </trkpt>
      <trkpt lat="32.69718" lon="-16.91281">
        <ele>1033.71</ele>
      </trkpt>
      <trkpt lat="32.69712" lon="-16.91278">
        <ele>1031.47</ele>
      </trkpt>
      <trkpt lat="32.69701" lon="-16.91268">
        <ele>1027.58</ele>
      </trkpt>
      <trkpt lat="32.69686" lon="-16.91251">
        <ele>1020.76</ele>
      </trkpt>
      <trkpt lat="32.69673" lon="-16.91236">
        <ele>1014.3</ele>
      </trkpt>
      <trkpt lat="32.69662" lon="-16.91223">
        <ele>1010.78</ele>
      </trkpt>
      <trkpt lat="32.69627" lon="-16.91205">
        <ele>1002.57</ele>
      </trkpt>
      <trkpt lat="32.69612" lon="-16.91204">
        <ele>996.44</ele>
      </trkpt>
      <trkpt lat="32.69601" lon="-16.91198">
        <ele>992.42</ele>
      </trkpt>
      <trkpt lat="32.69576" lon="-16.91188">
        <ele>988.96</ele>
      </trkpt>
      <trkpt lat="32.69542" lon="-16.91184">
        <ele>983.93</ele>
      </trkpt>
      <trkpt lat="32.69498" lon="-16.91177">
        <ele>971.67</ele>
      </trkpt>
      <trkpt lat="32.69492" lon="-16.91152">
        <ele>970.67</ele>
      </trkpt>
      <trkpt lat="32.69531" lon="-16.91153">
        <ele>971.34</ele>
      </trkpt>
      <trkpt lat="32.6955" lon="-16.91153">
        <ele>973.14</ele>
      </trkpt>
      <trkpt lat="32.69532" lon="-16.91136">
        <ele>967.51</ele>
      </trkpt>
      <trkpt lat="32.6952" lon="-16.91123">
        <ele>965.85</ele>
      </trkpt>
      <trkpt lat="32.69505" lon="-16.91101">
        <ele>960.51</ele>
      </trkpt>
      <trkpt lat="32.69505" lon="-16.91101">
        <ele>960.51</ele>
      </trkpt>
      <trkpt lat="32.69505" lon="-16.91101">
        <ele>960.51</ele>
      </trkpt>
      <trkpt lat="32.69523" lon="-16.91111">
        <ele>963.15</ele>
      </trkpt>
      <trkpt lat="32.69539" lon="-16.91115">
        <ele>962.46</ele>
      </trkpt>
      <trkpt lat="32.69551" lon="-16.91115">
        <ele>960.98</ele>
      </trkpt>
      <trkpt lat="32.69556" lon="-16.91114">
        <ele>960.29</ele>
      </trkpt>
      <trkpt lat="32.69574" lon="-16.9111">
        <ele>958.91</ele>
      </trkpt>
      <trkpt lat="32.69582" lon="-16.91105">
        <ele>959.6</ele>
      </trkpt>
      <trkpt lat="32.69586" lon="-16.91096">
        <ele>962.65</ele>
      </trkpt>
      <trkpt lat="32.69586" lon="-16.91088">
        <ele>964.5</ele>
      </trkpt>
      <trkpt lat="32.69583" lon="-16.91081">
        <ele>965.82</ele>
      </trkpt>
      <trkpt lat="32.69568" lon="-16.91058">
        <ele>971.55</ele>
      </trkpt>
      <trkpt lat="32.6955" lon="-16.9102">
        <ele>968.95</ele>
      </trkpt>
      <trkpt lat="32.69542" lon="-16.90997">
        <ele>968.99</ele>
      </trkpt>
      <trkpt lat="32.6954" lon="-16.9099">
        <ele>968.16</ele>
      </trkpt>
      <trkpt lat="32.69538" lon="-16.90963">
        <ele>966.89</ele>
      </trkpt>
      <trkpt lat="32.6953" lon="-16.90936">
        <ele>962.85</ele>
      </trkpt>
    </trkseg>
  </trk>
</gpx>
