<?xml version="1.0"?>
<gpx xmlns="http://www.topografix.com/GPX/1/1" xmlns:xsi="http://www.w3.org/2001/XMLSchema-instance" version="1.1" creator="AllTrails.com" xsi:schemaLocation="http://www.topografix.com/GPX/1/1 http://www.topografix.com/GPX/1/1/gpx.xsd">
  <metadata>
    <name><![CDATA[pr5-vereda-das-funduras]]></name>
    <desc><![CDATA[]]></desc>
    <link href="http://www.alltrails.com">
      <text>AllTrails, LLC</text>
    </link>
    <bounds minlat="32.73752" minlon="-16.825743" maxlat="32.75595" maxlon="-16.79346"/>
  </metadata>
  <trk>
    <name><![CDATA[pr5-vereda-das-funduras]]></name>
    <src>AllTrails</src>
    <trkseg>
      <trkpt lat="32.74716" lon="-16.82574">
        <ele>595.34</ele>
      </trkpt>
      <trkpt lat="32.74717" lon="-16.82574">
        <ele>595.34</ele>
      </trkpt>
      <trkpt lat="32.74723" lon="-16.82571">
        <ele>595.38</ele>
      </trkpt>
      <trkpt lat="32.74729" lon="-16.82565">
        <ele>593.22</ele>
      </trkpt>
      <trkpt lat="32.74748" lon="-16.82546">
        <ele>585.55</ele>
      </trkpt>
      <trkpt lat="32.74756" lon="-16.82535">
        <ele>585.26</ele>
      </trkpt>
      <trkpt lat="32.74758" lon="-16.82526">
        <ele>585.93</ele>
      </trkpt>
      <trkpt lat="32.74757" lon="-16.82521">
        <ele>585.81</ele>
      </trkpt>
      <trkpt lat="32.74755" lon="-16.82515">
        <ele>585.88</ele>
      </trkpt>
      <trkpt lat="32.74751" lon="-16.82508">
        <ele>586.53</ele>
      </trkpt>
      <trkpt lat="32.74735" lon="-16.82478">
        <ele>592.25</ele>
      </trkpt>
      <trkpt lat="32.74726" lon="-16.82457">
        <ele>596.11</ele>
      </trkpt>
      <trkpt lat="32.74723" lon="-16.82445">
        <ele>598.92</ele>
      </trkpt>
      <trkpt lat="32.74717" lon="-16.82437">
        <ele>602.17</ele>
      </trkpt>
      <trkpt lat="32.74717" lon="-16.82437">
        <ele>602.17</ele>
      </trkpt>
      <trkpt lat="32.74717" lon="-16.82437">
        <ele>602.17</ele>
      </trkpt>
      <trkpt lat="32.7472" lon="-16.82429">
        <ele>603.84</ele>
      </trkpt>
      <trkpt lat="32.74723" lon="-16.82425">
        <ele>604.62</ele>
      </trkpt>
      <trkpt lat="32.74728" lon="-16.82419">
        <ele>606.36</ele>
      </trkpt>
      <trkpt lat="32.74739" lon="-16.82407">
        <ele>607.2</ele>
      </trkpt>
      <trkpt lat="32.74741" lon="-16.82397">
        <ele>606.94</ele>
      </trkpt>
      <trkpt lat="32.74724" lon="-16.82382">
        <ele>614.41</ele>
      </trkpt>
      <trkpt lat="32.74722" lon="-16.82375">
        <ele>617.02</ele>
      </trkpt>
      <trkpt lat="32.74722" lon="-16.82362">
        <ele>620.75</ele>
      </trkpt>
      <trkpt lat="32.74729" lon="-16.82316">
        <ele>621.45</ele>
      </trkpt>
      <trkpt lat="32.74727" lon="-16.82308">
        <ele>620.24</ele>
      </trkpt>
      <trkpt lat="32.74724" lon="-16.82302">
        <ele>620.18</ele>
      </trkpt>
      <trkpt lat="32.74719" lon="-16.82298">
        <ele>621.27</ele>
      </trkpt>
      <trkpt lat="32.74712" lon="-16.82293">
        <ele>622.53</ele>
      </trkpt>
      <trkpt lat="32.747" lon="-16.82292">
        <ele>623.9</ele>
      </trkpt>
      <trkpt lat="32.74681" lon="-16.82287">
        <ele>623.69</ele>
      </trkpt>
      <trkpt lat="32.74662" lon="-16.82259">
        <ele>625.21</ele>
      </trkpt>
      <trkpt lat="32.74651" lon="-16.82253">
        <ele>627.71</ele>
      </trkpt>
      <trkpt lat="32.74633" lon="-16.82241">
        <ele>631.05</ele>
      </trkpt>
      <trkpt lat="32.74627" lon="-16.82232">
        <ele>631.67</ele>
      </trkpt>
      <trkpt lat="32.74616" lon="-16.82205">
        <ele>633.07</ele>
      </trkpt>
      <trkpt lat="32.74594" lon="-16.82172">
        <ele>628.7</ele>
      </trkpt>
      <trkpt lat="32.74588" lon="-16.82158">
        <ele>628.32</ele>
      </trkpt>
      <trkpt lat="32.74589" lon="-16.82134">
        <ele>624.22</ele>
      </trkpt>
      <trkpt lat="32.74588" lon="-16.82124">
        <ele>621.12</ele>
      </trkpt>
      <trkpt lat="32.74585" lon="-16.82116">
        <ele>619.33</ele>
      </trkpt>
      <trkpt lat="32.74581" lon="-16.8211">
        <ele>618.73</ele>
      </trkpt>
      <trkpt lat="32.74573" lon="-16.82105">
        <ele>620.46</ele>
      </trkpt>
      <trkpt lat="32.74558" lon="-16.82097">
        <ele>621.47</ele>
      </trkpt>
      <trkpt lat="32.74549" lon="-16.82087">
        <ele>619.19</ele>
      </trkpt>
      <trkpt lat="32.74533" lon="-16.82062">
        <ele>620.86</ele>
      </trkpt>
      <trkpt lat="32.74517" lon="-16.82018">
        <ele>626.09</ele>
      </trkpt>
      <trkpt lat="32.74512" lon="-16.82009">
        <ele>627.58</ele>
      </trkpt>
      <trkpt lat="32.7449" lon="-16.81989">
        <ele>628.97</ele>
      </trkpt>
      <trkpt lat="32.74486" lon="-16.81984">
        <ele>628.13</ele>
      </trkpt>
      <trkpt lat="32.74483" lon="-16.81974">
        <ele>626.0</ele>
      </trkpt>
      <trkpt lat="32.7448" lon="-16.81947">
        <ele>619.4</ele>
      </trkpt>
      <trkpt lat="32.74468" lon="-16.81921">
        <ele>617.71</ele>
      </trkpt>
      <trkpt lat="32.74464" lon="-16.81905">
        <ele>615.41</ele>
      </trkpt>
      <trkpt lat="32.74465" lon="-16.81895">
        <ele>613.58</ele>
      </trkpt>
      <trkpt lat="32.74475" lon="-16.81877">
        <ele>608.97</ele>
      </trkpt>
      <trkpt lat="32.74476" lon="-16.81869">
        <ele>608.48</ele>
      </trkpt>
      <trkpt lat="32.74473" lon="-16.81846">
        <ele>612.87</ele>
      </trkpt>
      <trkpt lat="32.74473" lon="-16.81837">
        <ele>614.77</ele>
      </trkpt>
      <trkpt lat="32.74477" lon="-16.81825">
        <ele>616.41</ele>
      </trkpt>
      <trkpt lat="32.74484" lon="-16.81812">
        <ele>619.06</ele>
      </trkpt>
      <trkpt lat="32.74492" lon="-16.81802">
        <ele>621.3</ele>
      </trkpt>
      <trkpt lat="32.74506" lon="-16.81794">
        <ele>619.3</ele>
      </trkpt>
      <trkpt lat="32.74518" lon="-16.81791">
        <ele>614.45</ele>
      </trkpt>
      <trkpt lat="32.74539" lon="-16.8179">
        <ele>606.78</ele>
      </trkpt>
      <trkpt lat="32.74553" lon="-16.81795">
        <ele>600.96</ele>
      </trkpt>
      <trkpt lat="32.74565" lon="-16.81795">
        <ele>598.09</ele>
      </trkpt>
      <trkpt lat="32.74571" lon="-16.81793">
        <ele>597.44</ele>
      </trkpt>
      <trkpt lat="32.74576" lon="-16.81788">
        <ele>597.88</ele>
      </trkpt>
      <trkpt lat="32.74577" lon="-16.81785">
        <ele>598.57</ele>
      </trkpt>
      <trkpt lat="32.74589" lon="-16.81758">
        <ele>595.57</ele>
      </trkpt>
      <trkpt lat="32.74573" lon="-16.81739">
        <ele>600.35</ele>
      </trkpt>
      <trkpt lat="32.74548" lon="-16.81732">
        <ele>612.91</ele>
      </trkpt>
      <trkpt lat="32.7452" lon="-16.817">
        <ele>620.7</ele>
      </trkpt>
      <trkpt lat="32.74518" lon="-16.81693">
        <ele>620.64</ele>
      </trkpt>
      <trkpt lat="32.74517" lon="-16.81671">
        <ele>617.43</ele>
      </trkpt>
      <trkpt lat="32.74513" lon="-16.81658">
        <ele>615.69</ele>
      </trkpt>
      <trkpt lat="32.74512" lon="-16.81646">
        <ele>613.09</ele>
      </trkpt>
      <trkpt lat="32.74515" lon="-16.81637">
        <ele>610.69</ele>
      </trkpt>
      <trkpt lat="32.74517" lon="-16.81622">
        <ele>609.72</ele>
      </trkpt>
      <trkpt lat="32.74519" lon="-16.81615">
        <ele>609.04</ele>
      </trkpt>
      <trkpt lat="32.74555" lon="-16.81587">
        <ele>599.55</ele>
      </trkpt>
      <trkpt lat="32.74574" lon="-16.81562">
        <ele>594.43</ele>
      </trkpt>
      <trkpt lat="32.74579" lon="-16.81558">
        <ele>594.19</ele>
      </trkpt>
      <trkpt lat="32.74589" lon="-16.81553">
        <ele>592.3</ele>
      </trkpt>
      <trkpt lat="32.746" lon="-16.81555">
        <ele>585.33</ele>
      </trkpt>
      <trkpt lat="32.74623" lon="-16.81576">
        <ele>575.76</ele>
      </trkpt>
      <trkpt lat="32.74636" lon="-16.81586">
        <ele>575.25</ele>
      </trkpt>
      <trkpt lat="32.74653" lon="-16.81581">
        <ele>570.2</ele>
      </trkpt>
      <trkpt lat="32.74654" lon="-16.81579">
        <ele>570.47</ele>
      </trkpt>
      <trkpt lat="32.74654" lon="-16.81579">
        <ele>570.47</ele>
      </trkpt>
      <trkpt lat="32.74654" lon="-16.81579">
        <ele>570.47</ele>
      </trkpt>
      <trkpt lat="32.74656" lon="-16.81572">
        <ele>572.29</ele>
      </trkpt>
      <trkpt lat="32.74657" lon="-16.81566">
        <ele>574.31</ele>
      </trkpt>
      <trkpt lat="32.74657" lon="-16.81558">
        <ele>577.44</ele>
      </trkpt>
      <trkpt lat="32.74655" lon="-16.81552">
        <ele>579.8</ele>
      </trkpt>
      <trkpt lat="32.74637" lon="-16.81524">
        <ele>590.14</ele>
      </trkpt>
      <trkpt lat="32.74631" lon="-16.81506">
        <ele>600.07</ele>
      </trkpt>
      <trkpt lat="32.74632" lon="-16.81496">
        <ele>603.56</ele>
      </trkpt>
      <trkpt lat="32.74636" lon="-16.81489">
        <ele>603.96</ele>
      </trkpt>
      <trkpt lat="32.74647" lon="-16.81478">
        <ele>604.14</ele>
      </trkpt>
      <trkpt lat="32.74666" lon="-16.81455">
        <ele>604.98</ele>
      </trkpt>
      <trkpt lat="32.74676" lon="-16.81446">
        <ele>605.88</ele>
      </trkpt>
      <trkpt lat="32.74679" lon="-16.81444">
        <ele>606.17</ele>
      </trkpt>
      <trkpt lat="32.74689" lon="-16.81442">
        <ele>605.8</ele>
      </trkpt>
      <trkpt lat="32.74703" lon="-16.81443">
        <ele>602.52</ele>
      </trkpt>
      <trkpt lat="32.74716" lon="-16.81445">
        <ele>597.67</ele>
      </trkpt>
      <trkpt lat="32.74757" lon="-16.81462">
        <ele>566.11</ele>
      </trkpt>
      <trkpt lat="32.74765" lon="-16.81464">
        <ele>565.34</ele>
      </trkpt>
      <trkpt lat="32.74773" lon="-16.81463">
        <ele>566.14</ele>
      </trkpt>
      <trkpt lat="32.74776" lon="-16.81456">
        <ele>569.58</ele>
      </trkpt>
      <trkpt lat="32.74778" lon="-16.81436">
        <ele>578.32</ele>
      </trkpt>
      <trkpt lat="32.74788" lon="-16.81419">
        <ele>583.63</ele>
      </trkpt>
      <trkpt lat="32.7481" lon="-16.81399">
        <ele>587.72</ele>
      </trkpt>
      <trkpt lat="32.74816" lon="-16.81396">
        <ele>588.7</ele>
      </trkpt>
      <trkpt lat="32.74816" lon="-16.81396">
        <ele>588.7</ele>
      </trkpt>
      <trkpt lat="32.74816" lon="-16.81396">
        <ele>588.7</ele>
      </trkpt>
      <trkpt lat="32.74831" lon="-16.81388">
        <ele>591.37</ele>
      </trkpt>
      <trkpt lat="32.74861" lon="-16.81386">
        <ele>582.97</ele>
      </trkpt>
      <trkpt lat="32.74868" lon="-16.81379">
        <ele>583.66</ele>
      </trkpt>
      <trkpt lat="32.74876" lon="-16.81352">
        <ele>591.01</ele>
      </trkpt>
      <trkpt lat="32.74886" lon="-16.81327">
        <ele>592.34</ele>
      </trkpt>
      <trkpt lat="32.74891" lon="-16.81291">
        <ele>592.08</ele>
      </trkpt>
      <trkpt lat="32.74893" lon="-16.81263">
        <ele>593.95</ele>
      </trkpt>
      <trkpt lat="32.74898" lon="-16.81235">
        <ele>592.83</ele>
      </trkpt>
      <trkpt lat="32.74918" lon="-16.81175">
        <ele>589.65</ele>
      </trkpt>
      <trkpt lat="32.74937" lon="-16.81132">
        <ele>587.25</ele>
      </trkpt>
      <trkpt lat="32.74934" lon="-16.81122">
        <ele>588.53</ele>
      </trkpt>
      <trkpt lat="32.74933" lon="-16.81108">
        <ele>590.44</ele>
      </trkpt>
      <trkpt lat="32.74935" lon="-16.81089">
        <ele>592.42</ele>
      </trkpt>
      <trkpt lat="32.74945" lon="-16.81052">
        <ele>595.73</ele>
      </trkpt>
      <trkpt lat="32.74949" lon="-16.81043">
        <ele>595.15</ele>
      </trkpt>
      <trkpt lat="32.74975" lon="-16.81017">
        <ele>597.46</ele>
      </trkpt>
      <trkpt lat="32.74991" lon="-16.81005">
        <ele>601.39</ele>
      </trkpt>
      <trkpt lat="32.74999" lon="-16.80996">
        <ele>602.38</ele>
      </trkpt>
      <trkpt lat="32.75006" lon="-16.80984">
        <ele>600.96</ele>
      </trkpt>
      <trkpt lat="32.75016" lon="-16.8097">
        <ele>598.89</ele>
      </trkpt>
      <trkpt lat="32.75023" lon="-16.80971">
        <ele>598.92</ele>
      </trkpt>
      <trkpt lat="32.7503" lon="-16.80981">
        <ele>599.04</ele>
      </trkpt>
      <trkpt lat="32.75043" lon="-16.81002">
        <ele>599.37</ele>
      </trkpt>
      <trkpt lat="32.75053" lon="-16.81007">
        <ele>599.77</ele>
      </trkpt>
      <trkpt lat="32.75063" lon="-16.81009">
        <ele>601.83</ele>
      </trkpt>
      <trkpt lat="32.7507" lon="-16.8101">
        <ele>603.8</ele>
      </trkpt>
      <trkpt lat="32.75087" lon="-16.81008">
        <ele>606.77</ele>
      </trkpt>
      <trkpt lat="32.75105" lon="-16.80995">
        <ele>609.02</ele>
      </trkpt>
      <trkpt lat="32.75147" lon="-16.80965">
        <ele>599.5</ele>
      </trkpt>
      <trkpt lat="32.75157" lon="-16.80955">
        <ele>595.32</ele>
      </trkpt>
      <trkpt lat="32.75164" lon="-16.80941">
        <ele>592.64</ele>
      </trkpt>
      <trkpt lat="32.7518" lon="-16.80899">
        <ele>588.59</ele>
      </trkpt>
      <trkpt lat="32.75187" lon="-16.80884">
        <ele>590.0</ele>
      </trkpt>
      <trkpt lat="32.75195" lon="-16.80868">
        <ele>593.49</ele>
      </trkpt>
      <trkpt lat="32.75244" lon="-16.80844">
        <ele>599.5</ele>
      </trkpt>
      <trkpt lat="32.75251" lon="-16.80838">
        <ele>598.89</ele>
      </trkpt>
      <trkpt lat="32.75256" lon="-16.8083">
        <ele>599.04</ele>
      </trkpt>
      <trkpt lat="32.75269" lon="-16.80761">
        <ele>612.46</ele>
      </trkpt>
      <trkpt lat="32.75283" lon="-16.80721">
        <ele>617.88</ele>
      </trkpt>
      <trkpt lat="32.75287" lon="-16.80698">
        <ele>609.75</ele>
      </trkpt>
      <trkpt lat="32.75279" lon="-16.80671">
        <ele>589.96</ele>
      </trkpt>
      <trkpt lat="32.75281" lon="-16.8066">
        <ele>588.18</ele>
      </trkpt>
      <trkpt lat="32.75301" lon="-16.80637">
        <ele>595.55</ele>
      </trkpt>
      <trkpt lat="32.75306" lon="-16.80625">
        <ele>595.36</ele>
      </trkpt>
      <trkpt lat="32.75306" lon="-16.80608">
        <ele>591.42</ele>
      </trkpt>
      <trkpt lat="32.75293" lon="-16.80571">
        <ele>576.76</ele>
      </trkpt>
      <trkpt lat="32.7529" lon="-16.80559">
        <ele>571.94</ele>
      </trkpt>
      <trkpt lat="32.75297" lon="-16.80554">
        <ele>572.84</ele>
      </trkpt>
      <trkpt lat="32.75315" lon="-16.80556">
        <ele>584.04</ele>
      </trkpt>
      <trkpt lat="32.75345" lon="-16.80547">
        <ele>599.14</ele>
      </trkpt>
      <trkpt lat="32.75351" lon="-16.80542">
        <ele>598.83</ele>
      </trkpt>
      <trkpt lat="32.75365" lon="-16.80522">
        <ele>597.47</ele>
      </trkpt>
      <trkpt lat="32.75374" lon="-16.80514">
        <ele>599.23</ele>
      </trkpt>
      <trkpt lat="32.75405" lon="-16.80507">
        <ele>610.4</ele>
      </trkpt>
      <trkpt lat="32.75427" lon="-16.80504">
        <ele>611.36</ele>
      </trkpt>
      <trkpt lat="32.75461" lon="-16.8051">
        <ele>610.73</ele>
      </trkpt>
      <trkpt lat="32.75478" lon="-16.8051">
        <ele>613.2</ele>
      </trkpt>
      <trkpt lat="32.75523" lon="-16.8049">
        <ele>616.59</ele>
      </trkpt>
      <trkpt lat="32.7553" lon="-16.80485">
        <ele>616.34</ele>
      </trkpt>
      <trkpt lat="32.75535" lon="-16.80477">
        <ele>614.28</ele>
      </trkpt>
      <trkpt lat="32.75543" lon="-16.8046">
        <ele>610.85</ele>
      </trkpt>
      <trkpt lat="32.75551" lon="-16.80439">
        <ele>608.14</ele>
      </trkpt>
      <trkpt lat="32.75553" lon="-16.80429">
        <ele>607.07</ele>
      </trkpt>
      <trkpt lat="32.75552" lon="-16.80416">
        <ele>604.76</ele>
      </trkpt>
      <trkpt lat="32.75548" lon="-16.80395">
        <ele>600.15</ele>
      </trkpt>
      <trkpt lat="32.75548" lon="-16.80395">
        <ele>600.15</ele>
      </trkpt>
      <trkpt lat="32.75547" lon="-16.80395">
        <ele>599.69</ele>
      </trkpt>
      <trkpt lat="32.75547" lon="-16.8039">
        <ele>598.87</ele>
      </trkpt>
      <trkpt lat="32.75546" lon="-16.80365">
        <ele>598.78</ele>
      </trkpt>
      <trkpt lat="32.75549" lon="-16.80354">
        <ele>595.5</ele>
      </trkpt>
      <trkpt lat="32.75558" lon="-16.80338">
        <ele>589.24</ele>
      </trkpt>
      <trkpt lat="32.75586" lon="-16.80301">
        <ele>592.73</ele>
      </trkpt>
      <trkpt lat="32.75592" lon="-16.8029">
        <ele>597.19</ele>
      </trkpt>
      <trkpt lat="32.75595" lon="-16.80277">
        <ele>600.72</ele>
      </trkpt>
      <trkpt lat="32.75594" lon="-16.80261">
        <ele>603.4</ele>
      </trkpt>
      <trkpt lat="32.7558" lon="-16.80234">
        <ele>600.75</ele>
      </trkpt>
      <trkpt lat="32.75579" lon="-16.80209">
        <ele>606.85</ele>
      </trkpt>
      <trkpt lat="32.75576" lon="-16.80203">
        <ele>607.29</ele>
      </trkpt>
      <trkpt lat="32.75573" lon="-16.80199">
        <ele>607.19</ele>
      </trkpt>
      <trkpt lat="32.75566" lon="-16.80196">
        <ele>605.4</ele>
      </trkpt>
      <trkpt lat="32.75535" lon="-16.8019">
        <ele>604.36</ele>
      </trkpt>
      <trkpt lat="32.75524" lon="-16.80191">
        <ele>604.64</ele>
      </trkpt>
      <trkpt lat="32.75488" lon="-16.80202">
        <ele>600.3</ele>
      </trkpt>
      <trkpt lat="32.75457" lon="-16.8021">
        <ele>593.12</ele>
      </trkpt>
      <trkpt lat="32.75431" lon="-16.80212">
        <ele>586.07</ele>
      </trkpt>
      <trkpt lat="32.75422" lon="-16.8021">
        <ele>584.06</ele>
      </trkpt>
      <trkpt lat="32.7541" lon="-16.80202">
        <ele>582.4</ele>
      </trkpt>
      <trkpt lat="32.75403" lon="-16.80193">
        <ele>582.81</ele>
      </trkpt>
      <trkpt lat="32.75399" lon="-16.80185">
        <ele>582.57</ele>
      </trkpt>
      <trkpt lat="32.75399" lon="-16.80175">
        <ele>583.95</ele>
      </trkpt>
      <trkpt lat="32.75404" lon="-16.80167">
        <ele>587.56</ele>
      </trkpt>
      <trkpt lat="32.7543" lon="-16.80141">
        <ele>603.46</ele>
      </trkpt>
      <trkpt lat="32.75448" lon="-16.80119">
        <ele>601.83</ele>
      </trkpt>
      <trkpt lat="32.75457" lon="-16.80114">
        <ele>602.61</ele>
      </trkpt>
      <trkpt lat="32.75461" lon="-16.80107">
        <ele>602.18</ele>
      </trkpt>
      <trkpt lat="32.75462" lon="-16.801">
        <ele>601.39</ele>
      </trkpt>
      <trkpt lat="32.7546" lon="-16.80092">
        <ele>599.87</ele>
      </trkpt>
      <trkpt lat="32.75448" lon="-16.80065">
        <ele>594.25</ele>
      </trkpt>
      <trkpt lat="32.75443" lon="-16.80058">
        <ele>592.22</ele>
      </trkpt>
      <trkpt lat="32.75427" lon="-16.80044">
        <ele>592.14</ele>
      </trkpt>
      <trkpt lat="32.75423" lon="-16.80038">
        <ele>592.85</ele>
      </trkpt>
      <trkpt lat="32.75422" lon="-16.8003">
        <ele>594.46</ele>
      </trkpt>
      <trkpt lat="32.75426" lon="-16.80022">
        <ele>594.57</ele>
      </trkpt>
      <trkpt lat="32.75432" lon="-16.80017">
        <ele>594.86</ele>
      </trkpt>
      <trkpt lat="32.75451" lon="-16.80012">
        <ele>597.37</ele>
      </trkpt>
      <trkpt lat="32.75467" lon="-16.80005">
        <ele>598.53</ele>
      </trkpt>
      <trkpt lat="32.75491" lon="-16.79987">
        <ele>598.63</ele>
      </trkpt>
      <trkpt lat="32.75514" lon="-16.79982">
        <ele>598.94</ele>
      </trkpt>
      <trkpt lat="32.75521" lon="-16.79985">
        <ele>599.88</ele>
      </trkpt>
      <trkpt lat="32.75523" lon="-16.79984">
        <ele>599.75</ele>
      </trkpt>
      <trkpt lat="32.75532" lon="-16.79979">
        <ele>599.7</ele>
      </trkpt>
      <trkpt lat="32.75537" lon="-16.7997">
        <ele>598.63</ele>
      </trkpt>
      <trkpt lat="32.75538" lon="-16.7996">
        <ele>595.73</ele>
      </trkpt>
      <trkpt lat="32.75536" lon="-16.79943">
        <ele>590.34</ele>
      </trkpt>
      <trkpt lat="32.7554" lon="-16.79921">
        <ele>589.04</ele>
      </trkpt>
      <trkpt lat="32.75546" lon="-16.79913">
        <ele>589.1</ele>
      </trkpt>
      <trkpt lat="32.75556" lon="-16.79907">
        <ele>589.64</ele>
      </trkpt>
      <trkpt lat="32.7556" lon="-16.79903">
        <ele>589.35</ele>
      </trkpt>
      <trkpt lat="32.75562" lon="-16.79899">
        <ele>588.77</ele>
      </trkpt>
      <trkpt lat="32.75563" lon="-16.79894">
        <ele>587.8</ele>
      </trkpt>
      <trkpt lat="32.75563" lon="-16.79891">
        <ele>587.1</ele>
      </trkpt>
      <trkpt lat="32.75562" lon="-16.79889">
        <ele>586.42</ele>
      </trkpt>
      <trkpt lat="32.75564" lon="-16.7989">
        <ele>587.08</ele>
      </trkpt>
      <trkpt lat="32.7557" lon="-16.79886">
        <ele>587.39</ele>
      </trkpt>
      <trkpt lat="32.75574" lon="-16.79885">
        <ele>587.96</ele>
      </trkpt>
      <trkpt lat="32.75579" lon="-16.79876">
        <ele>586.5</ele>
      </trkpt>
      <trkpt lat="32.75578" lon="-16.7986">
        <ele>582.37</ele>
      </trkpt>
      <trkpt lat="32.75572" lon="-16.79843">
        <ele>583.86</ele>
      </trkpt>
      <trkpt lat="32.75562" lon="-16.7981">
        <ele>597.14</ele>
      </trkpt>
      <trkpt lat="32.75562" lon="-16.7981">
        <ele>597.14</ele>
      </trkpt>
      <trkpt lat="32.75562" lon="-16.7981">
        <ele>597.14</ele>
      </trkpt>
      <trkpt lat="32.75561" lon="-16.79807">
        <ele>598.39</ele>
      </trkpt>
      <trkpt lat="32.75555" lon="-16.79786">
        <ele>606.08</ele>
      </trkpt>
      <trkpt lat="32.75552" lon="-16.79771">
        <ele>609.81</ele>
      </trkpt>
      <trkpt lat="32.75544" lon="-16.79773">
        <ele>607.93</ele>
      </trkpt>
      <trkpt lat="32.75536" lon="-16.79796">
        <ele>602.09</ele>
      </trkpt>
      <trkpt lat="32.75521" lon="-16.7981">
        <ele>597.68</ele>
      </trkpt>
      <trkpt lat="32.75515" lon="-16.79813">
        <ele>595.04</ele>
      </trkpt>
      <trkpt lat="32.75505" lon="-16.79813">
        <ele>593.59</ele>
      </trkpt>
      <trkpt lat="32.75477" lon="-16.7981">
        <ele>595.24</ele>
      </trkpt>
      <trkpt lat="32.75444" lon="-16.79801">
        <ele>599.51</ele>
      </trkpt>
      <trkpt lat="32.75428" lon="-16.79792">
        <ele>601.29</ele>
      </trkpt>
      <trkpt lat="32.7542" lon="-16.79791">
        <ele>600.7</ele>
      </trkpt>
      <trkpt lat="32.75403" lon="-16.79783">
        <ele>601.32</ele>
      </trkpt>
      <trkpt lat="32.75373" lon="-16.79797">
        <ele>608.84</ele>
      </trkpt>
      <trkpt lat="32.75355" lon="-16.79801">
        <ele>611.42</ele>
      </trkpt>
      <trkpt lat="32.75345" lon="-16.79801">
        <ele>610.7</ele>
      </trkpt>
      <trkpt lat="32.75329" lon="-16.79794">
        <ele>606.18</ele>
      </trkpt>
      <trkpt lat="32.75305" lon="-16.79797">
        <ele>604.48</ele>
      </trkpt>
      <trkpt lat="32.75294" lon="-16.79794">
        <ele>604.72</ele>
      </trkpt>
      <trkpt lat="32.75292" lon="-16.79789">
        <ele>604.57</ele>
      </trkpt>
      <trkpt lat="32.75292" lon="-16.79782">
        <ele>604.17</ele>
      </trkpt>
      <trkpt lat="32.75308" lon="-16.79774">
        <ele>601.24</ele>
      </trkpt>
      <trkpt lat="32.7533" lon="-16.7976">
        <ele>601.72</ele>
      </trkpt>
      <trkpt lat="32.75352" lon="-16.79724">
        <ele>606.12</ele>
      </trkpt>
      <trkpt lat="32.75373" lon="-16.797">
        <ele>594.23</ele>
      </trkpt>
      <trkpt lat="32.75386" lon="-16.79687">
        <ele>592.4</ele>
      </trkpt>
      <trkpt lat="32.75395" lon="-16.79673">
        <ele>600.94</ele>
      </trkpt>
      <trkpt lat="32.75399" lon="-16.79647">
        <ele>603.89</ele>
      </trkpt>
      <trkpt lat="32.754" lon="-16.79625">
        <ele>604.9</ele>
      </trkpt>
      <trkpt lat="32.75406" lon="-16.79586">
        <ele>610.72</ele>
      </trkpt>
      <trkpt lat="32.7541" lon="-16.79573">
        <ele>612.21</ele>
      </trkpt>
      <trkpt lat="32.75414" lon="-16.79562">
        <ele>612.83</ele>
      </trkpt>
      <trkpt lat="32.75423" lon="-16.79535">
        <ele>617.09</ele>
      </trkpt>
      <trkpt lat="32.75443" lon="-16.79523">
        <ele>631.22</ele>
      </trkpt>
      <trkpt lat="32.75456" lon="-16.79519">
        <ele>634.97</ele>
      </trkpt>
      <trkpt lat="32.75462" lon="-16.79512">
        <ele>636.27</ele>
      </trkpt>
      <trkpt lat="32.75455" lon="-16.79508">
        <ele>634.83</ele>
      </trkpt>
      <trkpt lat="32.75444" lon="-16.79507">
        <ele>632.49</ele>
      </trkpt>
      <trkpt lat="32.75432" lon="-16.79499">
        <ele>626.35</ele>
      </trkpt>
      <trkpt lat="32.75398" lon="-16.79469">
        <ele>613.64</ele>
      </trkpt>
      <trkpt lat="32.75385" lon="-16.79445">
        <ele>618.32</ele>
      </trkpt>
      <trkpt lat="32.75382" lon="-16.79437">
        <ele>620.8</ele>
      </trkpt>
      <trkpt lat="32.7538" lon="-16.79404">
        <ele>630.43</ele>
      </trkpt>
      <trkpt lat="32.75388" lon="-16.79383">
        <ele>632.5</ele>
      </trkpt>
      <trkpt lat="32.75387" lon="-16.79371">
        <ele>629.81</ele>
      </trkpt>
      <trkpt lat="32.75388" lon="-16.79356">
        <ele>629.15</ele>
      </trkpt>
      <trkpt lat="32.75379" lon="-16.79349">
        <ele>635.03</ele>
      </trkpt>
      <trkpt lat="32.75373" lon="-16.79346">
        <ele>638.52</ele>
      </trkpt>
      <trkpt lat="32.75366" lon="-16.79349">
        <ele>639.85</ele>
      </trkpt>
      <trkpt lat="32.75362" lon="-16.79362">
        <ele>635.56</ele>
      </trkpt>
      <trkpt lat="32.7535" lon="-16.79368">
        <ele>638.97</ele>
      </trkpt>
      <trkpt lat="32.75334" lon="-16.79374">
        <ele>641.84</ele>
      </trkpt>
      <trkpt lat="32.75327" lon="-16.79377">
        <ele>641.76</ele>
      </trkpt>
      <trkpt lat="32.75318" lon="-16.7938">
        <ele>642.33</ele>
      </trkpt>
      <trkpt lat="32.75311" lon="-16.79394">
        <ele>638.88</ele>
      </trkpt>
      <trkpt lat="32.7529" lon="-16.79422">
        <ele>629.38</ele>
      </trkpt>
      <trkpt lat="32.75275" lon="-16.79453">
        <ele>616.64</ele>
      </trkpt>
      <trkpt lat="32.75268" lon="-16.79471">
        <ele>610.48</ele>
      </trkpt>
      <trkpt lat="32.75258" lon="-16.79487">
        <ele>604.08</ele>
      </trkpt>
      <trkpt lat="32.75255" lon="-16.79509">
        <ele>594.18</ele>
      </trkpt>
      <trkpt lat="32.75253" lon="-16.79514">
        <ele>592.23</ele>
      </trkpt>
      <trkpt lat="32.75249" lon="-16.79524">
        <ele>588.58</ele>
      </trkpt>
      <trkpt lat="32.75237" lon="-16.79527">
        <ele>582.75</ele>
      </trkpt>
      <trkpt lat="32.75227" lon="-16.79528">
        <ele>577.96</ele>
      </trkpt>
      <trkpt lat="32.75216" lon="-16.79527">
        <ele>573.8</ele>
      </trkpt>
      <trkpt lat="32.75206" lon="-16.79523">
        <ele>571.33</ele>
      </trkpt>
      <trkpt lat="32.75191" lon="-16.79513">
        <ele>567.58</ele>
      </trkpt>
      <trkpt lat="32.75181" lon="-16.79495">
        <ele>573.83</ele>
      </trkpt>
      <trkpt lat="32.75181" lon="-16.79468">
        <ele>593.68</ele>
      </trkpt>
      <trkpt lat="32.75172" lon="-16.7945">
        <ele>598.46</ele>
      </trkpt>
      <trkpt lat="32.75163" lon="-16.79423">
        <ele>616.47</ele>
      </trkpt>
      <trkpt lat="32.7516" lon="-16.79397">
        <ele>639.95</ele>
      </trkpt>
      <trkpt lat="32.75148" lon="-16.79375">
        <ele>648.63</ele>
      </trkpt>
      <trkpt lat="32.75145" lon="-16.79368">
        <ele>651.89</ele>
      </trkpt>
      <trkpt lat="32.75141" lon="-16.79364">
        <ele>654.07</ele>
      </trkpt>
      <trkpt lat="32.75131" lon="-16.79355">
        <ele>660.76</ele>
      </trkpt>
      <trkpt lat="32.75123" lon="-16.7935">
        <ele>664.46</ele>
      </trkpt>
      <trkpt lat="32.75119" lon="-16.79358">
        <ele>662.18</ele>
      </trkpt>
      <trkpt lat="32.75119" lon="-16.79358">
        <ele>662.18</ele>
      </trkpt>
      <trkpt lat="32.75119" lon="-16.79358">
        <ele>662.18</ele>
      </trkpt>
      <trkpt lat="32.75119" lon="-16.79358">
        <ele>662.18</ele>
      </trkpt>
      <trkpt lat="32.75119" lon="-16.79358">
        <ele>662.18</ele>
      </trkpt>
      <trkpt lat="32.75119" lon="-16.79358">
        <ele>662.18</ele>
      </trkpt>
      <trkpt lat="32.75112" lon="-16.79372">
        <ele>649.64</ele>
      </trkpt>
      <trkpt lat="32.75084" lon="-16.79382">
        <ele>632.78</ele>
      </trkpt>
      <trkpt lat="32.75066" lon="-16.79403">
        <ele>618.58</ele>
      </trkpt>
      <trkpt lat="32.75054" lon="-16.79417">
        <ele>611.94</ele>
      </trkpt>
      <trkpt lat="32.75048" lon="-16.7942">
        <ele>610.83</ele>
      </trkpt>
      <trkpt lat="32.7503" lon="-16.79422">
        <ele>610.98</ele>
      </trkpt>
      <trkpt lat="32.7502" lon="-16.79425">
        <ele>613.67</ele>
      </trkpt>
      <trkpt lat="32.75007" lon="-16.79434">
        <ele>611.67</ele>
      </trkpt>
      <trkpt lat="32.74996" lon="-16.79451">
        <ele>603.55</ele>
      </trkpt>
      <trkpt lat="32.7499" lon="-16.79453">
        <ele>607.9</ele>
      </trkpt>
      <trkpt lat="32.74974" lon="-16.79454">
        <ele>620.69</ele>
      </trkpt>
      <trkpt lat="32.74964" lon="-16.79455">
        <ele>622.95</ele>
      </trkpt>
      <trkpt lat="32.74954" lon="-16.79451">
        <ele>626.92</ele>
      </trkpt>
      <trkpt lat="32.74943" lon="-16.79454">
        <ele>626.67</ele>
      </trkpt>
      <trkpt lat="32.74929" lon="-16.79459">
        <ele>623.13</ele>
      </trkpt>
      <trkpt lat="32.74916" lon="-16.7947">
        <ele>619.4</ele>
      </trkpt>
      <trkpt lat="32.74913" lon="-16.79478">
        <ele>615.8</ele>
      </trkpt>
      <trkpt lat="32.74902" lon="-16.79492">
        <ele>609.77</ele>
      </trkpt>
      <trkpt lat="32.74895" lon="-16.795">
        <ele>607.78</ele>
      </trkpt>
      <trkpt lat="32.74883" lon="-16.79506">
        <ele>602.5</ele>
      </trkpt>
      <trkpt lat="32.74869" lon="-16.79513">
        <ele>595.85</ele>
      </trkpt>
      <trkpt lat="32.74869" lon="-16.79513">
        <ele>595.85</ele>
      </trkpt>
      <trkpt lat="32.74869" lon="-16.79513">
        <ele>595.85</ele>
      </trkpt>
      <trkpt lat="32.74865" lon="-16.79516">
        <ele>594.2</ele>
      </trkpt>
      <trkpt lat="32.74861" lon="-16.79519">
        <ele>592.87</ele>
      </trkpt>
      <trkpt lat="32.74857" lon="-16.79524">
        <ele>590.87</ele>
      </trkpt>
      <trkpt lat="32.74852" lon="-16.79537">
        <ele>585.93</ele>
      </trkpt>
      <trkpt lat="32.74856" lon="-16.79543">
        <ele>584.62</ele>
      </trkpt>
      <trkpt lat="32.74867" lon="-16.79542">
        <ele>586.31</ele>
      </trkpt>
      <trkpt lat="32.74877" lon="-16.79531">
        <ele>590.11</ele>
      </trkpt>
      <trkpt lat="32.74886" lon="-16.79517">
        <ele>597.15</ele>
      </trkpt>
      <trkpt lat="32.74894" lon="-16.79513">
        <ele>600.2</ele>
      </trkpt>
      <trkpt lat="32.74909" lon="-16.79506">
        <ele>604.23</ele>
      </trkpt>
      <trkpt lat="32.74915" lon="-16.79496">
        <ele>608.72</ele>
      </trkpt>
      <trkpt lat="32.74917" lon="-16.79483">
        <ele>614.33</ele>
      </trkpt>
      <trkpt lat="32.74921" lon="-16.79474">
        <ele>617.95</ele>
      </trkpt>
      <trkpt lat="32.74927" lon="-16.79468">
        <ele>619.77</ele>
      </trkpt>
      <trkpt lat="32.74934" lon="-16.79463">
        <ele>621.73</ele>
      </trkpt>
      <trkpt lat="32.74941" lon="-16.79462">
        <ele>622.4</ele>
      </trkpt>
      <trkpt lat="32.74951" lon="-16.79461">
        <ele>621.83</ele>
      </trkpt>
      <trkpt lat="32.74966" lon="-16.79463">
        <ele>617.84</ele>
      </trkpt>
      <trkpt lat="32.74987" lon="-16.79467">
        <ele>604.25</ele>
      </trkpt>
      <trkpt lat="32.75002" lon="-16.79471">
        <ele>594.14</ele>
      </trkpt>
      <trkpt lat="32.74991" lon="-16.79477">
        <ele>597.0</ele>
      </trkpt>
      <trkpt lat="32.74966" lon="-16.79484">
        <ele>604.25</ele>
      </trkpt>
      <trkpt lat="32.74966" lon="-16.79484">
        <ele>604.25</ele>
      </trkpt>
      <trkpt lat="32.74966" lon="-16.79484">
        <ele>604.25</ele>
      </trkpt>
      <trkpt lat="32.7495" lon="-16.79483">
        <ele>611.3</ele>
      </trkpt>
      <trkpt lat="32.74945" lon="-16.79483">
        <ele>613.29</ele>
      </trkpt>
      <trkpt lat="32.74939" lon="-16.79487">
        <ele>612.29</ele>
      </trkpt>
      <trkpt lat="32.74935" lon="-16.79492">
        <ele>610.55</ele>
      </trkpt>
      <trkpt lat="32.74932" lon="-16.79501">
        <ele>607.08</ele>
      </trkpt>
      <trkpt lat="32.74932" lon="-16.79507">
        <ele>604.28</ele>
      </trkpt>
      <trkpt lat="32.74933" lon="-16.79519">
        <ele>598.7</ele>
      </trkpt>
      <trkpt lat="32.74933" lon="-16.79526">
        <ele>595.42</ele>
      </trkpt>
      <trkpt lat="32.74929" lon="-16.79532">
        <ele>592.06</ele>
      </trkpt>
      <trkpt lat="32.74925" lon="-16.79537">
        <ele>589.39</ele>
      </trkpt>
      <trkpt lat="32.74918" lon="-16.79541">
        <ele>587.72</ele>
      </trkpt>
      <trkpt lat="32.74909" lon="-16.79541">
        <ele>587.9</ele>
      </trkpt>
      <trkpt lat="32.74902" lon="-16.79545">
        <ele>586.65</ele>
      </trkpt>
      <trkpt lat="32.74896" lon="-16.79549">
        <ele>585.81</ele>
      </trkpt>
      <trkpt lat="32.74895" lon="-16.79556">
        <ele>584.02</ele>
      </trkpt>
      <trkpt lat="32.74895" lon="-16.79563">
        <ele>582.43</ele>
      </trkpt>
      <trkpt lat="32.74892" lon="-16.7957">
        <ele>581.6</ele>
      </trkpt>
      <trkpt lat="32.74886" lon="-16.79575">
        <ele>581.59</ele>
      </trkpt>
      <trkpt lat="32.74881" lon="-16.79583">
        <ele>580.89</ele>
      </trkpt>
      <trkpt lat="32.74876" lon="-16.79595">
        <ele>578.17</ele>
      </trkpt>
      <trkpt lat="32.74876" lon="-16.79609">
        <ele>574.3</ele>
      </trkpt>
      <trkpt lat="32.74877" lon="-16.7962">
        <ele>568.99</ele>
      </trkpt>
      <trkpt lat="32.74874" lon="-16.7963">
        <ele>564.72</ele>
      </trkpt>
      <trkpt lat="32.74868" lon="-16.79638">
        <ele>561.98</ele>
      </trkpt>
      <trkpt lat="32.74863" lon="-16.79641">
        <ele>561.05</ele>
      </trkpt>
      <trkpt lat="32.74855" lon="-16.79643">
        <ele>560.34</ele>
      </trkpt>
      <trkpt lat="32.74839" lon="-16.79638">
        <ele>562.53</ele>
      </trkpt>
      <trkpt lat="32.74832" lon="-16.79638">
        <ele>562.23</ele>
      </trkpt>
      <trkpt lat="32.74828" lon="-16.7964">
        <ele>561.6</ele>
      </trkpt>
      <trkpt lat="32.74823" lon="-16.79647">
        <ele>559.81</ele>
      </trkpt>
      <trkpt lat="32.74818" lon="-16.79661">
        <ele>555.63</ele>
      </trkpt>
      <trkpt lat="32.74816" lon="-16.79682">
        <ele>544.58</ele>
      </trkpt>
      <trkpt lat="32.74813" lon="-16.7969">
        <ele>540.65</ele>
      </trkpt>
      <trkpt lat="32.74809" lon="-16.79692">
        <ele>540.83</ele>
      </trkpt>
      <trkpt lat="32.74805" lon="-16.79691">
        <ele>542.13</ele>
      </trkpt>
      <trkpt lat="32.74799" lon="-16.79686">
        <ele>542.5</ele>
      </trkpt>
      <trkpt lat="32.74794" lon="-16.79684">
        <ele>541.9</ele>
      </trkpt>
      <trkpt lat="32.7479" lon="-16.79683">
        <ele>541.17</ele>
      </trkpt>
      <trkpt lat="32.74774" lon="-16.79684">
        <ele>536.86</ele>
      </trkpt>
      <trkpt lat="32.7476" lon="-16.79686">
        <ele>532.9</ele>
      </trkpt>
      <trkpt lat="32.7475" lon="-16.79689">
        <ele>530.2</ele>
      </trkpt>
      <trkpt lat="32.74739" lon="-16.79695">
        <ele>524.0</ele>
      </trkpt>
      <trkpt lat="32.74734" lon="-16.79698">
        <ele>521.09</ele>
      </trkpt>
      <trkpt lat="32.74729" lon="-16.79704">
        <ele>518.24</ele>
      </trkpt>
      <trkpt lat="32.74721" lon="-16.79707">
        <ele>514.66</ele>
      </trkpt>
      <trkpt lat="32.74711" lon="-16.79711">
        <ele>511.46</ele>
      </trkpt>
      <trkpt lat="32.74702" lon="-16.79716">
        <ele>507.57</ele>
      </trkpt>
      <trkpt lat="32.74696" lon="-16.79726">
        <ele>503.12</ele>
      </trkpt>
      <trkpt lat="32.74693" lon="-16.7974">
        <ele>500.11</ele>
      </trkpt>
      <trkpt lat="32.74694" lon="-16.7975">
        <ele>498.84</ele>
      </trkpt>
      <trkpt lat="32.74695" lon="-16.7976">
        <ele>493.14</ele>
      </trkpt>
      <trkpt lat="32.74693" lon="-16.79772">
        <ele>485.22</ele>
      </trkpt>
      <trkpt lat="32.7469" lon="-16.79775">
        <ele>482.82</ele>
      </trkpt>
      <trkpt lat="32.7469" lon="-16.79775">
        <ele>482.82</ele>
      </trkpt>
      <trkpt lat="32.7469" lon="-16.79775">
        <ele>482.82</ele>
      </trkpt>
      <trkpt lat="32.74687" lon="-16.79778">
        <ele>480.6</ele>
      </trkpt>
      <trkpt lat="32.74674" lon="-16.79783">
        <ele>476.22</ele>
      </trkpt>
      <trkpt lat="32.7466" lon="-16.79771">
        <ele>480.65</ele>
      </trkpt>
      <trkpt lat="32.74648" lon="-16.7976">
        <ele>485.65</ele>
      </trkpt>
      <trkpt lat="32.74637" lon="-16.7975">
        <ele>488.66</ele>
      </trkpt>
      <trkpt lat="32.74625" lon="-16.79743">
        <ele>488.64</ele>
      </trkpt>
      <trkpt lat="32.74611" lon="-16.79747">
        <ele>484.86</ele>
      </trkpt>
      <trkpt lat="32.74591" lon="-16.79745">
        <ele>485.18</ele>
      </trkpt>
      <trkpt lat="32.74575" lon="-16.7974">
        <ele>485.94</ele>
      </trkpt>
      <trkpt lat="32.74524" lon="-16.79748">
        <ele>484.9</ele>
      </trkpt>
      <trkpt lat="32.74503" lon="-16.7976">
        <ele>477.43</ele>
      </trkpt>
      <trkpt lat="32.74485" lon="-16.79774">
        <ele>470.84</ele>
      </trkpt>
      <trkpt lat="32.74477" lon="-16.79756">
        <ele>472.5</ele>
      </trkpt>
      <trkpt lat="32.74474" lon="-16.79725">
        <ele>479.5</ele>
      </trkpt>
      <trkpt lat="32.74481" lon="-16.79703">
        <ele>474.58</ele>
      </trkpt>
      <trkpt lat="32.74488" lon="-16.79688">
        <ele>472.86</ele>
      </trkpt>
      <trkpt lat="32.74486" lon="-16.79672">
        <ele>464.29</ele>
      </trkpt>
      <trkpt lat="32.74464" lon="-16.79691">
        <ele>457.56</ele>
      </trkpt>
      <trkpt lat="32.74447" lon="-16.79704">
        <ele>446.61</ele>
      </trkpt>
      <trkpt lat="32.74427" lon="-16.79726">
        <ele>445.42</ele>
      </trkpt>
      <trkpt lat="32.74413" lon="-16.79757">
        <ele>446.26</ele>
      </trkpt>
      <trkpt lat="32.74412" lon="-16.79776">
        <ele>446.45</ele>
      </trkpt>
      <trkpt lat="32.74423" lon="-16.79812">
        <ele>446.18</ele>
      </trkpt>
      <trkpt lat="32.74422" lon="-16.7982">
        <ele>445.87</ele>
      </trkpt>
      <trkpt lat="32.74407" lon="-16.79826">
        <ele>443.83</ele>
      </trkpt>
      <trkpt lat="32.74377" lon="-16.79813">
        <ele>441.13</ele>
      </trkpt>
      <trkpt lat="32.74334" lon="-16.79778">
        <ele>439.02</ele>
      </trkpt>
      <trkpt lat="32.74283" lon="-16.79744">
        <ele>397.97</ele>
      </trkpt>
      <trkpt lat="32.74259" lon="-16.7974">
        <ele>385.69</ele>
      </trkpt>
      <trkpt lat="32.74173" lon="-16.79733">
        <ele>350.1</ele>
      </trkpt>
      <trkpt lat="32.74137" lon="-16.79722">
        <ele>327.49</ele>
      </trkpt>
      <trkpt lat="32.74131" lon="-16.79722">
        <ele>325.76</ele>
      </trkpt>
      <trkpt lat="32.74127" lon="-16.79725">
        <ele>323.83</ele>
      </trkpt>
      <trkpt lat="32.74116" lon="-16.79729">
        <ele>318.82</ele>
      </trkpt>
      <trkpt lat="32.74094" lon="-16.79739">
        <ele>311.29</ele>
      </trkpt>
      <trkpt lat="32.74044" lon="-16.79756">
        <ele>300.06</ele>
      </trkpt>
      <trkpt lat="32.7403" lon="-16.79763">
        <ele>292.39</ele>
      </trkpt>
      <trkpt lat="32.74016" lon="-16.79765">
        <ele>286.58</ele>
      </trkpt>
      <trkpt lat="32.74002" lon="-16.79769">
        <ele>279.37</ele>
      </trkpt>
      <trkpt lat="32.73988" lon="-16.79774">
        <ele>273.87</ele>
      </trkpt>
      <trkpt lat="32.73967" lon="-16.79785">
        <ele>262.77</ele>
      </trkpt>
      <trkpt lat="32.73954" lon="-16.79789">
        <ele>255.0</ele>
      </trkpt>
      <trkpt lat="32.7395" lon="-16.79786">
        <ele>254.83</ele>
      </trkpt>
      <trkpt lat="32.73929" lon="-16.79777">
        <ele>251.06</ele>
      </trkpt>
      <trkpt lat="32.73915" lon="-16.79771">
        <ele>246.02</ele>
      </trkpt>
      <trkpt lat="32.73887" lon="-16.79772">
        <ele>230.07</ele>
      </trkpt>
      <trkpt lat="32.73872" lon="-16.79773">
        <ele>226.85</ele>
      </trkpt>
      <trkpt lat="32.7387" lon="-16.79774">
        <ele>226.27</ele>
      </trkpt>
      <trkpt lat="32.73856" lon="-16.79771">
        <ele>224.19</ele>
      </trkpt>
      <trkpt lat="32.73851" lon="-16.79761">
        <ele>225.26</ele>
      </trkpt>
      <trkpt lat="32.73839" lon="-16.79759">
        <ele>224.34</ele>
      </trkpt>
      <trkpt lat="32.73828" lon="-16.79761">
        <ele>219.76</ele>
      </trkpt>
      <trkpt lat="32.73818" lon="-16.79771">
        <ele>212.74</ele>
      </trkpt>
      <trkpt lat="32.73814" lon="-16.79769">
        <ele>210.66</ele>
      </trkpt>
      <trkpt lat="32.73807" lon="-16.79774">
        <ele>207.29</ele>
      </trkpt>
      <trkpt lat="32.73796" lon="-16.7978">
        <ele>204.23</ele>
      </trkpt>
      <trkpt lat="32.73789" lon="-16.79785">
        <ele>203.09</ele>
      </trkpt>
      <trkpt lat="32.7378" lon="-16.79789">
        <ele>201.76</ele>
      </trkpt>
      <trkpt lat="32.73771" lon="-16.79787">
        <ele>199.19</ele>
      </trkpt>
      <trkpt lat="32.73768" lon="-16.79794">
        <ele>200.56</ele>
      </trkpt>
      <trkpt lat="32.7376" lon="-16.79784">
        <ele>195.95</ele>
      </trkpt>
      <trkpt lat="32.73759" lon="-16.79783">
        <ele>195.45</ele>
      </trkpt>
      <trkpt lat="32.73757" lon="-16.79783">
        <ele>195.02</ele>
      </trkpt>
      <trkpt lat="32.73752" lon="-16.79787">
        <ele>195.09</ele>
      </trkpt>
    </trkseg>
  </trk>
</gpx>
