<?xml version="1.0"?>
<gpx xmlns="http://www.topografix.com/GPX/1/1" xmlns:xsi="http://www.w3.org/2001/XMLSchema-instance" version="1.1" creator="AllTrails.com" xsi:schemaLocation="http://www.topografix.com/GPX/1/1 http://www.topografix.com/GPX/1/1/gpx.xsd">
  <metadata>
    <name><![CDATA[PR 6.5 - Vereda do Pico Fernandes]]></name>
    <desc><![CDATA[]]></desc>
    <link href="http://www.alltrails.com">
      <text>AllTrails, LLC</text>
    </link>
    <bounds minlat="32.75884" minlon="-17.12683" maxlat="32.76467" maxlon="-17.09947"/>
  </metadata>
  <trk>
    <name><![CDATA[PR 6.5 - Vereda do Pico Fernandes]]></name>
    <src>AllTrails</src>
    <trkseg>
      <trkpt lat="32.76244" lon="-17.09947">
        <ele>1411.69</ele>
      </trkpt>
      <trkpt lat="32.76244" lon="-17.09947">
        <ele>1411.69</ele>
      </trkpt>
      <trkpt lat="32.76253" lon="-17.10002">
        <ele>1404.69</ele>
      </trkpt>
      <trkpt lat="32.76244" lon="-17.10067">
        <ele>1410.49</ele>
      </trkpt>
      <trkpt lat="32.76216" lon="-17.10201">
        <ele>1414.22</ele>
      </trkpt>
      <trkpt lat="32.76217" lon="-17.10222">
        <ele>1414.19</ele>
      </trkpt>
      <trkpt lat="32.76206" lon="-17.10257">
        <ele>1411.08</ele>
      </trkpt>
      <trkpt lat="32.76195" lon="-17.10405">
        <ele>1411.89</ele>
      </trkpt>
      <trkpt lat="32.76167" lon="-17.10469">
        <ele>1408.14</ele>
      </trkpt>
      <trkpt lat="32.76156" lon="-17.10531">
        <ele>1408.44</ele>
      </trkpt>
      <trkpt lat="32.76123" lon="-17.10588">
        <ele>1405.65</ele>
      </trkpt>
      <trkpt lat="32.76093" lon="-17.10654">
        <ele>1405.55</ele>
      </trkpt>
      <trkpt lat="32.76045" lon="-17.10722">
        <ele>1406.59</ele>
      </trkpt>
      <trkpt lat="32.76022" lon="-17.10754">
        <ele>1411.05</ele>
      </trkpt>
      <trkpt lat="32.75997" lon="-17.10781">
        <ele>1407.68</ele>
      </trkpt>
      <trkpt lat="32.75993" lon="-17.10792">
        <ele>1405.33</ele>
      </trkpt>
      <trkpt lat="32.75993" lon="-17.10819">
        <ele>1401.57</ele>
      </trkpt>
      <trkpt lat="32.75993" lon="-17.10833">
        <ele>1398.8</ele>
      </trkpt>
      <trkpt lat="32.75992" lon="-17.1085">
        <ele>1395.5</ele>
      </trkpt>
      <trkpt lat="32.75986" lon="-17.10895">
        <ele>1390.88</ele>
      </trkpt>
      <trkpt lat="32.75989" lon="-17.10934">
        <ele>1392.52</ele>
      </trkpt>
      <trkpt lat="32.75989" lon="-17.10985">
        <ele>1398.55</ele>
      </trkpt>
      <trkpt lat="32.75971" lon="-17.11048">
        <ele>1400.74</ele>
      </trkpt>
      <trkpt lat="32.75972" lon="-17.1106">
        <ele>1400.52</ele>
      </trkpt>
      <trkpt lat="32.75974" lon="-17.11082">
        <ele>1397.75</ele>
      </trkpt>
      <trkpt lat="32.7597" lon="-17.111">
        <ele>1396.9</ele>
      </trkpt>
      <trkpt lat="32.75952" lon="-17.11118">
        <ele>1398.13</ele>
      </trkpt>
      <trkpt lat="32.75929" lon="-17.11138">
        <ele>1400.28</ele>
      </trkpt>
      <trkpt lat="32.75922" lon="-17.1116">
        <ele>1403.09</ele>
      </trkpt>
      <trkpt lat="32.75899" lon="-17.11179">
        <ele>1399.9</ele>
      </trkpt>
      <trkpt lat="32.75897" lon="-17.11193">
        <ele>1399.08</ele>
      </trkpt>
      <trkpt lat="32.75884" lon="-17.11201">
        <ele>1394.86</ele>
      </trkpt>
      <trkpt lat="32.75896" lon="-17.1124">
        <ele>1397.03</ele>
      </trkpt>
      <trkpt lat="32.7592" lon="-17.11284">
        <ele>1407.78</ele>
      </trkpt>
      <trkpt lat="32.7591" lon="-17.11323">
        <ele>1400.41</ele>
      </trkpt>
      <trkpt lat="32.75943" lon="-17.11393">
        <ele>1395.15</ele>
      </trkpt>
      <trkpt lat="32.75943" lon="-17.11393">
        <ele>1395.15</ele>
      </trkpt>
      <trkpt lat="32.75965" lon="-17.11441">
        <ele>1375.85</ele>
      </trkpt>
      <trkpt lat="32.75988" lon="-17.11489">
        <ele>1357.36</ele>
      </trkpt>
      <trkpt lat="32.7601" lon="-17.11538">
        <ele>1343.86</ele>
      </trkpt>
      <trkpt lat="32.76033" lon="-17.11586">
        <ele>1337.95</ele>
      </trkpt>
      <trkpt lat="32.76055" lon="-17.11634">
        <ele>1337.14</ele>
      </trkpt>
      <trkpt lat="32.76055" lon="-17.11634">
        <ele>1337.14</ele>
      </trkpt>
      <trkpt lat="32.76065" lon="-17.11691">
        <ele>1328.48</ele>
      </trkpt>
      <trkpt lat="32.76074" lon="-17.11748">
        <ele>1309.36</ele>
      </trkpt>
      <trkpt lat="32.76084" lon="-17.11805">
        <ele>1301.88</ele>
      </trkpt>
      <trkpt lat="32.76093" lon="-17.11863">
        <ele>1299.1</ele>
      </trkpt>
      <trkpt lat="32.76103" lon="-17.1192">
        <ele>1300.25</ele>
      </trkpt>
      <trkpt lat="32.76112" lon="-17.11977">
        <ele>1302.99</ele>
      </trkpt>
      <trkpt lat="32.76122" lon="-17.12034">
        <ele>1290.53</ele>
      </trkpt>
      <trkpt lat="32.76131" lon="-17.12091">
        <ele>1276.02</ele>
      </trkpt>
      <trkpt lat="32.76131" lon="-17.12091">
        <ele>1276.02</ele>
      </trkpt>
      <trkpt lat="32.76178" lon="-17.12105">
        <ele>1255.08</ele>
      </trkpt>
      <trkpt lat="32.76225" lon="-17.12118">
        <ele>1237.22</ele>
      </trkpt>
      <trkpt lat="32.76272" lon="-17.12132">
        <ele>1232.2</ele>
      </trkpt>
      <trkpt lat="32.76319" lon="-17.12146">
        <ele>1219.94</ele>
      </trkpt>
      <trkpt lat="32.76366" lon="-17.12159">
        <ele>1201.19</ele>
      </trkpt>
      <trkpt lat="32.76413" lon="-17.12173">
        <ele>1196.43</ele>
      </trkpt>
      <trkpt lat="32.76413" lon="-17.12173">
        <ele>1196.43</ele>
      </trkpt>
      <trkpt lat="32.76419" lon="-17.1223">
        <ele>1194.22</ele>
      </trkpt>
      <trkpt lat="32.76425" lon="-17.12286">
        <ele>1179.94</ele>
      </trkpt>
      <trkpt lat="32.76431" lon="-17.12343">
        <ele>1154.48</ele>
      </trkpt>
      <trkpt lat="32.76437" lon="-17.124">
        <ele>1129.17</ele>
      </trkpt>
      <trkpt lat="32.76443" lon="-17.12456">
        <ele>1109.31</ele>
      </trkpt>
      <trkpt lat="32.76449" lon="-17.12513">
        <ele>1070.44</ele>
      </trkpt>
      <trkpt lat="32.76455" lon="-17.1257">
        <ele>1032.37</ele>
      </trkpt>
      <trkpt lat="32.76461" lon="-17.12626">
        <ele>1011.16</ele>
      </trkpt>
      <trkpt lat="32.76467" lon="-17.12683">
        <ele>1002.95</ele>
      </trkpt>
    </trkseg>
  </trk>
</gpx>
