<?xml version="1.0"?>
<gpx xmlns="http://www.topografix.com/GPX/1/1" xmlns:xsi="http://www.w3.org/2001/XMLSchema-instance" version="1.1" creator="AllTrails.com" xsi:schemaLocation="http://www.topografix.com/GPX/1/1 http://www.topografix.com/GPX/1/1/gpx.xsd">
  <metadata>
    <name><![CDATA[pr8-vereda-da-ponta-de-sao-lourenc-o]]></name>
    <desc><![CDATA[]]></desc>
    <link href="http://www.alltrails.com">
      <text>AllTrails, LLC</text>
    </link>
    <bounds minlat="32.74216" minlon="-16.70104" maxlat="32.75052" maxlon="-16.68185"/>
  </metadata>
  <trk>
    <name><![CDATA[pr8-vereda-da-ponta-de-sao-lourenc-o]]></name>
    <src>AllTrails</src>
    <trkseg>
      <trkpt lat="32.74323" lon="-16.70101">
        <ele>80.05</ele>
      </trkpt>
      <trkpt lat="32.74323" lon="-16.701">
        <ele>79.94</ele>
      </trkpt>
      <trkpt lat="32.74327" lon="-16.70104">
        <ele>81.09</ele>
      </trkpt>
      <trkpt lat="32.74332" lon="-16.70099">
        <ele>81.45</ele>
      </trkpt>
      <trkpt lat="32.74337" lon="-16.70098">
        <ele>81.37</ele>
      </trkpt>
      <trkpt lat="32.74341" lon="-16.70093">
        <ele>80.76</ele>
      </trkpt>
      <trkpt lat="32.74347" lon="-16.70089">
        <ele>80.31</ele>
      </trkpt>
      <trkpt lat="32.74358" lon="-16.70086">
        <ele>80.03</ele>
      </trkpt>
      <trkpt lat="32.74368" lon="-16.70081">
        <ele>77.89</ele>
      </trkpt>
      <trkpt lat="32.74374" lon="-16.70078">
        <ele>76.03</ele>
      </trkpt>
      <trkpt lat="32.74376" lon="-16.70078">
        <ele>75.35</ele>
      </trkpt>
      <trkpt lat="32.74379" lon="-16.70078">
        <ele>74.34</ele>
      </trkpt>
      <trkpt lat="32.7438" lon="-16.7008">
        <ele>73.96</ele>
      </trkpt>
      <trkpt lat="32.74381" lon="-16.70087">
        <ele>73.27</ele>
      </trkpt>
      <trkpt lat="32.74383" lon="-16.70089">
        <ele>72.43</ele>
      </trkpt>
      <trkpt lat="32.74384" lon="-16.70087">
        <ele>72.26</ele>
      </trkpt>
      <trkpt lat="32.74385" lon="-16.70083">
        <ele>72.26</ele>
      </trkpt>
      <trkpt lat="32.74386" lon="-16.70079">
        <ele>71.97</ele>
      </trkpt>
      <trkpt lat="32.74387" lon="-16.70076">
        <ele>71.65</ele>
      </trkpt>
      <trkpt lat="32.74388" lon="-16.70073">
        <ele>71.31</ele>
      </trkpt>
      <trkpt lat="32.74392" lon="-16.70071">
        <ele>69.28</ele>
      </trkpt>
      <trkpt lat="32.74392" lon="-16.70071">
        <ele>69.28</ele>
      </trkpt>
      <trkpt lat="32.74396" lon="-16.70069">
        <ele>67.02</ele>
      </trkpt>
      <trkpt lat="32.74401" lon="-16.70068">
        <ele>64.17</ele>
      </trkpt>
      <trkpt lat="32.74407" lon="-16.70065">
        <ele>60.58</ele>
      </trkpt>
      <trkpt lat="32.74413" lon="-16.70064">
        <ele>57.04</ele>
      </trkpt>
      <trkpt lat="32.74445" lon="-16.70066">
        <ele>50.21</ele>
      </trkpt>
      <trkpt lat="32.74465" lon="-16.70066">
        <ele>53.09</ele>
      </trkpt>
      <trkpt lat="32.74467" lon="-16.70066">
        <ele>53.38</ele>
      </trkpt>
      <trkpt lat="32.74484" lon="-16.70065">
        <ele>60.07</ele>
      </trkpt>
      <trkpt lat="32.74515" lon="-16.70058">
        <ele>68.18</ele>
      </trkpt>
      <trkpt lat="32.74521" lon="-16.70054">
        <ele>67.58</ele>
      </trkpt>
      <trkpt lat="32.74521" lon="-16.70054">
        <ele>67.58</ele>
      </trkpt>
      <trkpt lat="32.74521" lon="-16.70054">
        <ele>67.58</ele>
      </trkpt>
      <trkpt lat="32.74521" lon="-16.70054">
        <ele>67.58</ele>
      </trkpt>
      <trkpt lat="32.74546" lon="-16.70035">
        <ele>69.53</ele>
      </trkpt>
      <trkpt lat="32.74565" lon="-16.70021">
        <ele>68.71</ele>
      </trkpt>
      <trkpt lat="32.74585" lon="-16.69991">
        <ele>70.54</ele>
      </trkpt>
      <trkpt lat="32.74594" lon="-16.69959">
        <ele>70.97</ele>
      </trkpt>
      <trkpt lat="32.74599" lon="-16.69938">
        <ele>70.36</ele>
      </trkpt>
      <trkpt lat="32.74604" lon="-16.69924">
        <ele>70.25</ele>
      </trkpt>
      <trkpt lat="32.74608" lon="-16.69916">
        <ele>70.47</ele>
      </trkpt>
      <trkpt lat="32.74616" lon="-16.69902">
        <ele>72.14</ele>
      </trkpt>
      <trkpt lat="32.74618" lon="-16.69893">
        <ele>72.63</ele>
      </trkpt>
      <trkpt lat="32.74626" lon="-16.69878">
        <ele>72.61</ele>
      </trkpt>
      <trkpt lat="32.74639" lon="-16.69863">
        <ele>72.23</ele>
      </trkpt>
      <trkpt lat="32.74666" lon="-16.69833">
        <ele>72.52</ele>
      </trkpt>
      <trkpt lat="32.74689" lon="-16.6981">
        <ele>63.45</ele>
      </trkpt>
      <trkpt lat="32.74695" lon="-16.69804">
        <ele>61.45</ele>
      </trkpt>
      <trkpt lat="32.74699" lon="-16.69804">
        <ele>62.01</ele>
      </trkpt>
      <trkpt lat="32.74702" lon="-16.69799">
        <ele>57.93</ele>
      </trkpt>
      <trkpt lat="32.74703" lon="-16.69792">
        <ele>52.03</ele>
      </trkpt>
      <trkpt lat="32.74703" lon="-16.69792">
        <ele>52.03</ele>
      </trkpt>
      <trkpt lat="32.74703" lon="-16.69792">
        <ele>52.03</ele>
      </trkpt>
      <trkpt lat="32.74723" lon="-16.69768">
        <ele>42.29</ele>
      </trkpt>
      <trkpt lat="32.74733" lon="-16.69757">
        <ele>32.32</ele>
      </trkpt>
      <trkpt lat="32.74739" lon="-16.69753">
        <ele>28.56</ele>
      </trkpt>
      <trkpt lat="32.74748" lon="-16.69752">
        <ele>28.21</ele>
      </trkpt>
      <trkpt lat="32.74753" lon="-16.69756">
        <ele>34.79</ele>
      </trkpt>
      <trkpt lat="32.74758" lon="-16.6976">
        <ele>41.23</ele>
      </trkpt>
      <trkpt lat="32.74761" lon="-16.69761">
        <ele>43.31</ele>
      </trkpt>
      <trkpt lat="32.74767" lon="-16.69763">
        <ele>46.85</ele>
      </trkpt>
      <trkpt lat="32.74782" lon="-16.69767">
        <ele>51.93</ele>
      </trkpt>
      <trkpt lat="32.74792" lon="-16.69771">
        <ele>54.6</ele>
      </trkpt>
      <trkpt lat="32.74794" lon="-16.69772">
        <ele>55.22</ele>
      </trkpt>
      <trkpt lat="32.74797" lon="-16.69776">
        <ele>56.92</ele>
      </trkpt>
      <trkpt lat="32.74802" lon="-16.69783">
        <ele>60.34</ele>
      </trkpt>
      <trkpt lat="32.74805" lon="-16.69785">
        <ele>61.52</ele>
      </trkpt>
      <trkpt lat="32.7481" lon="-16.69781">
        <ele>61.12</ele>
      </trkpt>
      <trkpt lat="32.74819" lon="-16.69774">
        <ele>60.61</ele>
      </trkpt>
      <trkpt lat="32.74841" lon="-16.69763">
        <ele>60.53</ele>
      </trkpt>
      <trkpt lat="32.74871" lon="-16.69749">
        <ele>60.21</ele>
      </trkpt>
      <trkpt lat="32.74875" lon="-16.69746">
        <ele>60.14</ele>
      </trkpt>
      <trkpt lat="32.74873" lon="-16.69741">
        <ele>58.77</ele>
      </trkpt>
      <trkpt lat="32.74876" lon="-16.69728">
        <ele>56.39</ele>
      </trkpt>
      <trkpt lat="32.74877" lon="-16.69723">
        <ele>55.46</ele>
      </trkpt>
      <trkpt lat="32.74873" lon="-16.69716">
        <ele>55.03</ele>
      </trkpt>
      <trkpt lat="32.7487" lon="-16.69711">
        <ele>54.51</ele>
      </trkpt>
      <trkpt lat="32.74871" lon="-16.69697">
        <ele>55.19</ele>
      </trkpt>
      <trkpt lat="32.74872" lon="-16.69683">
        <ele>58.0</ele>
      </trkpt>
      <trkpt lat="32.74867" lon="-16.69664">
        <ele>58.64</ele>
      </trkpt>
      <trkpt lat="32.74867" lon="-16.69664">
        <ele>58.64</ele>
      </trkpt>
      <trkpt lat="32.74867" lon="-16.69664">
        <ele>58.64</ele>
      </trkpt>
      <trkpt lat="32.74858" lon="-16.69645">
        <ele>54.41</ele>
      </trkpt>
      <trkpt lat="32.74851" lon="-16.69612">
        <ele>49.23</ele>
      </trkpt>
      <trkpt lat="32.74851" lon="-16.6961">
        <ele>49.21</ele>
      </trkpt>
      <trkpt lat="32.7486" lon="-16.69615">
        <ele>60.08</ele>
      </trkpt>
      <trkpt lat="32.7487" lon="-16.69618">
        <ele>65.01</ele>
      </trkpt>
      <trkpt lat="32.7488" lon="-16.6962">
        <ele>69.32</ele>
      </trkpt>
      <trkpt lat="32.74918" lon="-16.696">
        <ele>79.67</ele>
      </trkpt>
      <trkpt lat="32.74929" lon="-16.6959">
        <ele>82.35</ele>
      </trkpt>
      <trkpt lat="32.74939" lon="-16.69587">
        <ele>85.01</ele>
      </trkpt>
      <trkpt lat="32.7496" lon="-16.69581">
        <ele>88.76</ele>
      </trkpt>
      <trkpt lat="32.7498" lon="-16.69578">
        <ele>92.13</ele>
      </trkpt>
      <trkpt lat="32.75012" lon="-16.69571">
        <ele>97.64</ele>
      </trkpt>
      <trkpt lat="32.75028" lon="-16.69566">
        <ele>99.55</ele>
      </trkpt>
      <trkpt lat="32.75037" lon="-16.69554">
        <ele>99.94</ele>
      </trkpt>
      <trkpt lat="32.75043" lon="-16.69534">
        <ele>100.51</ele>
      </trkpt>
      <trkpt lat="32.75044" lon="-16.69515">
        <ele>99.05</ele>
      </trkpt>
      <trkpt lat="32.75041" lon="-16.69497">
        <ele>95.94</ele>
      </trkpt>
      <trkpt lat="32.75034" lon="-16.69478">
        <ele>89.21</ele>
      </trkpt>
      <trkpt lat="32.75035" lon="-16.69469">
        <ele>86.86</ele>
      </trkpt>
      <trkpt lat="32.75036" lon="-16.69467">
        <ele>86.55</ele>
      </trkpt>
      <trkpt lat="32.75036" lon="-16.69467">
        <ele>86.55</ele>
      </trkpt>
      <trkpt lat="32.75036" lon="-16.69467">
        <ele>86.55</ele>
      </trkpt>
      <trkpt lat="32.75037" lon="-16.69465">
        <ele>86.28</ele>
      </trkpt>
      <trkpt lat="32.75041" lon="-16.69464">
        <ele>86.58</ele>
      </trkpt>
      <trkpt lat="32.75048" lon="-16.69458">
        <ele>86.74</ele>
      </trkpt>
      <trkpt lat="32.75052" lon="-16.6945">
        <ele>86.63</ele>
      </trkpt>
      <trkpt lat="32.75051" lon="-16.69445">
        <ele>85.91</ele>
      </trkpt>
      <trkpt lat="32.75046" lon="-16.69435">
        <ele>83.92</ele>
      </trkpt>
      <trkpt lat="32.75043" lon="-16.69427">
        <ele>82.8</ele>
      </trkpt>
      <trkpt lat="32.75042" lon="-16.69418">
        <ele>82.12</ele>
      </trkpt>
      <trkpt lat="32.75043" lon="-16.69405">
        <ele>81.5</ele>
      </trkpt>
      <trkpt lat="32.75025" lon="-16.69385">
        <ele>80.03</ele>
      </trkpt>
      <trkpt lat="32.75019" lon="-16.6938">
        <ele>79.89</ele>
      </trkpt>
      <trkpt lat="32.75014" lon="-16.69379">
        <ele>79.33</ele>
      </trkpt>
      <trkpt lat="32.75004" lon="-16.6937">
        <ele>80.49</ele>
      </trkpt>
      <trkpt lat="32.74982" lon="-16.69368">
        <ele>79.8</ele>
      </trkpt>
      <trkpt lat="32.74976" lon="-16.6937">
        <ele>78.7</ele>
      </trkpt>
      <trkpt lat="32.74935" lon="-16.69368">
        <ele>80.25</ele>
      </trkpt>
      <trkpt lat="32.74924" lon="-16.69364">
        <ele>86.14</ele>
      </trkpt>
      <trkpt lat="32.74919" lon="-16.6936">
        <ele>90.7</ele>
      </trkpt>
      <trkpt lat="32.74904" lon="-16.69358">
        <ele>92.17</ele>
      </trkpt>
      <trkpt lat="32.74893" lon="-16.69355">
        <ele>92.43</ele>
      </trkpt>
      <trkpt lat="32.74882" lon="-16.69347">
        <ele>91.44</ele>
      </trkpt>
      <trkpt lat="32.74868" lon="-16.69344">
        <ele>88.12</ele>
      </trkpt>
      <trkpt lat="32.74862" lon="-16.69336">
        <ele>89.25</ele>
      </trkpt>
      <trkpt lat="32.74869" lon="-16.69313">
        <ele>91.16</ele>
      </trkpt>
      <trkpt lat="32.74889" lon="-16.69272">
        <ele>103.06</ele>
      </trkpt>
      <trkpt lat="32.74892" lon="-16.6926">
        <ele>104.64</ele>
      </trkpt>
      <trkpt lat="32.7489" lon="-16.69253">
        <ele>103.6</ele>
      </trkpt>
      <trkpt lat="32.74893" lon="-16.69243">
        <ele>105.39</ele>
      </trkpt>
      <trkpt lat="32.74893" lon="-16.69231">
        <ele>105.68</ele>
      </trkpt>
      <trkpt lat="32.74893" lon="-16.69231">
        <ele>105.68</ele>
      </trkpt>
      <trkpt lat="32.74893" lon="-16.69231">
        <ele>105.68</ele>
      </trkpt>
      <trkpt lat="32.74895" lon="-16.69221">
        <ele>106.41</ele>
      </trkpt>
      <trkpt lat="32.74894" lon="-16.6921">
        <ele>106.98</ele>
      </trkpt>
      <trkpt lat="32.74891" lon="-16.69205">
        <ele>106.7</ele>
      </trkpt>
      <trkpt lat="32.74885" lon="-16.69207">
        <ele>105.13</ele>
      </trkpt>
      <trkpt lat="32.74881" lon="-16.69205">
        <ele>104.32</ele>
      </trkpt>
      <trkpt lat="32.74876" lon="-16.692">
        <ele>103.63</ele>
      </trkpt>
      <trkpt lat="32.74871" lon="-16.69198">
        <ele>102.72</ele>
      </trkpt>
      <trkpt lat="32.74861" lon="-16.69196">
        <ele>100.74</ele>
      </trkpt>
      <trkpt lat="32.74854" lon="-16.69191">
        <ele>99.41</ele>
      </trkpt>
      <trkpt lat="32.7485" lon="-16.69185">
        <ele>99.71</ele>
      </trkpt>
      <trkpt lat="32.74837" lon="-16.69174">
        <ele>100.6</ele>
      </trkpt>
      <trkpt lat="32.74824" lon="-16.6917">
        <ele>102.81</ele>
      </trkpt>
      <trkpt lat="32.74811" lon="-16.69167">
        <ele>105.31</ele>
      </trkpt>
      <trkpt lat="32.74787" lon="-16.69167">
        <ele>107.25</ele>
      </trkpt>
      <trkpt lat="32.74766" lon="-16.69175">
        <ele>103.44</ele>
      </trkpt>
      <trkpt lat="32.7476" lon="-16.69176">
        <ele>101.8</ele>
      </trkpt>
      <trkpt lat="32.74754" lon="-16.69174">
        <ele>101.37</ele>
      </trkpt>
      <trkpt lat="32.74745" lon="-16.69167">
        <ele>100.09</ele>
      </trkpt>
      <trkpt lat="32.7474" lon="-16.69153">
        <ele>99.46</ele>
      </trkpt>
      <trkpt lat="32.74718" lon="-16.691">
        <ele>91.31</ele>
      </trkpt>
      <trkpt lat="32.74714" lon="-16.69095">
        <ele>88.48</ele>
      </trkpt>
      <trkpt lat="32.74708" lon="-16.69088">
        <ele>84.71</ele>
      </trkpt>
      <trkpt lat="32.747" lon="-16.69082">
        <ele>80.34</ele>
      </trkpt>
      <trkpt lat="32.74676" lon="-16.69067">
        <ele>71.58</ele>
      </trkpt>
      <trkpt lat="32.74667" lon="-16.69061">
        <ele>66.95</ele>
      </trkpt>
      <trkpt lat="32.74663" lon="-16.6906">
        <ele>62.38</ele>
      </trkpt>
      <trkpt lat="32.74663" lon="-16.69057">
        <ele>62.06</ele>
      </trkpt>
      <trkpt lat="32.74664" lon="-16.69054">
        <ele>63.26</ele>
      </trkpt>
      <trkpt lat="32.74663" lon="-16.69048">
        <ele>63.19</ele>
      </trkpt>
      <trkpt lat="32.7466" lon="-16.69039">
        <ele>62.21</ele>
      </trkpt>
      <trkpt lat="32.74657" lon="-16.69027">
        <ele>62.76</ele>
      </trkpt>
      <trkpt lat="32.74654" lon="-16.69029">
        <ele>60.4</ele>
      </trkpt>
      <trkpt lat="32.74652" lon="-16.69025">
        <ele>59.72</ele>
      </trkpt>
      <trkpt lat="32.74649" lon="-16.69027">
        <ele>57.64</ele>
      </trkpt>
      <trkpt lat="32.74643" lon="-16.69019">
        <ele>55.19</ele>
      </trkpt>
      <trkpt lat="32.74631" lon="-16.68994">
        <ele>51.01</ele>
      </trkpt>
      <trkpt lat="32.74625" lon="-16.68983">
        <ele>49.09</ele>
      </trkpt>
      <trkpt lat="32.7462" lon="-16.6897">
        <ele>50.58</ele>
      </trkpt>
      <trkpt lat="32.74615" lon="-16.68957">
        <ele>55.51</ele>
      </trkpt>
      <trkpt lat="32.74613" lon="-16.68942">
        <ele>62.76</ele>
      </trkpt>
      <trkpt lat="32.74612" lon="-16.68937">
        <ele>63.68</ele>
      </trkpt>
      <trkpt lat="32.74608" lon="-16.68932">
        <ele>63.46</ele>
      </trkpt>
      <trkpt lat="32.74606" lon="-16.68913">
        <ele>68.74</ele>
      </trkpt>
      <trkpt lat="32.74597" lon="-16.68894">
        <ele>76.38</ele>
      </trkpt>
      <trkpt lat="32.74594" lon="-16.68879">
        <ele>78.58</ele>
      </trkpt>
      <trkpt lat="32.74593" lon="-16.68871">
        <ele>78.54</ele>
      </trkpt>
      <trkpt lat="32.74593" lon="-16.68871">
        <ele>78.54</ele>
      </trkpt>
      <trkpt lat="32.74593" lon="-16.68871">
        <ele>78.54</ele>
      </trkpt>
      <trkpt lat="32.74591" lon="-16.6886">
        <ele>78.07</ele>
      </trkpt>
      <trkpt lat="32.7459" lon="-16.68849">
        <ele>76.4</ele>
      </trkpt>
      <trkpt lat="32.74589" lon="-16.68838">
        <ele>74.8</ele>
      </trkpt>
      <trkpt lat="32.74589" lon="-16.68836">
        <ele>74.55</ele>
      </trkpt>
      <trkpt lat="32.74585" lon="-16.68827">
        <ele>72.58</ele>
      </trkpt>
      <trkpt lat="32.74587" lon="-16.68819">
        <ele>72.41</ele>
      </trkpt>
      <trkpt lat="32.74591" lon="-16.68807">
        <ele>73.48</ele>
      </trkpt>
      <trkpt lat="32.74594" lon="-16.68796">
        <ele>70.11</ele>
      </trkpt>
      <trkpt lat="32.74605" lon="-16.68788">
        <ele>75.74</ele>
      </trkpt>
      <trkpt lat="32.74609" lon="-16.68783">
        <ele>78.05</ele>
      </trkpt>
      <trkpt lat="32.74615" lon="-16.68772">
        <ele>76.93</ele>
      </trkpt>
      <trkpt lat="32.74629" lon="-16.68759">
        <ele>73.77</ele>
      </trkpt>
      <trkpt lat="32.74634" lon="-16.68749">
        <ele>72.19</ele>
      </trkpt>
      <trkpt lat="32.74634" lon="-16.6874">
        <ele>71.28</ele>
      </trkpt>
      <trkpt lat="32.7463" lon="-16.68727">
        <ele>69.5</ele>
      </trkpt>
      <trkpt lat="32.74628" lon="-16.68719">
        <ele>68.78</ele>
      </trkpt>
      <trkpt lat="32.74621" lon="-16.6871">
        <ele>67.25</ele>
      </trkpt>
      <trkpt lat="32.74613" lon="-16.68705">
        <ele>64.98</ele>
      </trkpt>
      <trkpt lat="32.74606" lon="-16.68691">
        <ele>62.4</ele>
      </trkpt>
      <trkpt lat="32.74598" lon="-16.68677">
        <ele>63.62</ele>
      </trkpt>
      <trkpt lat="32.74594" lon="-16.68671">
        <ele>63.98</ele>
      </trkpt>
      <trkpt lat="32.74584" lon="-16.68669">
        <ele>61.6</ele>
      </trkpt>
      <trkpt lat="32.74571" lon="-16.68671">
        <ele>56.16</ele>
      </trkpt>
      <trkpt lat="32.74559" lon="-16.68669">
        <ele>51.92</ele>
      </trkpt>
      <trkpt lat="32.74545" lon="-16.68659">
        <ele>51.65</ele>
      </trkpt>
      <trkpt lat="32.74536" lon="-16.68653">
        <ele>51.84</ele>
      </trkpt>
      <trkpt lat="32.74525" lon="-16.68647">
        <ele>52.28</ele>
      </trkpt>
      <trkpt lat="32.74521" lon="-16.68644">
        <ele>53.65</ele>
      </trkpt>
      <trkpt lat="32.74521" lon="-16.68644">
        <ele>53.65</ele>
      </trkpt>
      <trkpt lat="32.74521" lon="-16.68644">
        <ele>53.65</ele>
      </trkpt>
      <trkpt lat="32.74509" lon="-16.68635">
        <ele>57.56</ele>
      </trkpt>
      <trkpt lat="32.74495" lon="-16.68626">
        <ele>60.16</ele>
      </trkpt>
      <trkpt lat="32.74486" lon="-16.68622">
        <ele>60.95</ele>
      </trkpt>
      <trkpt lat="32.74483" lon="-16.68614">
        <ele>62.72</ele>
      </trkpt>
      <trkpt lat="32.74488" lon="-16.68607">
        <ele>63.99</ele>
      </trkpt>
      <trkpt lat="32.74489" lon="-16.68602">
        <ele>64.59</ele>
      </trkpt>
      <trkpt lat="32.74488" lon="-16.68595">
        <ele>65.22</ele>
      </trkpt>
      <trkpt lat="32.74489" lon="-16.68587">
        <ele>66.23</ele>
      </trkpt>
      <trkpt lat="32.74491" lon="-16.68575">
        <ele>67.36</ele>
      </trkpt>
      <trkpt lat="32.74492" lon="-16.68561">
        <ele>68.08</ele>
      </trkpt>
      <trkpt lat="32.7449" lon="-16.68551">
        <ele>68.93</ele>
      </trkpt>
      <trkpt lat="32.74487" lon="-16.68541">
        <ele>70.61</ele>
      </trkpt>
      <trkpt lat="32.74487" lon="-16.68527">
        <ele>73.65</ele>
      </trkpt>
      <trkpt lat="32.74488" lon="-16.68518">
        <ele>73.12</ele>
      </trkpt>
      <trkpt lat="32.74487" lon="-16.68509">
        <ele>72.06</ele>
      </trkpt>
      <trkpt lat="32.74482" lon="-16.68501">
        <ele>69.91</ele>
      </trkpt>
      <trkpt lat="32.74478" lon="-16.68489">
        <ele>70.0</ele>
      </trkpt>
      <trkpt lat="32.74468" lon="-16.68473">
        <ele>69.22</ele>
      </trkpt>
      <trkpt lat="32.74465" lon="-16.68458">
        <ele>68.79</ele>
      </trkpt>
      <trkpt lat="32.74462" lon="-16.68451">
        <ele>68.0</ele>
      </trkpt>
      <trkpt lat="32.74457" lon="-16.68438">
        <ele>66.88</ele>
      </trkpt>
      <trkpt lat="32.7445" lon="-16.68419">
        <ele>65.65</ele>
      </trkpt>
      <trkpt lat="32.74445" lon="-16.68414">
        <ele>64.46</ele>
      </trkpt>
      <trkpt lat="32.74443" lon="-16.68407">
        <ele>64.87</ele>
      </trkpt>
      <trkpt lat="32.74445" lon="-16.68397">
        <ele>66.23</ele>
      </trkpt>
      <trkpt lat="32.74444" lon="-16.68393">
        <ele>66.52</ele>
      </trkpt>
      <trkpt lat="32.7444" lon="-16.68387">
        <ele>66.88</ele>
      </trkpt>
      <trkpt lat="32.74434" lon="-16.68383">
        <ele>66.88</ele>
      </trkpt>
      <trkpt lat="32.7443" lon="-16.68378">
        <ele>67.14</ele>
      </trkpt>
      <trkpt lat="32.74424" lon="-16.68373">
        <ele>67.24</ele>
      </trkpt>
      <trkpt lat="32.74421" lon="-16.68368">
        <ele>67.57</ele>
      </trkpt>
      <trkpt lat="32.74419" lon="-16.68361">
        <ele>68.19</ele>
      </trkpt>
      <trkpt lat="32.74414" lon="-16.68356">
        <ele>68.35</ele>
      </trkpt>
      <trkpt lat="32.74408" lon="-16.68348">
        <ele>68.48</ele>
      </trkpt>
      <trkpt lat="32.74399" lon="-16.68343">
        <ele>67.24</ele>
      </trkpt>
      <trkpt lat="32.74385" lon="-16.68329">
        <ele>67.05</ele>
      </trkpt>
      <trkpt lat="32.7437" lon="-16.68311">
        <ele>66.23</ele>
      </trkpt>
      <trkpt lat="32.7436" lon="-16.68297">
        <ele>66.15</ele>
      </trkpt>
      <trkpt lat="32.74349" lon="-16.68282">
        <ele>66.62</ele>
      </trkpt>
      <trkpt lat="32.74338" lon="-16.68271">
        <ele>64.9</ele>
      </trkpt>
      <trkpt lat="32.74332" lon="-16.68262">
        <ele>64.55</ele>
      </trkpt>
      <trkpt lat="32.74325" lon="-16.68247">
        <ele>65.07</ele>
      </trkpt>
      <trkpt lat="32.7432" lon="-16.68237">
        <ele>64.56</ele>
      </trkpt>
      <trkpt lat="32.74318" lon="-16.68229">
        <ele>64.73</ele>
      </trkpt>
      <trkpt lat="32.74317" lon="-16.68223">
        <ele>65.0</ele>
      </trkpt>
      <trkpt lat="32.74317" lon="-16.68216">
        <ele>64.97</ele>
      </trkpt>
      <trkpt lat="32.74312" lon="-16.68212">
        <ele>64.07</ele>
      </trkpt>
      <trkpt lat="32.74302" lon="-16.68209">
        <ele>62.61</ele>
      </trkpt>
      <trkpt lat="32.74298" lon="-16.68204">
        <ele>62.27</ele>
      </trkpt>
      <trkpt lat="32.74295" lon="-16.682">
        <ele>62.09</ele>
      </trkpt>
      <trkpt lat="32.74292" lon="-16.68194">
        <ele>62.07</ele>
      </trkpt>
      <trkpt lat="32.74293" lon="-16.68189">
        <ele>62.67</ele>
      </trkpt>
      <trkpt lat="32.74292" lon="-16.68185">
        <ele>63.04</ele>
      </trkpt>
      <trkpt lat="32.74292" lon="-16.68185">
        <ele>63.04</ele>
      </trkpt>
      <trkpt lat="32.74289" lon="-16.68185">
        <ele>62.89</ele>
      </trkpt>
      <trkpt lat="32.74286" lon="-16.68188">
        <ele>62.38</ele>
      </trkpt>
      <trkpt lat="32.7428" lon="-16.68194">
        <ele>61.22</ele>
      </trkpt>
      <trkpt lat="32.74275" lon="-16.68204">
        <ele>60.91</ele>
      </trkpt>
      <trkpt lat="32.7427" lon="-16.68221">
        <ele>60.24</ele>
      </trkpt>
      <trkpt lat="32.74268" lon="-16.68226">
        <ele>59.9</ele>
      </trkpt>
      <trkpt lat="32.74264" lon="-16.68232">
        <ele>59.58</ele>
      </trkpt>
      <trkpt lat="32.74261" lon="-16.68245">
        <ele>57.97</ele>
      </trkpt>
      <trkpt lat="32.74257" lon="-16.6825">
        <ele>57.5</ele>
      </trkpt>
      <trkpt lat="32.74255" lon="-16.68261">
        <ele>56.06</ele>
      </trkpt>
      <trkpt lat="32.74249" lon="-16.68268">
        <ele>55.49</ele>
      </trkpt>
      <trkpt lat="32.74244" lon="-16.68273">
        <ele>55.16</ele>
      </trkpt>
      <trkpt lat="32.74236" lon="-16.68281">
        <ele>54.49</ele>
      </trkpt>
      <trkpt lat="32.74235" lon="-16.68286">
        <ele>53.74</ele>
      </trkpt>
      <trkpt lat="32.74235" lon="-16.68291">
        <ele>52.92</ele>
      </trkpt>
      <trkpt lat="32.74235" lon="-16.68296">
        <ele>52.1</ele>
      </trkpt>
      <trkpt lat="32.74232" lon="-16.68309">
        <ele>50.15</ele>
      </trkpt>
      <trkpt lat="32.74226" lon="-16.6832">
        <ele>48.78</ele>
      </trkpt>
      <trkpt lat="32.74224" lon="-16.68333">
        <ele>46.98</ele>
      </trkpt>
      <trkpt lat="32.74223" lon="-16.6834">
        <ele>46.25</ele>
      </trkpt>
      <trkpt lat="32.74223" lon="-16.6834">
        <ele>46.25</ele>
      </trkpt>
      <trkpt lat="32.74223" lon="-16.6834">
        <ele>46.25</ele>
      </trkpt>
      <trkpt lat="32.74221" lon="-16.68354">
        <ele>44.79</ele>
      </trkpt>
      <trkpt lat="32.74216" lon="-16.68371">
        <ele>41.72</ele>
      </trkpt>
      <trkpt lat="32.7422" lon="-16.68395">
        <ele>36.97</ele>
      </trkpt>
      <trkpt lat="32.74261" lon="-16.68528">
        <ele>20.18</ele>
      </trkpt>
      <trkpt lat="32.74272" lon="-16.68566">
        <ele>18.99</ele>
      </trkpt>
      <trkpt lat="32.74271" lon="-16.68569">
        <ele>18.24</ele>
      </trkpt>
      <trkpt lat="32.74271" lon="-16.68569">
        <ele>18.24</ele>
      </trkpt>
      <trkpt lat="32.74271" lon="-16.68569">
        <ele>18.24</ele>
      </trkpt>
      <trkpt lat="32.74269" lon="-16.68577">
        <ele>16.35</ele>
      </trkpt>
      <trkpt lat="32.74276" lon="-16.68582">
        <ele>16.09</ele>
      </trkpt>
      <trkpt lat="32.74291" lon="-16.68586">
        <ele>18.8</ele>
      </trkpt>
      <trkpt lat="32.74298" lon="-16.68593">
        <ele>19.26</ele>
      </trkpt>
      <trkpt lat="32.74308" lon="-16.68602">
        <ele>20.81</ele>
      </trkpt>
      <trkpt lat="32.74364" lon="-16.68623">
        <ele>41.73</ele>
      </trkpt>
      <trkpt lat="32.74373" lon="-16.68638">
        <ele>40.4</ele>
      </trkpt>
      <trkpt lat="32.74377" lon="-16.68649">
        <ele>36.71</ele>
      </trkpt>
      <trkpt lat="32.7439" lon="-16.68643">
        <ele>44.5</ele>
      </trkpt>
      <trkpt lat="32.74403" lon="-16.68644">
        <ele>45.72</ele>
      </trkpt>
      <trkpt lat="32.74417" lon="-16.68637">
        <ele>51.25</ele>
      </trkpt>
      <trkpt lat="32.74417" lon="-16.68637">
        <ele>51.25</ele>
      </trkpt>
      <trkpt lat="32.74417" lon="-16.68637">
        <ele>51.25</ele>
      </trkpt>
      <trkpt lat="32.74443" lon="-16.68627">
        <ele>56.89</ele>
      </trkpt>
      <trkpt lat="32.74464" lon="-16.68624">
        <ele>59.47</ele>
      </trkpt>
    </trkseg>
  </trk>
</gpx>
