<?xml version="1.0"?>
<gpx xmlns="http://www.topografix.com/GPX/1/1" xmlns:xsi="http://www.w3.org/2001/XMLSchema-instance" version="1.1" creator="AllTrails.com" xsi:schemaLocation="http://www.topografix.com/GPX/1/1 http://www.topografix.com/GPX/1/1/gpx.xsd">
  <metadata>
    <name><![CDATA[pr-91-levada-do-caldeira-o-verde-um-caminho-para-todos]]></name>
    <desc><![CDATA[]]></desc>
    <link href="http://www.alltrails.com">
      <text>AllTrails, LLC</text>
    </link>
    <bounds minlat="32.7793" minlon="-16.90712" maxlat="32.78377" maxlon="-16.89665"/>
  </metadata>
  <trk>
    <name><![CDATA[pr-91-levada-do-caldeira-o-verde-um-caminho-para-todos]]></name>
    <src>AllTrails</src>
    <trkseg>
      <trkpt lat="32.78377" lon="-16.9058">
        <ele>875.2</ele>
      </trkpt>
      <trkpt lat="32.78377" lon="-16.90578">
        <ele>875.15</ele>
      </trkpt>
      <trkpt lat="32.78368" lon="-16.90578">
        <ele>873.17</ele>
      </trkpt>
      <trkpt lat="32.78361" lon="-16.9058">
        <ele>872.15</ele>
      </trkpt>
      <trkpt lat="32.78329" lon="-16.90606">
        <ele>883.6</ele>
      </trkpt>
      <trkpt lat="32.78311" lon="-16.90626">
        <ele>891.73</ele>
      </trkpt>
      <trkpt lat="32.78282" lon="-16.9066">
        <ele>900.46</ele>
      </trkpt>
      <trkpt lat="32.7826" lon="-16.90671">
        <ele>898.51</ele>
      </trkpt>
      <trkpt lat="32.78242" lon="-16.90675">
        <ele>894.27</ele>
      </trkpt>
      <trkpt lat="32.78189" lon="-16.90697">
        <ele>886.26</ele>
      </trkpt>
      <trkpt lat="32.78173" lon="-16.907">
        <ele>888.65</ele>
      </trkpt>
      <trkpt lat="32.78146" lon="-16.9071">
        <ele>893.31</ele>
      </trkpt>
      <trkpt lat="32.78132" lon="-16.90712">
        <ele>895.87</ele>
      </trkpt>
      <trkpt lat="32.78103" lon="-16.90712">
        <ele>907.79</ele>
      </trkpt>
      <trkpt lat="32.78095" lon="-16.90706">
        <ele>912.0</ele>
      </trkpt>
      <trkpt lat="32.78092" lon="-16.90699">
        <ele>912.43</ele>
      </trkpt>
      <trkpt lat="32.78091" lon="-16.90693">
        <ele>912.02</ele>
      </trkpt>
      <trkpt lat="32.78093" lon="-16.9068">
        <ele>910.76</ele>
      </trkpt>
      <trkpt lat="32.781" lon="-16.90648">
        <ele>908.75</ele>
      </trkpt>
      <trkpt lat="32.78103" lon="-16.90642">
        <ele>907.78</ele>
      </trkpt>
      <trkpt lat="32.78117" lon="-16.90628">
        <ele>909.59</ele>
      </trkpt>
      <trkpt lat="32.78148" lon="-16.90588">
        <ele>912.85</ele>
      </trkpt>
      <trkpt lat="32.78153" lon="-16.90584">
        <ele>910.73</ele>
      </trkpt>
      <trkpt lat="32.78165" lon="-16.90578">
        <ele>904.07</ele>
      </trkpt>
      <trkpt lat="32.78177" lon="-16.90568">
        <ele>898.51</ele>
      </trkpt>
      <trkpt lat="32.78184" lon="-16.90557">
        <ele>897.25</ele>
      </trkpt>
      <trkpt lat="32.78204" lon="-16.90505">
        <ele>899.83</ele>
      </trkpt>
      <trkpt lat="32.78216" lon="-16.9048">
        <ele>894.58</ele>
      </trkpt>
      <trkpt lat="32.7822" lon="-16.90469">
        <ele>894.45</ele>
      </trkpt>
      <trkpt lat="32.78218" lon="-16.9044">
        <ele>894.4</ele>
      </trkpt>
      <trkpt lat="32.78232" lon="-16.90406">
        <ele>892.16</ele>
      </trkpt>
      <trkpt lat="32.78232" lon="-16.90406">
        <ele>892.16</ele>
      </trkpt>
      <trkpt lat="32.78232" lon="-16.90406">
        <ele>892.16</ele>
      </trkpt>
      <trkpt lat="32.78236" lon="-16.90396">
        <ele>893.87</ele>
      </trkpt>
      <trkpt lat="32.78245" lon="-16.90379">
        <ele>891.93</ele>
      </trkpt>
      <trkpt lat="32.78247" lon="-16.90366">
        <ele>891.27</ele>
      </trkpt>
      <trkpt lat="32.78252" lon="-16.90344">
        <ele>894.63</ele>
      </trkpt>
      <trkpt lat="32.78243" lon="-16.90324">
        <ele>898.93</ele>
      </trkpt>
      <trkpt lat="32.78235" lon="-16.90312">
        <ele>901.34</ele>
      </trkpt>
      <trkpt lat="32.78233" lon="-16.90296">
        <ele>904.49</ele>
      </trkpt>
      <trkpt lat="32.78233" lon="-16.90287">
        <ele>906.37</ele>
      </trkpt>
      <trkpt lat="32.78235" lon="-16.90277">
        <ele>907.71</ele>
      </trkpt>
      <trkpt lat="32.7824" lon="-16.90255">
        <ele>904.81</ele>
      </trkpt>
      <trkpt lat="32.78244" lon="-16.90242">
        <ele>901.6</ele>
      </trkpt>
      <trkpt lat="32.78246" lon="-16.90223">
        <ele>896.21</ele>
      </trkpt>
      <trkpt lat="32.78246" lon="-16.90208">
        <ele>893.37</ele>
      </trkpt>
      <trkpt lat="32.78244" lon="-16.90193">
        <ele>890.47</ele>
      </trkpt>
      <trkpt lat="32.7824" lon="-16.90183">
        <ele>888.17</ele>
      </trkpt>
      <trkpt lat="32.78232" lon="-16.90181">
        <ele>887.45</ele>
      </trkpt>
      <trkpt lat="32.78218" lon="-16.90189">
        <ele>888.09</ele>
      </trkpt>
      <trkpt lat="32.78196" lon="-16.90208">
        <ele>889.13</ele>
      </trkpt>
      <trkpt lat="32.7816" lon="-16.90235">
        <ele>900.2</ele>
      </trkpt>
      <trkpt lat="32.78149" lon="-16.90246">
        <ele>906.86</ele>
      </trkpt>
      <trkpt lat="32.78141" lon="-16.9025">
        <ele>909.7</ele>
      </trkpt>
      <trkpt lat="32.78135" lon="-16.90247">
        <ele>910.08</ele>
      </trkpt>
      <trkpt lat="32.78132" lon="-16.90237">
        <ele>908.0</ele>
      </trkpt>
      <trkpt lat="32.78135" lon="-16.90222">
        <ele>901.52</ele>
      </trkpt>
      <trkpt lat="32.78137" lon="-16.90201">
        <ele>900.57</ele>
      </trkpt>
      <trkpt lat="32.78153" lon="-16.90172">
        <ele>890.58</ele>
      </trkpt>
      <trkpt lat="32.78156" lon="-16.90164">
        <ele>888.05</ele>
      </trkpt>
      <trkpt lat="32.78155" lon="-16.90156">
        <ele>887.18</ele>
      </trkpt>
      <trkpt lat="32.78152" lon="-16.90143">
        <ele>886.39</ele>
      </trkpt>
      <trkpt lat="32.78138" lon="-16.90114">
        <ele>889.57</ele>
      </trkpt>
      <trkpt lat="32.78134" lon="-16.9009">
        <ele>890.8</ele>
      </trkpt>
      <trkpt lat="32.78131" lon="-16.90077">
        <ele>891.78</ele>
      </trkpt>
      <trkpt lat="32.78124" lon="-16.90065">
        <ele>894.01</ele>
      </trkpt>
      <trkpt lat="32.78113" lon="-16.90058">
        <ele>897.47</ele>
      </trkpt>
      <trkpt lat="32.78108" lon="-16.90057">
        <ele>898.16</ele>
      </trkpt>
      <trkpt lat="32.78104" lon="-16.90056">
        <ele>898.27</ele>
      </trkpt>
      <trkpt lat="32.78091" lon="-16.90051">
        <ele>897.69</ele>
      </trkpt>
      <trkpt lat="32.78067" lon="-16.90049">
        <ele>894.44</ele>
      </trkpt>
      <trkpt lat="32.78066" lon="-16.90031">
        <ele>893.19</ele>
      </trkpt>
      <trkpt lat="32.78065" lon="-16.90008">
        <ele>893.71</ele>
      </trkpt>
      <trkpt lat="32.78055" lon="-16.89985">
        <ele>891.7</ele>
      </trkpt>
      <trkpt lat="32.78048" lon="-16.89978">
        <ele>889.09</ele>
      </trkpt>
      <trkpt lat="32.7804" lon="-16.89978">
        <ele>887.24</ele>
      </trkpt>
      <trkpt lat="32.78019" lon="-16.89995">
        <ele>886.07</ele>
      </trkpt>
      <trkpt lat="32.78009" lon="-16.90001">
        <ele>886.85</ele>
      </trkpt>
      <trkpt lat="32.77997" lon="-16.90002">
        <ele>888.47</ele>
      </trkpt>
      <trkpt lat="32.77987" lon="-16.89998">
        <ele>891.71</ele>
      </trkpt>
      <trkpt lat="32.77975" lon="-16.89991">
        <ele>896.29</ele>
      </trkpt>
      <trkpt lat="32.77967" lon="-16.89979">
        <ele>899.93</ele>
      </trkpt>
      <trkpt lat="32.77964" lon="-16.89964">
        <ele>901.52</ele>
      </trkpt>
      <trkpt lat="32.77963" lon="-16.89953">
        <ele>901.26</ele>
      </trkpt>
      <trkpt lat="32.77964" lon="-16.89946">
        <ele>900.15</ele>
      </trkpt>
      <trkpt lat="32.77982" lon="-16.89892">
        <ele>887.86</ele>
      </trkpt>
      <trkpt lat="32.77982" lon="-16.89869">
        <ele>883.2</ele>
      </trkpt>
      <trkpt lat="32.77975" lon="-16.89843">
        <ele>878.82</ele>
      </trkpt>
      <trkpt lat="32.7797" lon="-16.8983">
        <ele>877.93</ele>
      </trkpt>
      <trkpt lat="32.77961" lon="-16.89818">
        <ele>881.82</ele>
      </trkpt>
      <trkpt lat="32.77949" lon="-16.8981">
        <ele>886.9</ele>
      </trkpt>
      <trkpt lat="32.77944" lon="-16.89804">
        <ele>889.16</ele>
      </trkpt>
      <trkpt lat="32.7793" lon="-16.89794">
        <ele>893.77</ele>
      </trkpt>
      <trkpt lat="32.7793" lon="-16.89788">
        <ele>893.54</ele>
      </trkpt>
      <trkpt lat="32.77939" lon="-16.89783">
        <ele>890.64</ele>
      </trkpt>
      <trkpt lat="32.77949" lon="-16.89781">
        <ele>887.49</ele>
      </trkpt>
      <trkpt lat="32.77978" lon="-16.89764">
        <ele>878.56</ele>
      </trkpt>
      <trkpt lat="32.77983" lon="-16.89759">
        <ele>877.92</ele>
      </trkpt>
      <trkpt lat="32.77986" lon="-16.8975">
        <ele>878.01</ele>
      </trkpt>
      <trkpt lat="32.77986" lon="-16.8974">
        <ele>878.54</ele>
      </trkpt>
      <trkpt lat="32.77979" lon="-16.89688">
        <ele>874.1</ele>
      </trkpt>
      <trkpt lat="32.77972" lon="-16.89665">
        <ele>872.15</ele>
      </trkpt>
    </trkseg>
  </trk>
</gpx>
